_id,agua,aire,alcantarillado,anio,cas,coprocesamiento,cve_ent,dispfinal,estado,gposustancia,iarc,incineracion,nombre,nra,otros,reciclado,reutilizacion,sector,suelo,sustancia,tratamiento,unidad,actprincipal,actsemarnat,calle,colonia,coordenadaUTMX,coordenadaUTMY,cp,cve_mun,cveamb,descmod,descscian,entrec1,entrec2,latitudnorte,localidad,longitudoeste,mod,municipio,numexterior,numinterior,parqueind,scian,subsector,lat,lng,calculada,incorrecto,mapa,enmexico,enestado,cve_ent_coor,enmunicipio,cve_mun_coor,flat,flng,PERFIL
65298b9ebb426186d90478f8,0,310,0,2011,75-07-0,0,26,0,SONORA,,2B,0,FUERZA Y ENERGIA DE NACO NOGALES S.A. DE C.V.,FENAD2600211,0,0,0,Generación de energía eléctrica,0,Acetaldehido,0,kg/año,GENERACIÓN Y TRANSMISIÓN DE ENERGÍA ELÉCTRICA (SÓLO GENERACIÓN; INCLUYE LAS INSTALACIONES,No disponible,KM 14 CARRETERA AGUA PRIETA NACOZARI,EL FRESNAL,No disponible,No disponible,84200,2,AD,No aplica,"Generación, transmisión y distribución de energía eléctrica",No disponible,No disponible,"31°18'34""",No disponible,"109°32'48""",0,Agua Prieta,3.5 KM,No disponible,PREDIO EL FRESNAL,221110,Generacion y transmision de energia electrica,31.3094444444444,-109.546666666667,1,0,1,1,1,26,1,2,31.3094444444444,-109.546666666667,26_2_2B_75-07-0_2011
65298b9ebb426186d90478f9,35,0,0,2011,7440-38-2,0,26,0,SONORA,,1,0,FUERZA Y ENERGIA DE NACO NOGALES S.A. DE C.V.,FENAD2600211,0,0,0,Generación de energía eléctrica,0,Arsénico,0,kg/año,GENERACIÓN Y TRANSMISIÓN DE ENERGÍA ELÉCTRICA (SÓLO GENERACIÓN; INCLUYE LAS INSTALACIONES,No disponible,KM 14 CARRETERA AGUA PRIETA NACOZARI,EL FRESNAL,No disponible,No disponible,84200,2,AD,No aplica,"Generación, transmisión y distribución de energía eléctrica",No disponible,No disponible,"31°18'34""",No disponible,"109°32'48""",0,Agua Prieta,3.5 KM,No disponible,PREDIO EL FRESNAL,221110,Generacion y transmision de energia electrica,31.3094444444444,-109.546666666667,1,0,1,1,1,26,1,2,31.3094444444444,-109.546666666667,26_2_1_7440-38-2_2011
65298b9ebb426186d90478fa,0,21360,0,2011,50-00-0,0,26,0,SONORA,,1,0,FUERZA Y ENERGIA DE NACO NOGALES S.A. DE C.V.,FENAD2600211,0,0,0,Generación de energía eléctrica,0,Formaldehido,0,kg/año,GENERACIÓN Y TRANSMISIÓN DE ENERGÍA ELÉCTRICA (SÓLO GENERACIÓN; INCLUYE LAS INSTALACIONES,No disponible,KM 14 CARRETERA AGUA PRIETA NACOZARI,EL FRESNAL,No disponible,No disponible,84200,2,AD,No aplica,"Generación, transmisión y distribución de energía eléctrica",No disponible,No disponible,"31°18'34""",No disponible,"109°32'48""",0,Agua Prieta,3.5 KM,No disponible,PREDIO EL FRESNAL,221110,Generacion y transmision de energia electrica,31.3094444444444,-109.546666666667,1,0,1,1,1,26,1,2,31.3094444444444,-109.546666666667,26_2_1_50-00-0_2011
65298ba3bb426186d904c00c,0,20860,0,2008,50-00-0,0,26,0,SONORA,,1,0,FUERZA Y ENERGIA DE NACO NOGALES S.A. DE C.V.,FENAD2600211,0,0,0,Generación de energía eléctrica,0,Formaldehido,0,kg/año,GENERACIÓN Y TRANSMISIÓN DE ENERGÍA ELÉCTRICA (SÓLO GENERACIÓN; INCLUYE LAS INSTALACIONES,No disponible,KM 14 CARRETERA AGUA PRIETA NACOZARI,PREDIO EL FRESNAL,No disponible,No disponible,84200,2,AD,No aplica,"Generación, transmisión y distribución de energía eléctrica",No disponible,No disponible,"31°18'34""",AGUA PRIETA,"109°32'48""",0,Agua Prieta,3.5,KM,PREDIO EL FRESNAL,221110,Generacion y transmision de energia electrica,31.3094444444444,-109.546666666667,1,0,1,1,1,26,1,2,31.3094444444444,-109.546666666667,26_2_1_50-00-0_2008
65298ba3bb426186d904c00e,0.019593,0,0,2008,7440-38-2,0,26,0,SONORA,,1,0,FUERZA Y ENERGIA DE NACO NOGALES S.A. DE C.V.,FENAD2600211,0,0,0,Generación de energía eléctrica,0,Arsénico,0,kg/año,GENERACIÓN Y TRANSMISIÓN DE ENERGÍA ELÉCTRICA (SÓLO GENERACIÓN; INCLUYE LAS INSTALACIONES,No disponible,KM 14 CARRETERA AGUA PRIETA NACOZARI,PREDIO EL FRESNAL,No disponible,No disponible,84200,2,AD,No aplica,"Generación, transmisión y distribución de energía eléctrica",No disponible,No disponible,"31°18'34""",AGUA PRIETA,"109°32'48""",0,Agua Prieta,3.5,KM,PREDIO EL FRESNAL,221110,Generacion y transmision de energia electrica,31.3094444444444,-109.546666666667,1,0,1,1,1,26,1,2,31.3094444444444,-109.546666666667,26_2_1_7440-38-2_2008
65298ba3bb426186d904c00f,0,300,0,2008,75-07-0,0,26,0,SONORA,,2B,0,FUERZA Y ENERGIA DE NACO NOGALES S.A. DE C.V.,FENAD2600211,0,0,0,Generación de energía eléctrica,0,Acetaldehido,0,kg/año,GENERACIÓN Y TRANSMISIÓN DE ENERGÍA ELÉCTRICA (SÓLO GENERACIÓN; INCLUYE LAS INSTALACIONES,No disponible,KM 14 CARRETERA AGUA PRIETA NACOZARI,PREDIO EL FRESNAL,No disponible,No disponible,84200,2,AD,No aplica,"Generación, transmisión y distribución de energía eléctrica",No disponible,No disponible,"31°18'34""",AGUA PRIETA,"109°32'48""",0,Agua Prieta,3.5,KM,PREDIO EL FRESNAL,221110,Generacion y transmision de energia electrica,31.3094444444444,-109.546666666667,1,0,1,1,1,26,1,2,31.3094444444444,-109.546666666667,26_2_2B_75-07-0_2008
65298bb4bb426186d9057279,0,0.28,0,2007,75-07-0,0,26,0,SONORA,,2B,0,FUERZA Y ENERGIA DE NACO NOGALES S.A. DE C.V.,FENAD2600211,0,0,0,Generación de energía eléctrica,0,Acetaldehido,0,kg/año,GENERACIÓN Y TRANSMISIÓN DE ENERGÍA ELÉCTRICA (SÓLO GENERACIÓN; INCLUYE LAS INSTALACIONES,No disponible,KM 14 CARRETERA AGUA PRIETA NACOZARI,PREDIO EL FRESNAL,No disponible,No disponible,84200,2,AD,No aplica,"Generación, transmisión y distribución de energía eléctrica.",No disponible,No disponible,"31°18'34""",AGUA PRIETA,"109°32'48""",0,Agua Prieta,3.5,KM,PREDIO EL FRESNAL,221110,Generacion y transmision de energia electrica,31.3094444444444,-109.546666666667,1,0,1,1,1,26,1,2,31.3094444444444,-109.546666666667,26_2_2B_75-07-0_2007
65298bb4bb426186d905727a,0.01344364,0,0,2007,7440-38-2,0,26,0,SONORA,,1,0,FUERZA Y ENERGIA DE NACO NOGALES S.A. DE C.V.,FENAD2600211,0,0,0,Generación de energía eléctrica,0,Arsénico,0,kg/año,GENERACIÓN Y TRANSMISIÓN DE ENERGÍA ELÉCTRICA (SÓLO GENERACIÓN; INCLUYE LAS INSTALACIONES,No disponible,KM 14 CARRETERA AGUA PRIETA NACOZARI,PREDIO EL FRESNAL,No disponible,No disponible,84200,2,AD,No aplica,"Generación, transmisión y distribución de energía eléctrica.",No disponible,No disponible,"31°18'34""",AGUA PRIETA,"109°32'48""",0,Agua Prieta,3.5,KM,PREDIO EL FRESNAL,221110,Generacion y transmision de energia electrica,31.3094444444444,-109.546666666667,1,0,1,1,1,26,1,2,31.3094444444444,-109.546666666667,26_2_1_7440-38-2_2007
65298bb4bb426186d905727c,0,19.31,0,2007,50-00-0,0,26,0,SONORA,,1,0,FUERZA Y ENERGIA DE NACO NOGALES S.A. DE C.V.,FENAD2600211,0,0,0,Generación de energía eléctrica,0,Formaldehido,0,kg/año,GENERACIÓN Y TRANSMISIÓN DE ENERGÍA ELÉCTRICA (SÓLO GENERACIÓN; INCLUYE LAS INSTALACIONES,No disponible,KM 14 CARRETERA AGUA PRIETA NACOZARI,PREDIO EL FRESNAL,No disponible,No disponible,84200,2,AD,No aplica,"Generación, transmisión y distribución de energía eléctrica.",No disponible,No disponible,"31°18'34""",AGUA PRIETA,"109°32'48""",0,Agua Prieta,3.5,KM,PREDIO EL FRESNAL,221110,Generacion y transmision de energia electrica,31.3094444444444,-109.546666666667,1,0,1,1,1,26,1,2,31.3094444444444,-109.546666666667,26_2_1_50-00-0_2007
65298bb9bb426186d9059c22,0,21660,0,2010,50-00-0,0,26,0,SONORA,,1,0,FUERZA Y ENERGIA DE NACO NOGALES S.A. DE C.V.,FENAD2600211,0,0,0,Generación de energía eléctrica,0,Formaldehido,0,kg/año,GENERACIÓN Y TRANSMISIÓN DE ENERGÍA ELÉCTRICA (SÓLO GENERACIÓN; INCLUYE LAS INSTALACIONES,No disponible,KM 14 CARRETERA AGUA PRIETA NACOZARI,PREDIO EL FRESNAL,No disponible,No disponible,84200,2,AD,No aplica,"Generación, transmisión y distribución de energía eléctrica.",No disponible,No disponible,"31°18'34""",AGUA PRIETA,"109°32'48""",0,Agua Prieta,3.5,KM,PREDIO EL FRESNAL,221110,Generacion y transmision de energia electrica,31.3094444444444,-109.546666666667,1,0,1,1,1,26,1,2,31.3094444444444,-109.546666666667,26_2_1_50-00-0_2010
65298bb9bb426186d9059c24,0,310,0,2010,75-07-0,0,26,0,SONORA,,2B,0,FUERZA Y ENERGIA DE NACO NOGALES S.A. DE C.V.,FENAD2600211,0,0,0,Generación de energía eléctrica,0,Acetaldehido,0,kg/año,GENERACIÓN Y TRANSMISIÓN DE ENERGÍA ELÉCTRICA (SÓLO GENERACIÓN; INCLUYE LAS INSTALACIONES,No disponible,KM 14 CARRETERA AGUA PRIETA NACOZARI,PREDIO EL FRESNAL,No disponible,No disponible,84200,2,AD,No aplica,"Generación, transmisión y distribución de energía eléctrica.",No disponible,No disponible,"31°18'34""",AGUA PRIETA,"109°32'48""",0,Agua Prieta,3.5,KM,PREDIO EL FRESNAL,221110,Generacion y transmision de energia electrica,31.3094444444444,-109.546666666667,1,0,1,1,1,26,1,2,31.3094444444444,-109.546666666667,26_2_2B_75-07-0_2010
65298bbcbb426186d905c6aa,0.00001863076,0,0,2009,7440-38-2,0,26,0,SONORA,,1,0,FUERZA Y ENERGIA DE NACO NOGALES S.A. DE C.V.,FENAD2600211,0,0,0,Generación de energía eléctrica,0,Arsénico,0,kg/año,GENERACIÓN Y TRANSMISIÓN DE ENERGÍA ELÉCTRICA (SÓLO GENERACIÓN; INCLUYE LAS INSTALACIONES,No disponible,KM 14 CARRETERA AGUA PRIETA NACOZARI,PREDIO EL FRESNAL,No disponible,No disponible,84200,2,AD,No aplica,"Generación, transmisión y distribución de energía eléctrica.",No disponible,No disponible,"31°18'34""",AGUA PRIETA,"109°32'48""",0,Agua Prieta,3.5,KM,PREDIO EL FRESNAL,221110,Generacion y transmision de energia electrica,31.3094444444444,-109.546666666667,1,0,1,1,1,26,1,2,31.3094444444444,-109.546666666667,26_2_1_7440-38-2_2009
65298bbcbb426186d905c6ab,0,20.11,0,2009,50-00-0,0,26,0,SONORA,,1,0,FUERZA Y ENERGIA DE NACO NOGALES S.A. DE C.V.,FENAD2600211,0,0,0,Generación de energía eléctrica,0,Formaldehido,0,kg/año,GENERACIÓN Y TRANSMISIÓN DE ENERGÍA ELÉCTRICA (SÓLO GENERACIÓN; INCLUYE LAS INSTALACIONES,No disponible,KM 14 CARRETERA AGUA PRIETA NACOZARI,PREDIO EL FRESNAL,No disponible,No disponible,84200,2,AD,No aplica,"Generación, transmisión y distribución de energía eléctrica.",No disponible,No disponible,"31°18'34""",AGUA PRIETA,"109°32'48""",0,Agua Prieta,3.5,KM,PREDIO EL FRESNAL,221110,Generacion y transmision de energia electrica,31.3094444444444,-109.546666666667,1,0,1,1,1,26,1,2,31.3094444444444,-109.546666666667,26_2_1_50-00-0_2009
65298bbcbb426186d905c6ac,0,0.29,0,2009,75-07-0,0,26,0,SONORA,,2B,0,FUERZA Y ENERGIA DE NACO NOGALES S.A. DE C.V.,FENAD2600211,0,0,0,Generación de energía eléctrica,0,Acetaldehido,0,kg/año,GENERACIÓN Y TRANSMISIÓN DE ENERGÍA ELÉCTRICA (SÓLO GENERACIÓN; INCLUYE LAS INSTALACIONES,No disponible,KM 14 CARRETERA AGUA PRIETA NACOZARI,PREDIO EL FRESNAL,No disponible,No disponible,84200,2,AD,No aplica,"Generación, transmisión y distribución de energía eléctrica.",No disponible,No disponible,"31°18'34""",AGUA PRIETA,"109°32'48""",0,Agua Prieta,3.5,KM,PREDIO EL FRESNAL,221110,Generacion y transmision de energia electrica,31.3094444444444,-109.546666666667,1,0,1,1,1,26,1,2,31.3094444444444,-109.546666666667,26_2_2B_75-07-0_2009
65298bc0bb426186d90603e4,0.088,0,0,2004,7440-38-2,0,26,0,SONORA,,1,0,Fuerza y Energia de Naco Nogales S.A. de C.V.,FENEA2600211,0,0,0,Generación de energía eléctrica,0,Arsénico,0,kg/año,GENERACIÓN Y TRANSMISIÓN DE ENERGÍA ELÉCTRICA (SÓLO GENERACIÓN; INCLUYE LAS INSTALACIONES,Generacion y transmision de energia electrica,Carretera Agua Prieta Nacozari,No disponible,0,0,84200,2,No disponible,No aplica,No disponible,No disponible,No disponible,"31°18'34""",Agua Prieta,"-109°32'48""",0,Agua Prieta,Km 14,Int 3.5 Km,Predio el Fresnal,No disponible,No disponible,31.3094444444444,-108.453333333333,1,0,1,1,0,8,0,0,31.3220849,-109.5413163,26_2_1_7440-38-2_2004
65298bc0bb426186d90603e5,0.038,0,0,2004,7440-43-9,0,26,0,SONORA,,1,0,Fuerza y Energia de Naco Nogales S.A. de C.V.,FENEA2600211,0,0,0,Generación de energía eléctrica,0,Cadmio,0,kg/año,GENERACIÓN Y TRANSMISIÓN DE ENERGÍA ELÉCTRICA (SÓLO GENERACIÓN; INCLUYE LAS INSTALACIONES,Generacion y transmision de energia electrica,Carretera Agua Prieta Nacozari,No disponible,0,0,84200,2,No disponible,No aplica,No disponible,No disponible,No disponible,"31°18'34""",Agua Prieta,"-109°32'48""",0,Agua Prieta,Km 14,Int 3.5 Km,Predio el Fresnal,No disponible,No disponible,31.3094444444444,-108.453333333333,1,0,1,1,0,8,0,0,31.3220849,-109.5413163,26_2_1_7440-43-9_2004
65298bc3bb426186d9063107,0,0.0554,0,2013,7440-38-2,0,26,0,SONORA,,1,0,ALSTYLE INTERNACIONAL DE MEXICO S.A. DE C.V.,AIMQB2600211,0,0,0,"Textiles, fibras e hilos",0,Arsénico,0,kg/año,"TEJIDO, TEÑIDO, CORTE Y COSTURA PARA LA FABRICACION DE PRENDAS DE VESTIR.",No disponible,CARRETERA A NACOZARI KM 3.5,LADRILLERAS 2,No disponible,No disponible,84270,2,41,No aplica,Fabricación de ropa interior de punto.,No disponible,No disponible,"31°18'11""",AGUA PRIETA,"109°34'45""",0,Agua Prieta,3500,No disponible,EJIDO,315191,Tejido de prendas de vestir,31.3030555555556,-109.579166666667,1,0,1,1,1,26,1,2,31.3030555555556,-109.579166666667,26_2_1_7440-38-2_2013
65298bc3bb426186d9063108,0,0.32554,0,2013,7440-43-9,0,26,0,SONORA,,1,0,ALSTYLE INTERNACIONAL DE MEXICO S.A. DE C.V.,AIMQB2600211,0,0,0,"Textiles, fibras e hilos",0,Cadmio,0,kg/año,"TEJIDO, TEÑIDO, CORTE Y COSTURA PARA LA FABRICACION DE PRENDAS DE VESTIR.",No disponible,CARRETERA A NACOZARI KM 3.5,LADRILLERAS 2,No disponible,No disponible,84270,2,41,No aplica,Fabricación de ropa interior de punto.,No disponible,No disponible,"31°18'11""",AGUA PRIETA,"109°34'45""",0,Agua Prieta,3500,No disponible,EJIDO,315191,Tejido de prendas de vestir,31.3030555555556,-109.579166666667,1,0,1,1,1,26,1,2,31.3030555555556,-109.579166666667,26_2_1_7440-43-9_2013
65298bc3bb426186d906310a,0,0.412,0,2013,71-43-2,0,26,0,SONORA,,1,0,ALSTYLE INTERNACIONAL DE MEXICO S.A. DE C.V.,AIMQB2600211,0,0,0,"Textiles, fibras e hilos",0,Benceno,0,kg/año,"TEJIDO, TEÑIDO, CORTE Y COSTURA PARA LA FABRICACION DE PRENDAS DE VESTIR.",No disponible,CARRETERA A NACOZARI KM 3.5,LADRILLERAS 2,No disponible,No disponible,84270,2,41,No aplica,Fabricación de ropa interior de punto.,No disponible,No disponible,"31°18'11""",AGUA PRIETA,"109°34'45""",0,Agua Prieta,3500,No disponible,EJIDO,315191,Tejido de prendas de vestir,31.3030555555556,-109.579166666667,1,0,1,1,1,26,1,2,31.3030555555556,-109.579166666667,26_2_1_71-43-2_2013
65298bc3bb426186d906310c,0,13.5,0,2013,50-00-0,0,26,0,SONORA,,1,0,ALSTYLE INTERNACIONAL DE MEXICO S.A. DE C.V.,AIMQB2600211,0,0,0,"Textiles, fibras e hilos",0,Formaldehido,0,kg/año,"TEJIDO, TEÑIDO, CORTE Y COSTURA PARA LA FABRICACION DE PRENDAS DE VESTIR.",No disponible,CARRETERA A NACOZARI KM 3.5,LADRILLERAS 2,No disponible,No disponible,84270,2,41,No aplica,Fabricación de ropa interior de punto.,No disponible,No disponible,"31°18'11""",AGUA PRIETA,"109°34'45""",0,Agua Prieta,3500,No disponible,EJIDO,315191,Tejido de prendas de vestir,31.3030555555556,-109.579166666667,1,0,1,1,1,26,1,2,31.3030555555556,-109.579166666667,26_2_1_50-00-0_2013
65298bc5bb426186d9064425,0,24671,0,2013,50-00-0,0,26,0,SONORA,,1,0,FUERZA Y ENERGIA DE NACO NOGALES S.A. DE C.V.,FENAD2600211,0,0,0,Generación de energía eléctrica,0,Formaldehido,0,kg/año,GENERACIÓN Y TRANSMISIÓN DE ENERGÍA ELÉCTRICA (SÓLO GENERACIÓN; INCLUYE LAS INSTALACIONES,No disponible,KM 14 CARRETERA AGUA PRIETA NACOZARI,EL FRESNAL,No disponible,No disponible,84200,2,AD,No aplica,"Generación, transmisión y distribución de energía eléctrica.",No disponible,No disponible,"31°18'34""",No disponible,"109°32'48""",0,Agua Prieta,3.5 KM,No disponible,PREDIO EL FRESNAL,221110,Generacion y transmision de energia electrica,31.3094444444444,-109.546666666667,1,0,1,1,1,26,1,2,31.3094444444444,-109.546666666667,26_2_1_50-00-0_2013
65298bc5bb426186d9064426,0,355.83,0,2013,75-07-0,0,26,0,SONORA,,2B,0,FUERZA Y ENERGIA DE NACO NOGALES S.A. DE C.V.,FENAD2600211,0,0,0,Generación de energía eléctrica,0,Acetaldehido,0,kg/año,GENERACIÓN Y TRANSMISIÓN DE ENERGÍA ELÉCTRICA (SÓLO GENERACIÓN; INCLUYE LAS INSTALACIONES,No disponible,KM 14 CARRETERA AGUA PRIETA NACOZARI,EL FRESNAL,No disponible,No disponible,84200,2,AD,No aplica,"Generación, transmisión y distribución de energía eléctrica.",No disponible,No disponible,"31°18'34""",No disponible,"109°32'48""",0,Agua Prieta,3.5 KM,No disponible,PREDIO EL FRESNAL,221110,Generacion y transmision de energia electrica,31.3094444444444,-109.546666666667,1,0,1,1,1,26,1,2,31.3094444444444,-109.546666666667,26_2_2B_75-07-0_2013
65298bc5bb426186d9064429,53.3426196,86.98,0,2013,7440-38-2,0,26,0,SONORA,,1,0,FUERZA Y ENERGIA DE NACO NOGALES S.A. DE C.V.,FENAD2600211,0,0,0,Generación de energía eléctrica,0,Arsénico,0,kg/año,GENERACIÓN Y TRANSMISIÓN DE ENERGÍA ELÉCTRICA (SÓLO GENERACIÓN; INCLUYE LAS INSTALACIONES,No disponible,KM 14 CARRETERA AGUA PRIETA NACOZARI,EL FRESNAL,No disponible,No disponible,84200,2,AD,No aplica,"Generación, transmisión y distribución de energía eléctrica.",No disponible,No disponible,"31°18'34""",No disponible,"109°32'48""",0,Agua Prieta,3.5 KM,No disponible,PREDIO EL FRESNAL,221110,Generacion y transmision de energia electrica,31.3094444444444,-109.546666666667,1,0,1,1,1,26,1,2,31.3094444444444,-109.546666666667,26_2_1_7440-38-2_2013
65298bcbbb426186d9069730,0.00003017,0,0,2006,7440-38-2,0,26,0,SONORA,,1,0,FUERZA Y ENERGIA DE NACO NOGALES S.A. DE C.V.,FENAD2600211,0,0,0,Generación de energía eléctrica,0,Arsénico,0,kg/año,GENERACIÓN Y TRANSMISIÓN DE ENERGÍA ELÉCTRICA (SÓLO GENERACIÓN; INCLUYE LAS INSTALACIONES,No disponible,KM 14 CARRETERA AGUA PRIETA NACOZARI,PREDIO EL FRESNAL,No disponible,No disponible,84200,2,AD,No aplica,"Generación, transmisión y distribución de energía eléctrica",No disponible,No disponible,"31°18'34""",AGUA PRIETA,"109°32'48""",0,Agua Prieta,3.5,KM,PREDIO EL FRESNAL,221110,Generacion y transmision de energia electrica,31.3094444444444,-109.546666666667,1,0,1,1,1,26,1,2,31.3094444444444,-109.546666666667,26_2_1_7440-38-2_2006
65298bcbbb426186d9069732,0,18.89,0,2006,50-00-0,0,26,0,SONORA,,1,0,FUERZA Y ENERGIA DE NACO NOGALES S.A. DE C.V.,FENAD2600211,0,0,0,Generación de energía eléctrica,0,Formaldehido,0,kg/año,GENERACIÓN Y TRANSMISIÓN DE ENERGÍA ELÉCTRICA (SÓLO GENERACIÓN; INCLUYE LAS INSTALACIONES,No disponible,KM 14 CARRETERA AGUA PRIETA NACOZARI,PREDIO EL FRESNAL,No disponible,No disponible,84200,2,AD,No aplica,"Generación, transmisión y distribución de energía eléctrica",No disponible,No disponible,"31°18'34""",AGUA PRIETA,"109°32'48""",0,Agua Prieta,3.5,KM,PREDIO EL FRESNAL,221110,Generacion y transmision de energia electrica,31.3094444444444,-109.546666666667,1,0,1,1,1,26,1,2,31.3094444444444,-109.546666666667,26_2_1_50-00-0_2006
65298bcbbb426186d9069734,0,0.27,0,2006,75-07-0,0,26,0,SONORA,,2B,0,FUERZA Y ENERGIA DE NACO NOGALES S.A. DE C.V.,FENAD2600211,0,0,0,Generación de energía eléctrica,0,Acetaldehido,0,kg/año,GENERACIÓN Y TRANSMISIÓN DE ENERGÍA ELÉCTRICA (SÓLO GENERACIÓN; INCLUYE LAS INSTALACIONES,No disponible,KM 14 CARRETERA AGUA PRIETA NACOZARI,PREDIO EL FRESNAL,No disponible,No disponible,84200,2,AD,No aplica,"Generación, transmisión y distribución de energía eléctrica",No disponible,No disponible,"31°18'34""",AGUA PRIETA,"109°32'48""",0,Agua Prieta,3.5,KM,PREDIO EL FRESNAL,221110,Generacion y transmision de energia electrica,31.3094444444444,-109.546666666667,1,0,1,1,1,26,1,2,31.3094444444444,-109.546666666667,26_2_2B_75-07-0_2006
65298bcebb426186d906b574,0,0.0159,0,2012,50-00-0,0,26,0,SONORA,Otros,1,0,ALSTYLE INTERNACIONAL DE MEXICO S.A. DE C.V.,AIMQB2600211,0,0,0,"Textiles, fibras e hilos",0,Formaldehido,0,kg/año,"TEJIDO, TEÑIDO, CORTE Y COSTURA PARA LA FABRICACION DE PRENDAS DE VESTIR.",No disponible,CARRETERA A NACOZARI KM 3.5,LADRILLERAS 2,No disponible,No disponible,84270,2,41,No aplica,Fabricación de ropa exterior de punto.,No disponible,No disponible,"31°18'11""",AGUA PRIETA,"109°34'45""",0,Agua Prieta,3500,No disponible,EJIDO,315192,No disponible,31.3030555555556,-109.579166666667,1,0,1,1,1,26,1,2,31.3030555555556,-109.579166666667,26_2_1_50-00-0_2012
65298bcebb426186d906b575,0,0.000445,0,2012,71-43-2,0,26,0,SONORA,Hidrocarburos Aromáticos y Alifáticos,1,0,ALSTYLE INTERNACIONAL DE MEXICO S.A. DE C.V.,AIMQB2600211,0,0,0,"Textiles, fibras e hilos",0,Benceno,0,kg/año,"TEJIDO, TEÑIDO, CORTE Y COSTURA PARA LA FABRICACION DE PRENDAS DE VESTIR.",No disponible,CARRETERA A NACOZARI KM 3.5,LADRILLERAS 2,No disponible,No disponible,84270,2,41,No aplica,Fabricación de ropa exterior de punto.,No disponible,No disponible,"31°18'11""",AGUA PRIETA,"109°34'45""",0,Agua Prieta,3500,No disponible,EJIDO,315192,No disponible,31.3030555555556,-109.579166666667,1,0,1,1,1,26,1,2,31.3030555555556,-109.579166666667,26_2_1_71-43-2_2012
65298bcebb426186d906b576,0,0.0000424,0,2012,7440-38-2,0,26,0,SONORA,Metales,1,0,ALSTYLE INTERNACIONAL DE MEXICO S.A. DE C.V.,AIMQB2600211,0,0,0,"Textiles, fibras e hilos",0,Arsénico,0,kg/año,"TEJIDO, TEÑIDO, CORTE Y COSTURA PARA LA FABRICACION DE PRENDAS DE VESTIR.",No disponible,CARRETERA A NACOZARI KM 3.5,LADRILLERAS 2,No disponible,No disponible,84270,2,41,No aplica,Fabricación de ropa exterior de punto.,No disponible,No disponible,"31°18'11""",AGUA PRIETA,"109°34'45""",0,Agua Prieta,3500,No disponible,EJIDO,315192,No disponible,31.3030555555556,-109.579166666667,1,0,1,1,1,26,1,2,31.3030555555556,-109.579166666667,26_2_1_7440-38-2_2012
65298bcebb426186d906b577,0,0.0002332,0,2012,7440-43-9,0,26,0,SONORA,Metales,1,0,ALSTYLE INTERNACIONAL DE MEXICO S.A. DE C.V.,AIMQB2600211,0,0,0,"Textiles, fibras e hilos",0,Cadmio,0,kg/año,"TEJIDO, TEÑIDO, CORTE Y COSTURA PARA LA FABRICACION DE PRENDAS DE VESTIR.",No disponible,CARRETERA A NACOZARI KM 3.5,LADRILLERAS 2,No disponible,No disponible,84270,2,41,No aplica,Fabricación de ropa exterior de punto.,No disponible,No disponible,"31°18'11""",AGUA PRIETA,"109°34'45""",0,Agua Prieta,3500,No disponible,EJIDO,315192,No disponible,31.3030555555556,-109.579166666667,1,0,1,1,1,26,1,2,31.3030555555556,-109.579166666667,26_2_1_7440-43-9_2012
65298bcfbb426186d906c648,0,20821.89,0,2012,50-00-0,0,26,0,SONORA,Otros,1,0,FUERZA Y ENERGIA DE NACO NOGALES S.A. DE C.V.,FENAD2600211,0,0,0,Generación de energía eléctrica,0,Formaldehido,0,kg/año,GENERACIÓN Y TRANSMISIÓN DE ENERGÍA ELÉCTRICA (SÓLO GENERACIÓN; INCLUYE LAS INSTALACIONES,No disponible,KM 14 CARRETERA AGUA PRIETA NACOZARI,EL FRESNAL,No disponible,No disponible,84200,2,AD,No aplica,"Generación, transmisión y distribución de energía eléctrica.",sin calle,---,"31°18'34""",No disponible,"109°32'48""",0,Agua Prieta,3.5 KM,No disponible,PREDIO EL FRESNAL,221110,No disponible,31.3094444444444,-109.546666666667,1,0,1,1,1,26,1,2,31.3094444444444,-109.546666666667,26_2_1_50-00-0_2012
65298bcfbb426186d906c64b,85.5467755,0,0,2012,7440-38-2,0,26,0,SONORA,Metales,1,0,FUERZA Y ENERGIA DE NACO NOGALES S.A. DE C.V.,FENAD2600211,0,0,0,Generación de energía eléctrica,0,Arsénico,0,kg/año,GENERACIÓN Y TRANSMISIÓN DE ENERGÍA ELÉCTRICA (SÓLO GENERACIÓN; INCLUYE LAS INSTALACIONES,No disponible,KM 14 CARRETERA AGUA PRIETA NACOZARI,EL FRESNAL,No disponible,No disponible,84200,2,AD,No aplica,"Generación, transmisión y distribución de energía eléctrica.",sin calle,---,"31°18'34""",No disponible,"109°32'48""",0,Agua Prieta,3.5 KM,No disponible,PREDIO EL FRESNAL,221110,No disponible,31.3094444444444,-109.546666666667,1,0,1,1,1,26,1,2,31.3094444444444,-109.546666666667,26_2_1_7440-38-2_2012
65298bcfbb426186d906c64c,0,300.31,0,2012,75-07-0,0,26,0,SONORA,Otros,2B,0,FUERZA Y ENERGIA DE NACO NOGALES S.A. DE C.V.,FENAD2600211,0,0,0,Generación de energía eléctrica,0,Acetaldehido,0,kg/año,GENERACIÓN Y TRANSMISIÓN DE ENERGÍA ELÉCTRICA (SÓLO GENERACIÓN; INCLUYE LAS INSTALACIONES,No disponible,KM 14 CARRETERA AGUA PRIETA NACOZARI,EL FRESNAL,No disponible,No disponible,84200,2,AD,No aplica,"Generación, transmisión y distribución de energía eléctrica.",sin calle,---,"31°18'34""",No disponible,"109°32'48""",0,Agua Prieta,3.5 KM,No disponible,PREDIO EL FRESNAL,221110,No disponible,31.3094444444444,-109.546666666667,1,0,1,1,1,26,1,2,31.3094444444444,-109.546666666667,26_2_2B_75-07-0_2012
65298ba2bb426186d904aa13,0,0,0,2018,7439-92-1,0,26,0,SONORA,,2B,0,"MINERA SANTA RITA S. DE R.L. DE C.V.,MINERA SANTA RITA",MSRR42600411,0,0,1687.5,Metalurgica (incluye la siderurgica),0,"Plomo (polvos respirables, humos o vapores)",0,kg/año,"Exploración, explotación y beneficio de mineral oro",No disponible,Calle KM 8 AL EJIDO 16 DE SEPTIEMBRE,Ejido 16 DE SEPTIEMBRE,412031.1872,3400931.198,83790,4,12,No aplica,Minería de oro,No disponible,No disponible,"30°44'16""",ALTAR,"111°55'8""",0,Altar,S/N , ,No disponible,212221,Mineria de oro,30.7377777777778,-111.918888888889,1,0,1,1,1,26,1,4,30.7377777777778,-111.918888888889,26_4_2B_7439-92-1_2018
65298bafbb426186d9053392,0,0,0,2017,7439-92-1,0,26,0,SONORA,,2B,0,"MINERA SANTA RITA S. DE R.L. DE C.V.,MINERA SANTA RITA",MSRR42600411,0,0,1687.5,Metalurgica (incluye la siderurgica),0,"Plomo (polvos respirables, humos o vapores)",0,kg/año,"Exploración, explotación y beneficio de mineral oro",No disponible,Calle KM 8 AL EJIDO 16 DE SEPTIEMBRE,Ejido 16 DE SEPTIEMBRE,412031.1872,3400931.198,83790,4,12,No aplica,Minería de oro,No disponible,No disponible,"30°44'16""",ALTAR,"111°55'8""",0,Altar,S/N , ,No disponible,212221,Mineria de oro,30.7377777777778,-111.918888888889,1,0,1,1,1,26,1,4,30.7377777777778,-111.918888888889,26_4_2B_7439-92-1_2017
65298bbfbb426186d905f369,0,0,0,2020,7439-92-1,0,26,0,SONORA,,2B,0,"MINERA SANTA RITA S. DE R.L. DE C.V.,MINERA SANTA RITA",MSRR42600411,0,0,931.5,Metalurgica (incluye la siderurgica),0,"Plomo (polvos respirables, humos o vapores)",0,kg/año,"Exploración, explotación y beneficio de mineral oro",No disponible,Calle KM 8 AL EJIDO 16 DE SEPTIEMBRE,Ejido 16 DE SEPTIEMBRE,412031.1872,3400931.198,83790,4,12,No aplica,Minería de oro,No disponible,No disponible,"30°44'16""",ALTAR,"111°55'8""",0,Altar,S/N , ,No disponible,212221,Mineria de oro,30.7377777777778,-111.918888888889,1,0,1,1,1,26,1,4,30.7377777777778,-111.918888888889,26_4_2B_7439-92-1_2020
65298bc3bb426186d90624bb,0,0,0,2019,7439-92-1,0,26,0,SONORA,,2B,0,"MINERA SANTA RITA S. DE R.L. DE C.V.,MINERA SANTA RITA",MSRR42600411,0,0,931.5,Metalurgica (incluye la siderurgica),0,"Plomo (polvos respirables, humos o vapores)",0,kg/año,"Exploración, explotación y beneficio de mineral oro",No disponible,Calle KM 8 AL EJIDO 16 DE SEPTIEMBRE,Ejido 16 DE SEPTIEMBRE,412031.1872,3400931.198,83790,4,12,No aplica,Minería de oro,No disponible,No disponible,"30°44'16""",ALTAR,"111°55'8""",0,Altar,S/N , ,No disponible,212221,Mineria de oro,30.7377777777778,-111.918888888889,1,0,1,1,1,26,1,4,30.7377777777778,-111.918888888889,26_4_2B_7439-92-1_2019
65298bc6bb426186d90655c6,0,0,0.06588,2013,7440-38-2,0,26,0,SONORA,,1,0,Minera Santa Rita S. de R.L. de C.V.,MSRR42600411,0,0,0,Metalurgica (incluye la siderurgica),0,Arsénico,0,kg/año,Exploración Explotación y Beneficio de Mineral de Oro,No disponible,Carretera Internacional Altar Caborca Km,No disponible,No disponible,No disponible,0,4,12,No aplica,Minería de oro.,No disponible,No disponible,"30°47'8""",Ejido 16 de Septiembre,"111°55'14""",0,Altar,km. 82,No disponible,Mina fuera de los limites poblacionales Noroeste de Altar,212221,Mineria de oro,30.7855555555556,-111.920555555556,1,0,1,1,1,26,1,4,30.7855555555556,-111.920555555556,26_4_1_7440-38-2_2013
65298bc9bb426186d906854d,0,0,0,2015,7439-92-1,0,26,8.4,SONORA,,2B,0,"SINERGIA OBRAS CIVILES Y MINERAS, S.A. DE C.V.,MINA EL CHANATE",SOC2600400004,0,0,0,Otros,0,"Plomo (polvos respirables, humos o vapores)",0,kg/año,Acarreo de Mineral,No disponible,Calle DOMICILIO CONOCIDO CHANATE,Ejido 16 DE SEPTIEMBRE,420005.2955,3398631.5073,83790,4,B0,No aplica,Otro autotransporte local de carga especializado,No disponible,No disponible,"30°43'4""",Altar,"111°50'7""",0,Altar,S/N,No disponible,No disponible,484229,Transporte de carga en general,30.7177777777778,-111.835277777778,1,0,1,1,1,26,1,4,30.7177777777778,-111.835277777778,26_4_2B_7439-92-1_2015
65298bd0bb426186d906d67a,0,0,0.127018,2012,7440-38-2,0,26,0,SONORA,Metales,1,0,Minera Santa Rita S. de R.L. de C.V.,MSRR42600411,0,0,0,Metalurgica (incluye la siderurgica),0,Arsénico,0,kg/año,Exploración Explotación y Beneficio de Mineral de Oro,No disponible,Carretera Internacional Altar Caborca Km,No disponible,No disponible,No disponible,0,4,12,No aplica,Minería de oro.,No disponible,No disponible,"30°47'8""",Ejido 16 de Septiembre,"111°55'14""",0,Altar,km. 82,No disponible,Mina fuera de los limites poblacionales Noroeste de Altar,212221,No disponible,30.7855555555556,-111.920555555556,1,0,1,1,1,26,1,4,30.7855555555556,-111.920555555556,26_4_1_7440-38-2_2012
65298ba4bb426186d904c826,0.08416666,0,0,2008,7440-38-2,0,26,0,SONORA,,1,0,MINERA PENMONT S. DE R. L. DE C. V.,MPE122601711,0,0,0,Metalurgica (incluye la siderurgica),0,Arsénico,0,kg/año,MINERÍA DE ORO (SÓLO INCLUYE BENEFICIO).,No disponible,DOMICILIO CONOCIDO EJIDO JUAN ALVAREZ,EJIDO JUAN ALVAREZ,No disponible,No disponible,83600,17,12,No aplica,Minería de oro,No disponible,No disponible,"31°9'2""",EJIDO JUAN ALVAREZ,"112°51'16""",0,Caborca,SIN,No disponible,No disponible,212221,Mineria de oro,31.1505555555556,-112.854444444444,1,0,1,1,1,26,1,17,31.1505555555556,-112.854444444444,26_17_1_7440-38-2_2008
65298bb2bb426186d905537e,1.2264e-7,0,0,2005,7440-38-2,0,26,0,SONORA,,1,0,"MINERA PENMONT S, DE R.L. DE C.V.",MPE122601711,0,0,0,Metalurgica (incluye la siderurgica),0,Arsénico,0,kg/año,MINERÍA,Mineria de oro,DOMICILIO CONOCIDO EJIDO JUAN ALVAREZ,EJIDO JUAN ALVAREZ,0,0,83600,17,No disponible,No aplica,No disponible,No disponible,No disponible,"31°9'2""",EJIDO JUAN ALVAREZ,"112°51'16""",0,Caborca,SN,No disponible,No disponible,No disponible,No disponible,31.1505555555556,-112.854444444444,1,0,1,1,1,26,1,17,31.1505555555556,-112.854444444444,26_17_1_7440-38-2_2005
65298bb5bb426186d9057d47,0.0735,0,0,2007,7440-38-2,0,26,0,SONORA,,1,0,MINERA PENMONT S. DE R. L. DE C. V.,MPE122601711,0,0,0,Metalurgica (incluye la siderurgica),0,Arsénico,0,kg/año,MINERÍA DE ORO (SÓLO INCLUYE BENEFICIO).,No disponible,DOMICILIO CONOCIDO EJIDO JUAN ALVAREZ,EJIDO JUAN ALVAREZ,No disponible,No disponible,83600,17,12,No aplica,Minería de oro.,No disponible,No disponible,"31°9'2""",EJIDO JUAN ALVAREZ,"112°51'16""",0,Caborca,SIN,No disponible,No disponible,212221,Mineria de oro,31.1505555555556,-112.854444444444,1,0,1,1,1,26,1,17,31.1505555555556,-112.854444444444,26_17_1_7440-38-2_2007
65298bbcbb426186d905d0cc,0.000109865,0,0,2009,7440-38-2,0,26,0,SONORA,,1,0,MINERA PENMONT S. DE R. L. DE C. V.,MPE122601711,0,0,0,Metalurgica (incluye la siderurgica),0,Arsénico,0,kg/año,MINERÍA DE ORO (SÓLO INCLUYE BENEFICIO).,No disponible,DOMICILIO CONOCIDO EJIDO JUAN ALVAREZ,EJIDO JUAN ALVAREZ,No disponible,No disponible,83600,17,12,No aplica,Minería de oro.,No disponible,No disponible,"31°9'2""",EJIDO JUAN ALVAREZ,"112°51'16""",0,Caborca,SIN,No disponible,No disponible,212221,Mineria de oro,31.1505555555556,-112.854444444444,1,0,1,1,1,26,1,17,31.1505555555556,-112.854444444444,26_17_1_7440-38-2_2009
65298bc1bb426186d9060965,0.0000103222,0,0,2004,7440-38-2,0,26,0,SONORA,,1,0,"MINERA PENMONT S, DE R.L. DE C.V.",MPE122601711,0,0,0,Metalurgica (incluye la siderurgica),0,Arsénico,0,kg/año,MINERÍA,Mineria de oro,DOMICILIO CONOCIDO EJIDO JUAN ALVAREZ,EJIDO JUAN ALVAREZ,0,0,83600,17,No disponible,No aplica,No disponible,No disponible,No disponible,"31°9'2""",EJIDO JUAN ALVAREZ,"112°51'16""",0,Caborca,SN,No disponible,No disponible,No disponible,No disponible,31.1505555555556,-112.854444444444,1,0,1,1,1,26,1,17,31.1505555555556,-112.854444444444,26_17_1_7440-38-2_2004
65298bc6bb426186d90654fb,0,0,0,2013,7440-38-2,0,26,0,SONORA,,1,0,MINERA PENMONT S. DE R. L. DE C. V.,MPE122601711,0,0,0,Metalurgica (incluye la siderurgica),0.13651,Arsénico,0,kg/año,MINERÍA DE ORO (SÓLO INCLUYE BENEFICIO).,No disponible,DOMICILIO CONOCIDO EJIDO JUAN ALVAREZ,EJIDO JUAN ALVAREZ,No disponible,No disponible,83600,17,12,No aplica,Minería de oro.,No disponible,No disponible,"31°9'2""",EJIDO JUAN ALVAREZ,"112°51'16""",0,Caborca,SIN,No disponible,No disponible,212221,Mineria de oro,31.1505555555556,-112.854444444444,1,0,1,1,1,26,1,17,31.1505555555556,-112.854444444444,26_17_1_7440-38-2_2013
65298bc6bb426186d90654fd,0,0,0,2013,7440-38-2,0,26,0,SONORA,,1,0,MINERA PENMONT S. DE R.L. DE C.V. UNIDAD NOCHE BUENA,MPE2601700006,0,0,0,Metalurgica (incluye la siderurgica),0.0858,Arsénico,0,kg/año,"EXPLORACIÓN, EXPLOTACIÓN Y BENEFICIO DE MINERALES DE ORO Y PLATA",No disponible,DOMICILIO CONOCIDO JUAN ALVAREZ,CENTRO,No disponible,No disponible,83200,17,12,No aplica,Minería de oro.,No disponible,No disponible,"31°1'52""",EJIDO JUAN ALVAREZ,"112°38'10""",0,Caborca,209,No disponible,No disponible,212221,Mineria de oro,31.0311111111111,-112.636111111111,1,0,1,1,1,26,1,17,31.0311111111111,-112.636111111111,26_17_1_7440-38-2_2013
65298bccbb426186d906a2b9,0.00008176,0,0,2006,7440-38-2,0,26,0,SONORA,,1,0,MINERA PENMONT S. DE R. L. DE C. V.,MPE122601711,0,0,0,Metalurgica (incluye la siderurgica),0,Arsénico,0,kg/año,MINERÍA DE ORO (SÓLO INCLUYE BENEFICIO).,No disponible,DOMICILIO CONOCIDO EJIDO JUAN ALVAREZ,EJIDO JUAN ALVAREZ,No disponible,No disponible,83600,17,12,No aplica,Minería de oro,No disponible,No disponible,"31°9'2""",EJIDO JUAN ALVAREZ,"112°51'16""",0,Caborca,SIN,No disponible,No disponible,212221,Mineria de oro,31.1505555555556,-112.854444444444,1,0,1,1,1,26,1,17,31.1505555555556,-112.854444444444,26_17_1_7440-38-2_2006
65298bd0bb426186d906d5bd,0,0,0,2012,7440-38-2,0,26,0,SONORA,Metales,1,0,MINERA PENMONT S. DE R. L. DE C. V.,MPE122601711,0,0,0,Metalurgica (incluye la siderurgica),0.16644,Arsénico,0,kg/año,MINERÍA DE ORO (SÓLO INCLUYE BENEFICIO).,No disponible,DOMICILIO CONOCIDO EJIDO JUAN ALVAREZ,EJIDO JUAN ALVAREZ,No disponible,No disponible,83600,17,12,No aplica,Minería de oro.,No Aplica,No Aplica,"31°9'2""",EJIDO JUAN ALVAREZ,"112°51'16""",0,Caborca,SIN,No disponible,No disponible,212221,No disponible,31.1505555555556,-112.854444444444,1,0,1,1,1,26,1,17,31.1505555555556,-112.854444444444,26_17_1_7440-38-2_2012
65298ba9bb426186d904ff13,0,409.094,0,2014,50-00-0,0,26,0,SONORA,,1,0,"MINERA MARIA S.A DE C.V.,MINERA MARÍA S.A. DE C.V. UNIDAD MARIQUITA",MMA152601911,0,0,0,Metalurgica (incluye la siderurgica),0,Formaldehido,0,kg/año,MINERÍA DE COBRE Y NIQUEL (SÓLO INCLUYE BENEFICIO),No disponible,Carretera AGUA PRIETA-IMURIS KM. 99,Colonia CANANEA CENTRO,No disponible,No disponible,84620,19,15,No aplica,Minería de cobre,No disponible,No disponible,"31°2'4""",Heroica Ciudad de Cananea,"110°24'50""",0,Cananea,SN , ,No disponible,212231,Mineria de cobre y niquel,31.0344444444444,-110.413888888889,1,0,1,1,1,26,1,19,31.0344444444444,-110.413888888889,26_19_1_50-00-0_2014
65298babbb426186d9051766,0,0,0,2016,7439-92-1,0,26,3427196.1,SONORA,,2B,0,"BUENAVISTA DEL COBRE, S.A. DE C.V.,",MCA152601911,0,0,0,Metalurgica (incluye la siderurgica),0,"Plomo (polvos respirables, humos o vapores)",0,kg/año,Beneficio de Cobre y Molibdeno,No disponible,Calle Av. Juarez,Colonia Centro,564267.2213,3425645.1662,84620,19,15,No aplica,Minería de cobre,No disponible,No disponible,"30°57'45""",Heroica Ciudad de Cananea,"110°19'37""",0,Cananea,4,No disponible,No disponible,212231,Mineria de cobre y niquel,30.9625,-110.326944444444,1,0,1,1,1,26,1,19,30.9625,-110.326944444444,26_19_2B_7439-92-1_2016
65298babbb426186d9051767,0,0,0,2016,7440-38-2,0,26,1370874.4,SONORA,,1,0,"BUENAVISTA DEL COBRE, S.A. DE C.V.,",MCA152601911,0,0,0,Metalurgica (incluye la siderurgica),0,Arsénico,0,kg/año,Beneficio de Cobre y Molibdeno,No disponible,Calle Av. Juarez,Colonia Centro,564267.2213,3425645.1662,84620,19,15,No aplica,Minería de cobre,No disponible,No disponible,"30°57'45""",Heroica Ciudad de Cananea,"110°19'37""",0,Cananea,4,No disponible,No disponible,212231,Mineria de cobre y niquel,30.9625,-110.326944444444,1,0,1,1,1,26,1,19,30.9625,-110.326944444444,26_19_1_7440-38-2_2016
65298bc9bb426186d9067dbf,0,387.61,0,2015,50-00-0,0,26,0,SONORA,,1,0,"MINERA MARIA S.A DE C.V.,MINERA MARÍA S.A. DE C.V. UNIDAD MARIQUITA",MMA152601911,0,0,0,Metalurgica (incluye la siderurgica),0,Formaldehido,0,kg/año,MINERÍA DE COBRE Y NIQUEL (SÓLO INCLUYE BENEFICIO),No disponible,Carretera AGUA PRIETA-IMURIS KM. 99,Colonia CANANEA CENTRO,555918.1204,3433573.916,84620,19,15,No aplica,Minería de cobre,No disponible,No disponible,"31°2'4""",Heroica Ciudad de Cananea,"110°24'50""",0,Cananea,SN,No disponible,No disponible,212231,Mineria de cobre y niquel,31.0344444444444,-110.413888888889,1,0,1,1,1,26,1,19,31.0344444444444,-110.413888888889,26_19_1_50-00-0_2015
65298ba0bb426186d9048c9b,0,0.38718,0,2011,50-00-0,0,26,0,SONORA,,1,0,PEMEX REFINACION TERMINAL DE ALMACENAMIENTO Y REPARTO NOGALES SON,PREBM2604311,0,0,0,Petroleo y petroquimica,0,Formaldehido,0,kg/año,RECIBO ALMACENAMIENTO Y REPARTO DE HIDROCARBUROS,No disponible,CARRETERA INTERNACIONAL KM5.5,INDUSTRIAL,No disponible,No disponible,84000,43,M9,No aplica,Transporte por ductos de productos refinados del petróleo,No disponible,No disponible,"31°16'44""",NOGALES,"110°56'50""",0,Nogales,SN,No disponible,No disponible,486910,Almacenamiento y distribucion de productos derivados del petroleo,31.2788888888889,-110.947222222222,1,0,1,1,1,26,1,43,31.2788888888889,-110.947222222222,26_43_1_50-00-0_2011
65298ba0bb426186d9048c9c,0,9.2388,0,2011,71-43-2,0,26,0,SONORA,,1,0,PEMEX REFINACION TERMINAL DE ALMACENAMIENTO Y REPARTO NOGALES SON,PREBM2604311,0,0,0,Petroleo y petroquimica,0,Benceno,0,kg/año,RECIBO ALMACENAMIENTO Y REPARTO DE HIDROCARBUROS,No disponible,CARRETERA INTERNACIONAL KM5.5,INDUSTRIAL,No disponible,No disponible,84000,43,M9,No aplica,Transporte por ductos de productos refinados del petróleo,No disponible,No disponible,"31°16'44""",NOGALES,"110°56'50""",0,Nogales,SN,No disponible,No disponible,486910,Almacenamiento y distribucion de productos derivados del petroleo,31.2788888888889,-110.947222222222,1,0,1,1,1,26,1,43,31.2788888888889,-110.947222222222,26_43_1_71-43-2_2011
65298ba0bb426186d9048c9d,0,7.59502,0,2011,75-07-0,0,26,0,SONORA,,2B,0,PEMEX REFINACION TERMINAL DE ALMACENAMIENTO Y REPARTO NOGALES SON,PREBM2604311,0,0,0,Petroleo y petroquimica,0,Acetaldehido,0,kg/año,RECIBO ALMACENAMIENTO Y REPARTO DE HIDROCARBUROS,No disponible,CARRETERA INTERNACIONAL KM5.5,INDUSTRIAL,No disponible,No disponible,84000,43,M9,No aplica,Transporte por ductos de productos refinados del petróleo,No disponible,No disponible,"31°16'44""",NOGALES,"110°56'50""",0,Nogales,SN,No disponible,No disponible,486910,Almacenamiento y distribucion de productos derivados del petroleo,31.2788888888889,-110.947222222222,1,0,1,1,1,26,1,43,31.2788888888889,-110.947222222222,26_43_2B_75-07-0_2011
65298ba0bb426186d9048c9e,0,0.91596,0,2011,107-02-8,0,26,0,SONORA,,2A,0,PEMEX REFINACION TERMINAL DE ALMACENAMIENTO Y REPARTO NOGALES SON,PREBM2604311,0,0,0,Petroleo y petroquimica,0,Acroleina,0,kg/año,RECIBO ALMACENAMIENTO Y REPARTO DE HIDROCARBUROS,No disponible,CARRETERA INTERNACIONAL KM5.5,INDUSTRIAL,No disponible,No disponible,84000,43,M9,No aplica,Transporte por ductos de productos refinados del petróleo,No disponible,No disponible,"31°16'44""",NOGALES,"110°56'50""",0,Nogales,SN,No disponible,No disponible,486910,Almacenamiento y distribucion de productos derivados del petroleo,31.2788888888889,-110.947222222222,1,0,1,1,1,26,1,43,31.2788888888889,-110.947222222222,26_43_2A_107-02-8_2011
65298ba3bb426186d904b48e,0,0,0,2018,7440-02-0,0,26,0,SONORA,,2B,0,"WEISER LOCK MEXICO S. DE R. L. DE C. V.,",WLM2604300109,0,0,0,Quimica,0,"Níquel (polvos respirables, humos o vapores)",30098.636,kg/año,Fabricacion de chapas y herrajes para puertas,No disponible,Calzada  Industrial Nuevo Nogales,No disponible,503875.9762,3457997.2132,84094,43,8A,No aplica,Fabricación de herrajes y cerraduras,No disponible,No disponible,"31°15'22""",HEROICA NOGALES,"110°57'33""",0,Nogales,1045, ,PARQUE INDUSTRIAL NUEVO NOGALES,332510,Galvanoplastia,31.2561111111111,-110.959166666667,1,0,1,1,1,26,1,43,31.2561111111111,-110.959166666667,26_43_2B_7440-02-0_2018
65298ba4bb426186d904c8fa,0.0225,0,0,2008,7440-38-2,0,26,0,SONORA,,1,0,NOGALES INJECTION MOLDING COMPANY S.A. DE C.V.,NIM6E2604311,0,0,0,Articulos y productos plasticos,0,Arsénico,0,kg/año,MOLDEO DE DIFERENTES TIPOS DE PIEZAS DE PLASTICO,No disponible,CARRETERA INTERNACIONAL  KM 6.5,PARQUE INDUSTRIAL NUEVO NOGALES,No disponible,No disponible,84094,43,6E,No aplica,Fabricación de bolsas y películas de plástico flexible,No disponible,No disponible,"31°17'27""",NOGALES,"110°56'5""",0,Nogales,No disponible,No disponible,PARQUE INDUSTRIAL NOGALES,326110,Fabricacion de productos y articulos de plastico,31.2908333333333,-110.934722222222,1,0,1,1,1,26,1,43,31.2908333333333,-110.934722222222,26_43_1_7440-38-2_2008
65298ba4bb426186d904c8fb,0.009,0,0,2008,7440-43-9,0,26,0,SONORA,,1,0,NOGALES INJECTION MOLDING COMPANY S.A. DE C.V.,NIM6E2604311,0,0,0,Articulos y productos plasticos,0,Cadmio,0,kg/año,MOLDEO DE DIFERENTES TIPOS DE PIEZAS DE PLASTICO,No disponible,CARRETERA INTERNACIONAL  KM 6.5,PARQUE INDUSTRIAL NUEVO NOGALES,No disponible,No disponible,84094,43,6E,No aplica,Fabricación de bolsas y películas de plástico flexible,No disponible,No disponible,"31°17'27""",NOGALES,"110°56'5""",0,Nogales,No disponible,No disponible,PARQUE INDUSTRIAL NOGALES,326110,Fabricacion de productos y articulos de plastico,31.2908333333333,-110.934722222222,1,0,1,1,1,26,1,43,31.2908333333333,-110.934722222222,26_43_1_7440-43-9_2008
65298ba5bb426186d904d225,0.026,0,0,2008,7440-38-2,0,26,0,SONORA,,1,0,SONITRONIES S.A. DE C.V. DPTO. SAMCO SCIENTIFIC,SONMA2604321,0,0,0,Quimica,0,Arsénico,0,kg/año,FABRICACIÓN DE PRODUCTOS MOLDEADOS CON DIVERSAS RESINAS; NO INCLUYE LA MICROINDUSTRIA NI,No disponible,No disponible,PARQUE INDUSTRIAL EL CID,0,0,84000,43,MA,No aplica,Fabricación de otros productos de plástico de uso industrial sin reforzamiento,No disponible,No disponible,"31°16'11""",NOGALES,"110°56'39""",0,Nogales,KM 6.5,No disponible,PARQUE INDUSTRIAL EL CID,326194,Fabricacion de productos moldeados con diversas resinas ,31.2697222222222,-110.944166666667,1,0,1,1,1,26,1,43,31.2697222222222,-110.944166666667,26_43_1_7440-38-2_2008
65298ba5bb426186d904d22b,0.0419,0,0,2008,7440-38-2,0,26,0,SONORA,,1,0,SONITRONIES S.A. DE C.V. DPTO. BOC EDWARDS,SON522604313,0,0,0,Metalurgica (incluye la siderurgica),0,Arsénico,0,kg/año,ENSAMBLE DE BOMBAS INDUSTRIALES DE VACIO,No disponible,AVENIDA LIBRE COMERCIO,PARQUE INDUSTRIAL NUEVO NOGALES,0,0,84000,43,LK,No aplica,Fabricación de otra maquinaria y equipo para la industria en general,No disponible,No disponible,"31°15'17""",NOGALES,"110°57'91""",0,Nogales,No. 5,No disponible,PARQUE INDUSTRIAL NUEVO NOGALES,333999,Fabricacion y ensamble de maquinaria y equipo para diversos usos industriales,31.2547222222222,-110.975277777778,1,0,1,1,1,26,1,43,31.2547222222222,-110.975277777778,26_43_1_7440-38-2_2008
65298ba5bb426186d904d22c,0.09975,0,0,2008,7440-43-9,0,26,0,SONORA,,1,0,SONITRONIES S.A. DE C.V. DPTO. BOC EDWARDS,SON522604313,0,0,0,Metalurgica (incluye la siderurgica),0,Cadmio,0,kg/año,ENSAMBLE DE BOMBAS INDUSTRIALES DE VACIO,No disponible,AVENIDA LIBRE COMERCIO,PARQUE INDUSTRIAL NUEVO NOGALES,0,0,84000,43,LK,No aplica,Fabricación de otra maquinaria y equipo para la industria en general,No disponible,No disponible,"31°15'17""",NOGALES,"110°57'91""",0,Nogales,No. 5,No disponible,PARQUE INDUSTRIAL NUEVO NOGALES,333999,Fabricacion y ensamble de maquinaria y equipo para diversos usos industriales,31.2547222222222,-110.975277777778,1,0,1,1,1,26,1,43,31.2547222222222,-110.975277777778,26_43_1_7440-43-9_2008
65298ba8bb426186d904f30a,0,0,0,2014,7439-92-1,0,26,0,SONORA,,2B,0,"AVENT SRL DE CV,AVENT PLANTA 2",AVE1C2604312,0,6,0,Articulos y productos compuestos de diferentes materiales,0,"Plomo (polvos respirables, humos o vapores)",0,kg/año,Fabricación de dispositivos y productos médicos ,No disponible,Avenida EL CASTILLO,No disponible,No disponible,No disponible,84094,43,1C,No aplica,"Fabricación de equipo no electrónico para uso médico, dental y para laboratorio",No disponible,No disponible,"31°18'24""",Heroica Nogales,"110°55'27""",0,Nogales,17 B, ,EL CID,339111,"Produccion de equipos y/o articulos, medicos y/o quirurgicos",31.3066666666667,-110.924166666667,1,0,1,1,1,26,1,43,31.3066666666667,-110.924166666667,26_43_2B_7439-92-1_2014
65298ba8bb426186d904f30b,0,0,0,2014,7439-92-1,0,26,0,SONORA,,2B,0,"AVENT SRL DE CV,AVENT PLANTA 1",AVE3S2604311,0,7.8,0,Articulos y productos compuestos de diferentes materiales,0,"Plomo (polvos respirables, humos o vapores)",0,kg/año,Fabricación de productos y dispositivos médicos ,No disponible,Calle CIRCUITO INDUSTRIAL,Colonia PARQUE INDUSTRIAL,No disponible,No disponible,84000,43,1C,No aplica,"Fabricación de equipo no electrónico para uso médico, dental y para laboratorio",No disponible,No disponible,"31°18'28""",Heroica Nogales,"110°57'26""",0,Nogales,40,40,No disponible,339111,"Produccion de equipos y/o articulos, medicos y/o quirurgicos",31.3077777777778,-110.957222222222,1,0,1,1,1,26,1,43,31.3077777777778,-110.957222222222,26_43_2B_7439-92-1_2014
65298baabb426186d9050804,0,0,0,2014,7439-92-1,0,26,1.1,SONORA,,2B,0,"WEISER LOCK MEXICO S. DE R. L. DE C. V.,SPECTRUM BRANDS",WLM2604300109,0,0,0,Articulos y productos metalicos,0,"Plomo (polvos respirables, humos o vapores)",0,kg/año,"FABRIACION DE CHAPAS, BISAGRAS Y SIMILARES",No disponible,Calzada  Industrial Nuevo Nogales,No disponible,No disponible,No disponible,84094,43,81,No aplica,Fabricación de herrajes y cerraduras,No disponible,No disponible,"31°15'22""",Heroica Nogales,"110°57'33""",0,Nogales,55, ,PARQUE INDUSTRIAL NUEVO NOGALES,332510,"Produccion de cerraduras, candados y llaves",31.2561111111111,-110.959166666667,1,0,1,1,1,26,1,43,31.2561111111111,-110.959166666667,26_43_2B_7439-92-1_2014
65298baabb426186d9050805,0,0,0,2014,7440-02-0,0,26,4900,SONORA,,2B,0,"WEISER LOCK MEXICO S. DE R. L. DE C. V.,SPECTRUM BRANDS",WLM2604300109,0,0,0,Articulos y productos metalicos,0,"Níquel (polvos respirables, humos o vapores)",0,kg/año,"FABRIACION DE CHAPAS, BISAGRAS Y SIMILARES",No disponible,Calzada  Industrial Nuevo Nogales,No disponible,No disponible,No disponible,84094,43,81,No aplica,Fabricación de herrajes y cerraduras,No disponible,No disponible,"31°15'22""",Heroica Nogales,"110°57'33""",0,Nogales,55, ,PARQUE INDUSTRIAL NUEVO NOGALES,332510,"Produccion de cerraduras, candados y llaves",31.2561111111111,-110.959166666667,1,0,1,1,1,26,1,43,31.2561111111111,-110.959166666667,26_43_2B_7440-02-0_2014
65298bacbb426186d90521b9,0,0,0,2016,7439-92-1,0,26,0,SONORA,,2B,0,"WEISER LOCK MEXICO S. DE R. L. DE C. V.,SPECTRUM BRANDS HARDWARE AND HOME IMPROVEMENT",WLM2604300109,0,0,0,Articulos y productos metalicos,288,"Plomo (polvos respirables, humos o vapores)",0,kg/año,FABRICACIÓN DE CHAPAS Y HERRAJES,No disponible,Calzada  Industrial Nuevo Nogales,No disponible,503869.7456,3457991.5873,84094,43,81,No aplica,Fabricación de herrajes y cerraduras,No disponible,No disponible,"31°15'22""",Heroica Nogales,"110°57'33""",0,Nogales,1045,No disponible,PARQUE INDUSTRIAL NUEVO NOGALES,332510,"Produccion de cerraduras, candados y llaves",31.2561111111111,-110.959166666667,1,0,1,1,1,26,1,43,31.2561111111111,-110.959166666667,26_43_2B_7439-92-1_2016
65298bb0bb426186d9053dd1,0.000032,0,0,2005,7440-38-2,0,26,0,SONORA,,1,0,Autos de Hermosillo SA de CV Sucursal Nogales,AHEKE2604311,0,0,0,Otros,0,Arsénico,0,kg/año,Compra Venta de Autos nuevos y usados refacciones y servicios,Reparacion y mantenimiento automotriz,Blvd. el Greco,El Greco,0,0,84066,43,No disponible,No aplica,No disponible,Avenida Arcadia,No disponible,"31°17'27""",Nogales,"0.11°56'32""",0,Nogales,63,No disponible,No disponible,No disponible,No disponible,31.2908333333333,-11.9422222222222,1,0,1,0,0,0,0,0,31.309879,-110.9324638,26_43_1_7440-38-2_2005
65298bb0bb426186d90540e7,1.873,0,0,2005,7440-38-2,0,26,0,SONORA,,1,0,BEBIDAS REFRESCANTES DE NOGALES S.A. DE ..C.V,BRN362604311,0,0,0,Bebidas y tabaco,0,Arsénico,0,kg/año,ELABORACION Y DISTRIBUCION DE BEBIDAS REFRESCANTES,Produccion de refrescos,CARRETERA INTERNACIONAL,EL GRECO,0,0,84000,43,No disponible,No aplica,No disponible,CARRETERA INTERNACIONAL,PERIFERICO LUIS DONALDO COLOSIO,"31°17'0""",NOGALES,"111°56'20""",0,Nogales,km. 5,No disponible,No disponible,No disponible,No disponible,31.2833333333333,-111.938888888889,1,0,1,1,1,26,0,4,31.309879,-110.9324638,26_43_1_7440-38-2_2005
65298bb0bb426186d90543f7,1e-11,0,0,2005,7440-43-9,0,26,0,SONORA,,1,0,Curtis de Mexico S.A. de C.V.,CME992604311,0,0,0,"Equipos y articulos electronicos, electricos y domesticos",0,Cadmio,0,kg/año,maquila de componentes electronicos,"Produccion de aparatos, equipos y/o accesorios electricos y/o electronicos",Maquila,Parque Industrial,0,0,84094,43,No disponible,No aplica,No disponible,No disponible,No disponible,"31°16'15""",Nogales,"111°56'48""",0,Nogales,11,No disponible,Parque Industrial Terrazas del Cid,No disponible,No disponible,31.2708333333333,-111.946666666667,1,0,1,1,1,26,0,4,31.309879,-110.9324638,26_43_1_7440-43-9_2005
65298bb0bb426186d90543fa,1e-11,0,0,2005,7440-38-2,0,26,0,SONORA,,1,0,Curtis de Mexico S.A. de C.V.,CME992604311,0,0,0,"Equipos y articulos electronicos, electricos y domesticos",0,Arsénico,0,kg/año,maquila de componentes electronicos,"Produccion de aparatos, equipos y/o accesorios electricos y/o electronicos",Maquila,Parque Industrial,0,0,84094,43,No disponible,No aplica,No disponible,No disponible,No disponible,"31°16'15""",Nogales,"111°56'48""",0,Nogales,11,No disponible,Parque Industrial Terrazas del Cid,No disponible,No disponible,31.2708333333333,-111.946666666667,1,0,1,1,1,26,0,4,31.309879,-110.9324638,26_43_1_7440-38-2_2005
65298bb1bb426186d9054abc,0.0002001345,0,0,2005,7440-38-2,0,26,0,SONORA,,1,0,Grupo Chamberlain S. de R.L. de C.V.,GCA942604311,0,0,0,Articulos y productos metalicos,0,Arsénico,0,kg/año,FABRICACION DE ABRIDORES DE PUERTAS PARA GARAGE,Fabricacion de articulos y productos metalicos,BOULEVARD LUIS DONALDO COLOSIO,OBRERA,0,0,84080,43,No disponible,No aplica,No disponible,No disponible,No disponible,"31°18'19""",NOGALES,"111°57'18""",0,Nogales,1891,No disponible,Colonia Obrera,No disponible,No disponible,31.3052777777778,-111.955,1,0,1,1,1,26,0,4,31.309879,-110.9324638,26_43_1_7440-38-2_2005
65298bb1bb426186d9054c7f,0.000042952,0,0,2005,7440-38-2,0,26,0,SONORA,,1,0,Hasta Mex SA de CV Planta I,HME952604311,0,0,0,"Equipos y articulos electronicos, electricos y domesticos",0,Arsénico,0,kg/año,Ensamble de Componentes Eléctricos y Electrónicos para Elevadores,"Produccion de aparatos, equipos y/o accesorios electricos y/o electronicos",Calzada Industrial Nuevo Nogales,Parque Industrial Nuevo Nogales,0,0,84000,43,No disponible,No aplica,No disponible,Avenida Libre Comercio,No disponible,"31°15'19""",Nogales,"0.11°57'44""",0,Nogales,SN,No disponible,Parque Industrial Nuevo Nogales,No disponible,No disponible,31.2552777777778,-11.9622222222222,1,0,1,0,0,0,0,0,31.309879,-110.9324638,26_43_1_7440-38-2_2005
65298bb3bb426186d9055a08,0,0.00000181,0,2005,107-02-8,0,26,0,SONORA,,2A,0,PEMEX REFINACION TERMINAL DE ALMACENAMIENTO Y DISTRIBUCION NOGALES SON,PREBM2604311,0,0,0,Petroleo y petroquimica,0,Acroleina,0,kg/año,RECIBO ALMACENAMIENTO Y DISTRIBUCION DE HIDROCARBUROS,Almacenamiento y distribucion de productos derivados del petroleo,CARRETERA INTERNACIONAL KM5.5,INDUSTRIAL,0,0,84000,43,No disponible,No aplica,No disponible,SIN NOMBRE,SIN NOMBRE,"31°16'44""",NOGALES,"110°56'50""",0,Nogales,SN,No disponible,No disponible,No disponible,No disponible,31.2788888888889,-110.947222222222,1,0,1,1,1,26,1,43,31.2788888888889,-110.947222222222,26_43_2A_107-02-8_2005
65298bb3bb426186d9055a0a,0,7.65e-7,0,2005,50-00-0,0,26,0,SONORA,,1,0,PEMEX REFINACION TERMINAL DE ALMACENAMIENTO Y DISTRIBUCION NOGALES SON,PREBM2604311,0,0,0,Petroleo y petroquimica,0,Formaldehido,0,kg/año,RECIBO ALMACENAMIENTO Y DISTRIBUCION DE HIDROCARBUROS,Almacenamiento y distribucion de productos derivados del petroleo,CARRETERA INTERNACIONAL KM5.5,INDUSTRIAL,0,0,84000,43,No disponible,No aplica,No disponible,SIN NOMBRE,SIN NOMBRE,"31°16'44""",NOGALES,"110°56'50""",0,Nogales,SN,No disponible,No disponible,No disponible,No disponible,31.2788888888889,-110.947222222222,1,0,1,1,1,26,1,43,31.2788888888889,-110.947222222222,26_43_1_50-00-0_2005
65298bb3bb426186d9055a0b,0,0.0000182,0,2005,71-43-2,0,26,0,SONORA,,1,0,PEMEX REFINACION TERMINAL DE ALMACENAMIENTO Y DISTRIBUCION NOGALES SON,PREBM2604311,0,0,0,Petroleo y petroquimica,0,Benceno,0,kg/año,RECIBO ALMACENAMIENTO Y DISTRIBUCION DE HIDROCARBUROS,Almacenamiento y distribucion de productos derivados del petroleo,CARRETERA INTERNACIONAL KM5.5,INDUSTRIAL,0,0,84000,43,No disponible,No aplica,No disponible,SIN NOMBRE,SIN NOMBRE,"31°16'44""",NOGALES,"110°56'50""",0,Nogales,SN,No disponible,No disponible,No disponible,No disponible,31.2788888888889,-110.947222222222,1,0,1,1,1,26,1,43,31.2788888888889,-110.947222222222,26_43_1_71-43-2_2005
65298bb3bb426186d9055a0c,0,0.000015,0,2005,75-07-0,0,26,0,SONORA,,2B,0,PEMEX REFINACION TERMINAL DE ALMACENAMIENTO Y DISTRIBUCION NOGALES SON,PREBM2604311,0,0,0,Petroleo y petroquimica,0,Acetaldehido,0,kg/año,RECIBO ALMACENAMIENTO Y DISTRIBUCION DE HIDROCARBUROS,Almacenamiento y distribucion de productos derivados del petroleo,CARRETERA INTERNACIONAL KM5.5,INDUSTRIAL,0,0,84000,43,No disponible,No aplica,No disponible,SIN NOMBRE,SIN NOMBRE,"31°16'44""",NOGALES,"110°56'50""",0,Nogales,SN,No disponible,No disponible,No disponible,No disponible,31.2788888888889,-110.947222222222,1,0,1,1,1,26,1,43,31.2788888888889,-110.947222222222,26_43_2B_75-07-0_2005
65298bb3bb426186d9056022,0.00028665,0,0,2005,7440-43-9,0,26,0,SONORA,,1,0,SONITRONIES S.A. DE C.V. DPTO LAIDLAW,SONMA2604316,0,0,0,Quimica,0,Cadmio,0,kg/año,FABRICACIÓN DE PRODUCTOS MOLDEADOS CON DIVERSAS RESINAS; NO INCLUYE LA MICROINDUSTRIA NI,Fabricacion de productos moldeados con diversas resinas,CARR INTERNACIONAL KM 7.5,PARQUE INDUSTRIAL EL CID,0,0,84093,43,No disponible,No aplica,No disponible,No disponible,No disponible,"31°16'45""",NOGALES,"110°16'19""",0,Nogales,No 15,No disponible,PARQUE INDUSTRIAL EL CID,No disponible,No disponible,31.2791666666667,-110.271944444444,1,0,1,1,1,26,0,39,31.309879,-110.9324638,26_43_1_7440-43-9_2005
65298bb3bb426186d9056024,0.00028665,0,0,2005,7440-38-2,0,26,0,SONORA,,1,0,SONITRONIES S.A. DE C.V. DPTO LAIDLAW,SONMA2604316,0,0,0,Quimica,0,Arsénico,0,kg/año,FABRICACIÓN DE PRODUCTOS MOLDEADOS CON DIVERSAS RESINAS; NO INCLUYE LA MICROINDUSTRIA NI,Fabricacion de productos moldeados con diversas resinas,CARR INTERNACIONAL KM 7.5,PARQUE INDUSTRIAL EL CID,0,0,84093,43,No disponible,No aplica,No disponible,No disponible,No disponible,"31°16'45""",NOGALES,"110°16'19""",0,Nogales,No 15,No disponible,PARQUE INDUSTRIAL EL CID,No disponible,No disponible,31.2791666666667,-110.271944444444,1,0,1,1,1,26,0,39,31.309879,-110.9324638,26_43_1_7440-38-2_2005
65298bb4bb426186d90567f6,0,0.00924,0,2007,107-06-2,0,26,0,SONORA,,2B,0,AVENT S. DE R.L. DE C.V.,AVE3S2604311,0,0,0,Articulos y productos compuestos de diferentes materiales,0,"1,2,-Dicloroetano",0,kg/año,FABRICACION DE INDUMENTARIA Y ACCESORIOS MEDICOS DESECHABLES PARA HOSPITALES,No disponible,CIRCUITO INDUSTRIAL,OBRERA,No disponible,No disponible,84048,43,1C,No aplica,"Fabricación de equipo no electrónico para uso médico, dental y para laboratorio.",No disponible,No disponible,"31°18'27""",NOGALES,"0.11°57'9""",0,Nogales,40,No disponible,No disponible,339111,"Produccion de equipos y/o articulos, medicos y/o quirurgicos",31.3075,-11.9525,1,0,1,0,0,0,0,0,31.309879,-110.9324638,26_43_2B_107-06-2_2007
65298bb4bb426186d90567f7,4.8815e-8,0,0,2007,7440-38-2,0,26,0,SONORA,,1,0,AVENT S. DE R.L. DE C.V.,AVE3S2604311,0,0,0,Articulos y productos compuestos de diferentes materiales,0,Arsénico,0,kg/año,FABRICACION DE INDUMENTARIA Y ACCESORIOS MEDICOS DESECHABLES PARA HOSPITALES,No disponible,CIRCUITO INDUSTRIAL,OBRERA,No disponible,No disponible,84048,43,1C,No aplica,"Fabricación de equipo no electrónico para uso médico, dental y para laboratorio.",No disponible,No disponible,"31°18'27""",NOGALES,"0.11°57'9""",0,Nogales,40,No disponible,No disponible,339111,"Produccion de equipos y/o articulos, medicos y/o quirurgicos",31.3075,-11.9525,1,0,1,0,0,0,0,0,31.309879,-110.9324638,26_43_1_7440-38-2_2007
65298bb6bb426186d90583e1,0,0.01602228009536,0,2007,75-07-0,0,26,0,SONORA,,2B,0,PEMEX REFINACION TERMINAL DE ALMACENAMIENTO Y REPARTO NOGALES SON,PREBM2604311,0,0,0,Petroleo y petroquimica,0,Acetaldehido,0,kg/año,RECIBO ALMACENAMIENTO Y REPARTO DE HIDROCARBUROS,No disponible,CARRETERA INTERNACIONAL KM5.5,INDUSTRIAL,No disponible,No disponible,84000,43,M9,No aplica,Transporte de petróleo crudo por ductos.,No disponible,No disponible,"31°16'44""",NOGALES,"110°56'50""",0,Nogales,SN,No disponible,No disponible,486110,Almacenamiento y distribucion de productos derivados del petroleo,31.2788888888889,-110.947222222222,1,0,1,1,1,26,1,43,31.2788888888889,-110.947222222222,26_43_2B_75-07-0_2007
65298bb6bb426186d90583e2,0,0.00191671589424,0,2007,107-02-8,0,26,0,SONORA,,2A,0,PEMEX REFINACION TERMINAL DE ALMACENAMIENTO Y REPARTO NOGALES SON,PREBM2604311,0,0,0,Petroleo y petroquimica,0,Acroleina,0,kg/año,RECIBO ALMACENAMIENTO Y REPARTO DE HIDROCARBUROS,No disponible,CARRETERA INTERNACIONAL KM5.5,INDUSTRIAL,No disponible,No disponible,84000,43,M9,No aplica,Transporte de petróleo crudo por ductos.,No disponible,No disponible,"31°16'44""",NOGALES,"110°56'50""",0,Nogales,SN,No disponible,No disponible,486110,Almacenamiento y distribucion de productos derivados del petroleo,31.2788888888889,-110.947222222222,1,0,1,1,1,26,1,43,31.2788888888889,-110.947222222222,26_43_2A_107-02-8_2007
65298bb6bb426186d90583e3,0,0.0193,0,2007,71-43-2,0,26,0,SONORA,,1,0,PEMEX REFINACION TERMINAL DE ALMACENAMIENTO Y REPARTO NOGALES SON,PREBM2604311,0,0,0,Petroleo y petroquimica,0,Benceno,0,kg/año,RECIBO ALMACENAMIENTO Y REPARTO DE HIDROCARBUROS,No disponible,CARRETERA INTERNACIONAL KM5.5,INDUSTRIAL,No disponible,No disponible,84000,43,M9,No aplica,Transporte de petróleo crudo por ductos.,No disponible,No disponible,"31°16'44""",NOGALES,"110°56'50""",0,Nogales,SN,No disponible,No disponible,486110,Almacenamiento y distribucion de productos derivados del petroleo,31.2788888888889,-110.947222222222,1,0,1,1,1,26,1,43,31.2788888888889,-110.947222222222,26_43_1_71-43-2_2007
65298bb6bb426186d90583e5,0,0.000809725313132,0,2007,50-00-0,0,26,0,SONORA,,1,0,PEMEX REFINACION TERMINAL DE ALMACENAMIENTO Y REPARTO NOGALES SON,PREBM2604311,0,0,0,Petroleo y petroquimica,0,Formaldehido,0,kg/año,RECIBO ALMACENAMIENTO Y REPARTO DE HIDROCARBUROS,No disponible,CARRETERA INTERNACIONAL KM5.5,INDUSTRIAL,No disponible,No disponible,84000,43,M9,No aplica,Transporte de petróleo crudo por ductos.,No disponible,No disponible,"31°16'44""",NOGALES,"110°56'50""",0,Nogales,SN,No disponible,No disponible,486110,Almacenamiento y distribucion de productos derivados del petroleo,31.2788888888889,-110.947222222222,1,0,1,1,1,26,1,43,31.2788888888889,-110.947222222222,26_43_1_50-00-0_2007
65298bbabb426186d905aee6,0,0.37,0,2010,50-00-0,0,26,0,SONORA,,1,0,PEMEX REFINACION TERMINAL DE ALMACENAMIENTO Y REPARTO NOGALES SON,PREBM2604311,0,0,0,Petroleo y petroquimica,0,Formaldehido,0,kg/año,RECIBO ALMACENAMIENTO Y REPARTO DE HIDROCARBUROS,No disponible,CARRETERA INTERNACIONAL KM5.5,INDUSTRIAL,No disponible,No disponible,84000,43,M9,No aplica,Transporte por ductos de productos refinados del petróleo.,No disponible,No disponible,"31°16'44""",NOGALES,"110°56'50""",0,Nogales,SN,No disponible,No disponible,486910,Almacenamiento y distribucion de productos derivados del petroleo,31.2788888888889,-110.947222222222,1,0,1,1,1,26,1,43,31.2788888888889,-110.947222222222,26_43_1_50-00-0_2010
65298bbabb426186d905aee7,0,9.23,0,2010,71-43-2,0,26,0,SONORA,,1,0,PEMEX REFINACION TERMINAL DE ALMACENAMIENTO Y REPARTO NOGALES SON,PREBM2604311,0,0,0,Petroleo y petroquimica,0,Benceno,0,kg/año,RECIBO ALMACENAMIENTO Y REPARTO DE HIDROCARBUROS,No disponible,CARRETERA INTERNACIONAL KM5.5,INDUSTRIAL,No disponible,No disponible,84000,43,M9,No aplica,Transporte por ductos de productos refinados del petróleo.,No disponible,No disponible,"31°16'44""",NOGALES,"110°56'50""",0,Nogales,SN,No disponible,No disponible,486910,Almacenamiento y distribucion de productos derivados del petroleo,31.2788888888889,-110.947222222222,1,0,1,1,1,26,1,43,31.2788888888889,-110.947222222222,26_43_1_71-43-2_2010
65298bbabb426186d905aee8,0,7.58,0,2010,75-07-0,0,26,0,SONORA,,2B,0,PEMEX REFINACION TERMINAL DE ALMACENAMIENTO Y REPARTO NOGALES SON,PREBM2604311,0,0,0,Petroleo y petroquimica,0,Acetaldehido,0,kg/año,RECIBO ALMACENAMIENTO Y REPARTO DE HIDROCARBUROS,No disponible,CARRETERA INTERNACIONAL KM5.5,INDUSTRIAL,No disponible,No disponible,84000,43,M9,No aplica,Transporte por ductos de productos refinados del petróleo.,No disponible,No disponible,"31°16'44""",NOGALES,"110°56'50""",0,Nogales,SN,No disponible,No disponible,486910,Almacenamiento y distribucion de productos derivados del petroleo,31.2788888888889,-110.947222222222,1,0,1,1,1,26,1,43,31.2788888888889,-110.947222222222,26_43_2B_75-07-0_2010
65298bbabb426186d905aee9,0,0.91,0,2010,107-02-8,0,26,0,SONORA,,2A,0,PEMEX REFINACION TERMINAL DE ALMACENAMIENTO Y REPARTO NOGALES SON,PREBM2604311,0,0,0,Petroleo y petroquimica,0,Acroleina,0,kg/año,RECIBO ALMACENAMIENTO Y REPARTO DE HIDROCARBUROS,No disponible,CARRETERA INTERNACIONAL KM5.5,INDUSTRIAL,No disponible,No disponible,84000,43,M9,No aplica,Transporte por ductos de productos refinados del petróleo.,No disponible,No disponible,"31°16'44""",NOGALES,"110°56'50""",0,Nogales,SN,No disponible,No disponible,486910,Almacenamiento y distribucion de productos derivados del petroleo,31.2788888888889,-110.947222222222,1,0,1,1,1,26,1,43,31.2788888888889,-110.947222222222,26_43_2A_107-02-8_2010
65298bbbbb426186d905bd4e,1e-12,0,0,2009,7440-38-2,0,26,0,SONORA,,1,0,BELDEN DE SONORA S.A. DE C.V.,BSOBB2604311,0,0,0,Quimica,0,Arsénico,0,kg/año,INSULACION DE ALAMBRE Y CABLE,No disponible,AVENIDA DE  LOS NOGALES,SAN CARLOS,No disponible,No disponible,84090,43,8A,No aplica,Recubrimientos y terminados metálicos.,No disponible,No disponible,"31°16'15""",No disponible,"110°55'58""",0,Nogales,290,No disponible,PARQUE INDUSTRIAL SAN CARLOS,332810,Galvanoplastia,31.2708333333333,-110.932777777778,1,0,1,1,1,26,1,43,31.2708333333333,-110.932777777778,26_43_1_7440-38-2_2009
65298bbbbb426186d905bd51,5e-11,0,0,2009,7440-43-9,0,26,0,SONORA,,1,0,BELDEN DE SONORA S.A. DE C.V.,BSOBB2604311,0,0,0,Quimica,0,Cadmio,0,kg/año,INSULACION DE ALAMBRE Y CABLE,No disponible,AVENIDA DE  LOS NOGALES,SAN CARLOS,No disponible,No disponible,84090,43,8A,No aplica,Recubrimientos y terminados metálicos.,No disponible,No disponible,"31°16'15""",No disponible,"110°55'58""",0,Nogales,290,No disponible,PARQUE INDUSTRIAL SAN CARLOS,332810,Galvanoplastia,31.2708333333333,-110.932777777778,1,0,1,1,1,26,1,43,31.2708333333333,-110.932777777778,26_43_1_7440-43-9_2009
65298bbdbb426186d905d73e,0,0.01519,0,2009,75-07-0,0,26,0,SONORA,,2B,0,PEMEX REFINACION TERMINAL DE ALMACENAMIENTO Y REPARTO NOGALES SON,PREBM2604311,0,0,0,Petroleo y petroquimica,0,Acetaldehido,0,kg/año,RECIBO ALMACENAMIENTO Y REPARTO DE HIDROCARBUROS,No disponible,CARRETERA INTERNACIONAL KM5.5,INDUSTRIAL,No disponible,No disponible,84000,43,M9,No aplica,Transporte de petróleo crudo por ductos.,No disponible,No disponible,"31°16'44""",NOGALES,"110°56'50""",0,Nogales,SN,No disponible,No disponible,486110,Almacenamiento y distribucion de productos derivados del petroleo,31.2788888888889,-110.947222222222,1,0,1,1,1,26,1,43,31.2788888888889,-110.947222222222,26_43_2B_75-07-0_2009
65298bbdbb426186d905d73f,0,0.018477,0,2009,71-43-2,0,26,0,SONORA,,1,0,PEMEX REFINACION TERMINAL DE ALMACENAMIENTO Y REPARTO NOGALES SON,PREBM2604311,0,0,0,Petroleo y petroquimica,0,Benceno,0,kg/año,RECIBO ALMACENAMIENTO Y REPARTO DE HIDROCARBUROS,No disponible,CARRETERA INTERNACIONAL KM5.5,INDUSTRIAL,No disponible,No disponible,84000,43,M9,No aplica,Transporte de petróleo crudo por ductos.,No disponible,No disponible,"31°16'44""",NOGALES,"110°56'50""",0,Nogales,SN,No disponible,No disponible,486110,Almacenamiento y distribucion de productos derivados del petroleo,31.2788888888889,-110.947222222222,1,0,1,1,1,26,1,43,31.2788888888889,-110.947222222222,26_43_1_71-43-2_2009
65298bbdbb426186d905d740,0,0.000774,0,2009,50-00-0,0,26,0,SONORA,,1,0,PEMEX REFINACION TERMINAL DE ALMACENAMIENTO Y REPARTO NOGALES SON,PREBM2604311,0,0,0,Petroleo y petroquimica,0,Formaldehido,0,kg/año,RECIBO ALMACENAMIENTO Y REPARTO DE HIDROCARBUROS,No disponible,CARRETERA INTERNACIONAL KM5.5,INDUSTRIAL,No disponible,No disponible,84000,43,M9,No aplica,Transporte de petróleo crudo por ductos.,No disponible,No disponible,"31°16'44""",NOGALES,"110°56'50""",0,Nogales,SN,No disponible,No disponible,486110,Almacenamiento y distribucion de productos derivados del petroleo,31.2788888888889,-110.947222222222,1,0,1,1,1,26,1,43,31.2788888888889,-110.947222222222,26_43_1_50-00-0_2009
65298bbdbb426186d905d742,0,0.001225,0,2009,107-02-8,0,26,0,SONORA,,2A,0,PEMEX REFINACION TERMINAL DE ALMACENAMIENTO Y REPARTO NOGALES SON,PREBM2604311,0,0,0,Petroleo y petroquimica,0,Acroleina,0,kg/año,RECIBO ALMACENAMIENTO Y REPARTO DE HIDROCARBUROS,No disponible,CARRETERA INTERNACIONAL KM5.5,INDUSTRIAL,No disponible,No disponible,84000,43,M9,No aplica,Transporte de petróleo crudo por ductos.,No disponible,No disponible,"31°16'44""",NOGALES,"110°56'50""",0,Nogales,SN,No disponible,No disponible,486110,Almacenamiento y distribucion de productos derivados del petroleo,31.2788888888889,-110.947222222222,1,0,1,1,1,26,1,43,31.2788888888889,-110.947222222222,26_43_2A_107-02-8_2009
65298bbdbb426186d905dcf7,0.00003,0,0,2009,7440-38-2,0,26,0,SONORA,,1,0,SONITRONIES S.A. DE C.V. DPTO. SAMCO SCIENTIFIC,SONMA2604321,0,0,0,Quimica,0,Arsénico,0,kg/año,FABRICACIÓN DE PRODUCTOS MOLDEADOS CON DIVERSAS RESINAS; NO INCLUYE LA MICROINDUSTRIA NI,No disponible,No disponible,PARQUE INDUSTRIAL EL CID,0,0,84000,43,MA,No aplica,Fabricación de otros productos de plástico de uso industrial sin reforzamiento.,No disponible,No disponible,"31°16'11""",NOGALES,"110°56'39""",0,Nogales,KM 6.5,No disponible,PARQUE INDUSTRIAL EL CID,326194,Fabricacion de productos moldeados con diversas resinas,31.2697222222222,-110.944166666667,1,0,1,1,1,26,1,43,31.2697222222222,-110.944166666667,26_43_1_7440-38-2_2009
65298bc1bb426186d90604a1,0.0002001345,0,0,2004,7440-38-2,0,26,0,SONORA,,1,0,Grupo Chamberlain S. de R.L. de C.V.,GCA942604311,0,0,0,Articulos y productos metalicos,0,Arsénico,0,kg/año,FABRICACION DE ABRIDORES DE PUERTAS PARA GARAGE,Fabricacion de articulos y productos metalicos,BOULEVARD LUIS DONALDO COLOSIO,OBRERA,0,0,84080,43,No disponible,No aplica,No disponible,No disponible,No disponible,"31°18'19""",NOGALES,"111°57'18""",0,Nogales,1891,No disponible,Colonia Obrera,No disponible,No disponible,31.3052777777778,-111.955,1,0,1,1,1,26,0,4,31.309879,-110.9324638,26_43_1_7440-38-2_2004
65298bc1bb426186d9060cf5,0,7.2531e-7,0,2004,50-00-0,0,26,0,SONORA,,1,0,PEMEX REFINACION TERMINAL DE ALMACENAMIENTO Y DISTRIBUCION NOGALES SON,PREBM2604311,0,0,0,Petroleo y petroquimica,0,Formaldehido,0,kg/año,RECIBO ALMACENAMIENTO Y DISTRIBUCION DE HIDROCARBUROS,Almacenamiento y distribucion de productos derivados del petroleo,CARRETERA INTERNACIONAL KM5.5,INDUSTRIAL,0,0,84000,43,No disponible,No aplica,No disponible,SIN NOMBRE,SIN NOMBRE,"31°16'44""",NOGALES,"110°56'50""",0,Nogales,SN,No disponible,No disponible,No disponible,No disponible,31.2788888888889,-110.947222222222,1,0,1,1,1,26,1,43,31.2788888888889,-110.947222222222,26_43_1_50-00-0_2004
65298bc1bb426186d9060cf6,0,0.000017307344064,0,2004,71-43-2,0,26,0,SONORA,,1,0,PEMEX REFINACION TERMINAL DE ALMACENAMIENTO Y DISTRIBUCION NOGALES SON,PREBM2604311,0,0,0,Petroleo y petroquimica,0,Benceno,0,kg/año,RECIBO ALMACENAMIENTO Y DISTRIBUCION DE HIDROCARBUROS,Almacenamiento y distribucion de productos derivados del petroleo,CARRETERA INTERNACIONAL KM5.5,INDUSTRIAL,0,0,84000,43,No disponible,No aplica,No disponible,SIN NOMBRE,SIN NOMBRE,"31°16'44""",NOGALES,"110°56'50""",0,Nogales,SN,No disponible,No disponible,No disponible,No disponible,31.2788888888889,-110.947222222222,1,0,1,1,1,26,1,43,31.2788888888889,-110.947222222222,26_43_1_71-43-2_2004
65298bc1bb426186d9060cf7,0,0.0000017158,0,2004,107-02-8,0,26,0,SONORA,,2A,0,PEMEX REFINACION TERMINAL DE ALMACENAMIENTO Y DISTRIBUCION NOGALES SON,PREBM2604311,0,0,0,Petroleo y petroquimica,0,Acroleina,0,kg/año,RECIBO ALMACENAMIENTO Y DISTRIBUCION DE HIDROCARBUROS,Almacenamiento y distribucion de productos derivados del petroleo,CARRETERA INTERNACIONAL KM5.5,INDUSTRIAL,0,0,84000,43,No disponible,No aplica,No disponible,SIN NOMBRE,SIN NOMBRE,"31°16'44""",NOGALES,"110°56'50""",0,Nogales,SN,No disponible,No disponible,No disponible,No disponible,31.2788888888889,-110.947222222222,1,0,1,1,1,26,1,43,31.2788888888889,-110.947222222222,26_43_2A_107-02-8_2004
65298bc1bb426186d9060cf8,0,0.00014228009536,0,2004,75-07-0,0,26,0,SONORA,,2B,0,PEMEX REFINACION TERMINAL DE ALMACENAMIENTO Y DISTRIBUCION NOGALES SON,PREBM2604311,0,0,0,Petroleo y petroquimica,0,Acetaldehido,0,kg/año,RECIBO ALMACENAMIENTO Y DISTRIBUCION DE HIDROCARBUROS,Almacenamiento y distribucion de productos derivados del petroleo,CARRETERA INTERNACIONAL KM5.5,INDUSTRIAL,0,0,84000,43,No disponible,No aplica,No disponible,SIN NOMBRE,SIN NOMBRE,"31°16'44""",NOGALES,"110°56'50""",0,Nogales,SN,No disponible,No disponible,No disponible,No disponible,31.2788888888889,-110.947222222222,1,0,1,1,1,26,1,43,31.2788888888889,-110.947222222222,26_43_2B_75-07-0_2004
65298bc7bb426186d9065f98,0,0.0018319,0,2013,107-02-8,0,26,0,SONORA,,2A,0,PEMEX REFINACION TERMINAL DE ALMACENAMIENTO Y REPARTO NOGALES SON,PREBM2604311,0,0,0,Petroleo y petroquimica,0,Acroleina,0,kg/año,RECIBO ALMACENAMIENTO Y REPARTO DE HIDROCARBUROS,No disponible,CARRETERA INTERNACIONAL KM5.5,INDUSTRIAL,No disponible,No disponible,84000,43,M9,No aplica,Transporte por ductos de productos refinados del petróleo.,No disponible,No disponible,"31°16'47""",NOGALES,"110°56'16""",0,Nogales,SN,No disponible,No disponible,486910,Almacenamiento y distribucion de productos derivados del petroleo,31.2797222222222,-110.937777777778,1,0,1,1,1,26,1,43,31.2797222222222,-110.937777777778,26_43_2A_107-02-8_2013
65298bc7bb426186d9065f9a,0,0.01519,0,2013,75-07-0,0,26,0,SONORA,,2B,0,PEMEX REFINACION TERMINAL DE ALMACENAMIENTO Y REPARTO NOGALES SON,PREBM2604311,0,0,0,Petroleo y petroquimica,0,Acetaldehido,0,kg/año,RECIBO ALMACENAMIENTO Y REPARTO DE HIDROCARBUROS,No disponible,CARRETERA INTERNACIONAL KM5.5,INDUSTRIAL,No disponible,No disponible,84000,43,M9,No aplica,Transporte por ductos de productos refinados del petróleo.,No disponible,No disponible,"31°16'47""",NOGALES,"110°56'16""",0,Nogales,SN,No disponible,No disponible,486910,Almacenamiento y distribucion de productos derivados del petroleo,31.2797222222222,-110.937777777778,1,0,1,1,1,26,1,43,31.2797222222222,-110.937777777778,26_43_2B_75-07-0_2013
65298bc7bb426186d9065f9b,0,0.0007743,0,2013,50-00-0,0,26,0,SONORA,,1,0,PEMEX REFINACION TERMINAL DE ALMACENAMIENTO Y REPARTO NOGALES SON,PREBM2604311,0,0,0,Petroleo y petroquimica,0,Formaldehido,0,kg/año,RECIBO ALMACENAMIENTO Y REPARTO DE HIDROCARBUROS,No disponible,CARRETERA INTERNACIONAL KM5.5,INDUSTRIAL,No disponible,No disponible,84000,43,M9,No aplica,Transporte por ductos de productos refinados del petróleo.,No disponible,No disponible,"31°16'47""",NOGALES,"110°56'16""",0,Nogales,SN,No disponible,No disponible,486910,Almacenamiento y distribucion de productos derivados del petroleo,31.2797222222222,-110.937777777778,1,0,1,1,1,26,1,43,31.2797222222222,-110.937777777778,26_43_1_50-00-0_2013
65298bc7bb426186d9065f9c,0,0.0184775,0,2013,71-43-2,0,26,0,SONORA,,1,0,PEMEX REFINACION TERMINAL DE ALMACENAMIENTO Y REPARTO NOGALES SON,PREBM2604311,0,0,0,Petroleo y petroquimica,0,Benceno,0,kg/año,RECIBO ALMACENAMIENTO Y REPARTO DE HIDROCARBUROS,No disponible,CARRETERA INTERNACIONAL KM5.5,INDUSTRIAL,No disponible,No disponible,84000,43,M9,No aplica,Transporte por ductos de productos refinados del petróleo.,No disponible,No disponible,"31°16'47""",NOGALES,"110°56'16""",0,Nogales,SN,No disponible,No disponible,486910,Almacenamiento y distribucion de productos derivados del petroleo,31.2797222222222,-110.937777777778,1,0,1,1,1,26,1,43,31.2797222222222,-110.937777777778,26_43_1_71-43-2_2013
65298bc8bb426186d9067043,0,0,0,2015,7439-92-1,0,26,0,SONORA,,2B,0,"AVENT SRL DE CV,AVENT PLANTA 2",AVE1C2604312,0,6,0,Articulos y productos compuestos de diferentes materiales,0,"Plomo (polvos respirables, humos o vapores)",0,kg/año,Fabricación de dispositivos y productos médicos,No disponible,Avenida EL CASTILLO,No disponible,507194.9788,3463598.9057,84094,43,1C,No aplica,"Fabricación de equipo no electrónico para uso médico, dental y para laboratorio",No disponible,No disponible,"31°18'24""",Heroica Nogales,"110°55'27""",0,Nogales,17 B,No disponible,EL CID,339111,"Produccion de equipos y/o articulos, medicos y/o quirurgicos",31.3066666666667,-110.924166666667,1,0,1,1,1,26,1,43,31.3066666666667,-110.924166666667,26_43_2B_7439-92-1_2015
65298bc8bb426186d9067044,0,0,0,2015,7439-92-1,0,26,0,SONORA,,2B,0,"AVENT SRL DE CV,AVENT PLANTA 1",AVE3S2604311,0,7.8,0,Articulos y productos compuestos de diferentes materiales,0,"Plomo (polvos respirables, humos o vapores)",0,kg/año,Fabricación de productos y dispositivos médicos,No disponible,Calle CIRCUITO INDUSTRIAL,Colonia PARQUE INDUSTRIAL,504063.0453,3463717.5771,84000,43,1C,No aplica,"Fabricación de equipo no electrónico para uso médico, dental y para laboratorio",No disponible,No disponible,"31°18'28""",Heroica Nogales,"110°57'26""",0,Nogales,40,40,No disponible,339111,"Produccion de equipos y/o articulos, medicos y/o quirurgicos",31.3077777777778,-110.957222222222,1,0,1,1,1,26,1,43,31.3077777777778,-110.957222222222,26_43_2B_7439-92-1_2015
65298bcabb426186d9068793,0,0,0,2015,7440-02-0,0,26,0,SONORA,,2B,0,"WEISER LOCK MEXICO S. DE R. L. DE C. V.,SPECTRUM BRANDS",WLM2604300109,0,0,0,Articulos y productos metalicos,0,"Níquel (polvos respirables, humos o vapores)",4022,kg/año,"FABRIACION DE CHAPAS, BISAGRAS Y SIMILARES",No disponible,Calzada  Industrial Nuevo Nogales,No disponible,503867.6705,3457994.366,84094,43,81,No aplica,Fabricación de herrajes y cerraduras,No disponible,No disponible,"31°15'22""",Heroica Nogales,"110°57'33""",0,Nogales,1045,No disponible,PARQUE INDUSTRIAL NUEVO NOGALES,332510,"Produccion de cerraduras, candados y llaves",31.2561111111111,-110.959166666667,1,0,1,1,1,26,1,43,31.2561111111111,-110.959166666667,26_43_2B_7440-02-0_2015
65298bcabb426186d9068794,0,0,0,2015,7439-92-1,0,26,0,SONORA,,2B,0,"WEISER LOCK MEXICO S. DE R. L. DE C. V.,SPECTRUM BRANDS",WLM2604300109,0,0,0,Articulos y productos metalicos,0,"Plomo (polvos respirables, humos o vapores)",288,kg/año,"FABRIACION DE CHAPAS, BISAGRAS Y SIMILARES",No disponible,Calzada  Industrial Nuevo Nogales,No disponible,503867.6705,3457994.366,84094,43,81,No aplica,Fabricación de herrajes y cerraduras,No disponible,No disponible,"31°15'22""",Heroica Nogales,"110°57'33""",0,Nogales,1045,No disponible,PARQUE INDUSTRIAL NUEVO NOGALES,332510,"Produccion de cerraduras, candados y llaves",31.2561111111111,-110.959166666667,1,0,1,1,1,26,1,43,31.2561111111111,-110.959166666667,26_43_2B_7439-92-1_2015
65298bcabb426186d9068a20,0.000862,0,0,2006,7440-43-9,0,26,0,SONORA,,1,0,ARMADILLO OPERACIONES NOROESTES.A. DE C.V.,AON912604311,0,0,0,"Equipos y articulos electronicos, electricos y domesticos",0,Cadmio,0,kg/año,FEBRICAR PIEZAS METALICAS ENSAMBLAR Y VENDER  CONTACTOS ELECTRONICOS MULTIPLES Y SENCILLOS,No disponible,CARRET. INTERNACIONAL KM 6.5,PARQUE IND NOGALES,1105645,311907,84094,43,91,No aplica,"Fabricación de enchufes, contactos, fusibles y otros accesorios para instalaciones eléctricas",No disponible,No disponible,"31°16'43""",NOGALES,"110°56'26""",0,Nogales,3,No disponible,PARQUE INDUSTRIAL NOGALES,335930,"Produccion de aparatos, equipos y/o accesorios electricos y/o electronicos",31.2786111111111,-110.940555555556,1,0,1,1,1,26,1,43,31.2786111111111,-110.940555555556,26_43_1_7440-43-9_2006
65298bcabb426186d9068a21,0.000862,0,0,2006,7440-38-2,0,26,0,SONORA,,1,0,ARMADILLO OPERACIONES NOROESTES.A. DE C.V.,AON912604311,0,0,0,"Equipos y articulos electronicos, electricos y domesticos",0,Arsénico,0,kg/año,FEBRICAR PIEZAS METALICAS ENSAMBLAR Y VENDER  CONTACTOS ELECTRONICOS MULTIPLES Y SENCILLOS,No disponible,CARRET. INTERNACIONAL KM 6.5,PARQUE IND NOGALES,1105645,311907,84094,43,91,No aplica,"Fabricación de enchufes, contactos, fusibles y otros accesorios para instalaciones eléctricas",No disponible,No disponible,"31°16'43""",NOGALES,"110°56'26""",0,Nogales,3,No disponible,PARQUE INDUSTRIAL NOGALES,335930,"Produccion de aparatos, equipos y/o accesorios electricos y/o electronicos",31.2786111111111,-110.940555555556,1,0,1,1,1,26,1,43,31.2786111111111,-110.940555555556,26_43_1_7440-38-2_2006
65298bcabb426186d90690fa,1e-11,0,0,2006,7440-43-9,0,26,0,SONORA,,1,0,Curtis de Mexico S.A. de C.V.,CME992604311,0,0,0,"Equipos y articulos electronicos, electricos y domesticos",0,Cadmio,0,kg/año,maquila de componentes electronicos,No disponible,Maquila,Parque Industrial,0,0,84094,43,91,No aplica,Fabricación de componentes electrónicos,No disponible,No disponible,"31°16'15""",Nogales,"111°56'48""",0,Nogales,11,No disponible,Parque Industrial Terrazas del Cid,334410,"Produccion de aparatos, equipos y/o accesorios electricos y/o electronicos",31.2708333333333,-111.946666666667,1,0,1,1,1,26,0,4,31.309879,-110.9324638,26_43_1_7440-43-9_2006
65298bcabb426186d90690fb,1e-11,0,0,2006,7440-38-2,0,26,0,SONORA,,1,0,Curtis de Mexico S.A. de C.V.,CME992604311,0,0,0,"Equipos y articulos electronicos, electricos y domesticos",0,Arsénico,0,kg/año,maquila de componentes electronicos,No disponible,Maquila,Parque Industrial,0,0,84094,43,91,No aplica,Fabricación de componentes electrónicos,No disponible,No disponible,"31°16'15""",Nogales,"111°56'48""",0,Nogales,11,No disponible,Parque Industrial Terrazas del Cid,334410,"Produccion de aparatos, equipos y/o accesorios electricos y/o electronicos",31.2708333333333,-111.946666666667,1,0,1,1,1,26,0,4,31.309879,-110.9324638,26_43_1_7440-38-2_2006
65298bcbbb426186d90696c7,0.000095,0,0,2006,7440-38-2,0,26,0,SONORA,,1,0,FANOSA S.A. DE C.V.,FANMA2604311,0,0,0,Quimica,0,Arsénico,0,kg/año,FABRICACION DE PRODUCTOS DE POLIESTIRENO EXPANDIDO,No disponible,CARRETERA INTERNACIONAL KM 7,PARQUE INDUSTRIAL,0,0,84000,43,MA,No aplica,Fabricación de otros productos de plástico de uso industrial sin reforzamiento,No disponible,No disponible,"31°16'48""",NOGALES,"106°56'30""",0,Nogales,0,No disponible,PARQUE INDUSTRIAL,326194,Fabricacion de productos moldeados con diversas resinas ,31.28,-106.941666666667,1,0,1,1,0,8,0,0,31.309879,-110.9324638,26_43_1_7440-38-2_2006
65298bccbb426186d906a206,0.00136056,0,0,2006,7440-43-9,0,26,0,SONORA,,1,0,MASTER LOCK DE NOGALES S.A. DE C.V.,MLN812604311,0,0,0,Articulos y productos metalicos,0,Cadmio,0,kg/año,ENSAMBLE Y MANUFACTURA DE CANDADOS,No disponible,AV. FORTUNE BRANDS,PARQUE IND. NUEVO NOGALES,503836.8732,3458229.3354,84094,43,81,No aplica,Fabricación de herrajes y cerraduras,No disponible,No disponible,"31°15'50""",NOGALES,"110°57'58""",0,Nogales,SN,No disponible,PARQUE INDUSTRIAL NUEVO NOGALES,332510,"Produccion de cerraduras, candados y llaves",31.2638888888889,-110.966111111111,1,0,1,1,1,26,1,43,31.2638888888889,-110.966111111111,26_43_1_7440-43-9_2006
65298bcdbb426186d906af33,0.00028665,0,0,2006,7440-38-2,0,26,0,SONORA,,1,0,SONITRONIES S.A. DE C.V. DPTO LAIDLAW,SONMA2604316,0,0,0,Quimica,0,Arsénico,0,kg/año,FABRICACIÓN DE PRODUCTOS MOLDEADOS CON DIVERSAS RESINAS; NO INCLUYE LA MICROINDUSTRIA NI,No disponible,CARR INTERNACIONAL KM 7.5,PARQUE INDUSTRIAL EL CID,0,0,84093,43,MA,No aplica,Fabricación de otros productos de plástico de uso industrial sin reforzamiento,No disponible,No disponible,"31°16'45""",NOGALES,"110°16'19""",0,Nogales,No 15,No disponible,PARQUE INDUSTRIAL EL CID,326194,Fabricacion de productos moldeados con diversas resinas ,31.2791666666667,-110.271944444444,1,0,1,1,1,26,0,39,31.309879,-110.9324638,26_43_1_7440-38-2_2006
65298bcdbb426186d906af36,0.00028665,0,0,2006,7440-43-9,0,26,0,SONORA,,1,0,SONITRONIES S.A. DE C.V. DPTO LAIDLAW,SONMA2604316,0,0,0,Quimica,0,Cadmio,0,kg/año,FABRICACIÓN DE PRODUCTOS MOLDEADOS CON DIVERSAS RESINAS; NO INCLUYE LA MICROINDUSTRIA NI,No disponible,CARR INTERNACIONAL KM 7.5,PARQUE INDUSTRIAL EL CID,0,0,84093,43,MA,No aplica,Fabricación de otros productos de plástico de uso industrial sin reforzamiento,No disponible,No disponible,"31°16'45""",NOGALES,"110°16'19""",0,Nogales,No 15,No disponible,PARQUE INDUSTRIAL EL CID,326194,Fabricacion de productos moldeados con diversas resinas ,31.2791666666667,-110.271944444444,1,0,1,1,1,26,0,39,31.309879,-110.9324638,26_43_1_7440-43-9_2006
65298bcebb426186d906b6d8,0,1521,0,2012,79-01-6,0,26,0,SONORA,Hidrocarburos Aromáticos y Alifáticos,1,0,AMPHENOL OPTIMIZE MEXICO S. A. de C. V.,AOM912604311,0,0,0,"Equipos y articulos electronicos, electricos y domesticos",0,Tricloroetileno,0,kg/año,MANUFACTURA DE COMPONENTES ELECTRONICOS PARA LA INDUSTRIA,No disponible,LOS GAVILANES,PARQUE INDUSTRIAL,No disponible,No disponible,84094,43,91,No aplica,Fabricación de componentes electrónicos.,CARRETERA INTERNACIONAL,ARROYO LOS NOGALES,"31°16'18""",SONORA,"110°56'14""",0,Nogales,51,No disponible,PARQUE INDUSTRIAL SAN RAMON,334410,No disponible,31.2716666666667,-110.937222222222,1,0,1,1,1,26,1,43,31.2716666666667,-110.937222222222,26_43_1_79-01-6_2012
65298bd1bb426186d906df63,0,0.001801384,0,2012,107-02-8,0,26,0,SONORA,Otros,2A,0,PEMEX REFINACION TERMINAL DE ALMACENAMIENTO Y REPARTO NOGALES SON,PREBM2604311,0,0,0,Petroleo y petroquimica,0,Acroleina,0,kg/año,RECIBO ALMACENAMIENTO Y REPARTO DE HIDROCARBUROS,No disponible,CARRETERA INTERNACIONAL KM5.5,INDUSTRIAL,No disponible,No disponible,84000,43,M9,No aplica,Transporte por ductos de productos refinados del petróleo.,SIN NOMBRE,SIN NOMBRE,"31°16'47""",NOGALES,"110°56'16""",0,Nogales,SN,No disponible,No disponible,486910,No disponible,31.2797222222222,-110.937777777778,1,0,1,1,1,26,1,43,31.2797222222222,-110.937777777778,26_43_2A_107-02-8_2012
65298bd1bb426186d906df65,0,0.00076145,0,2012,50-00-0,0,26,0,SONORA,Otros,1,0,PEMEX REFINACION TERMINAL DE ALMACENAMIENTO Y REPARTO NOGALES SON,PREBM2604311,0,0,0,Petroleo y petroquimica,0,Formaldehido,0,kg/año,RECIBO ALMACENAMIENTO Y REPARTO DE HIDROCARBUROS,No disponible,CARRETERA INTERNACIONAL KM5.5,INDUSTRIAL,No disponible,No disponible,84000,43,M9,No aplica,Transporte por ductos de productos refinados del petróleo.,SIN NOMBRE,SIN NOMBRE,"31°16'47""",NOGALES,"110°56'16""",0,Nogales,SN,No disponible,No disponible,486910,No disponible,31.2797222222222,-110.937777777778,1,0,1,1,1,26,1,43,31.2797222222222,-110.937777777778,26_43_1_50-00-0_2012
65298bd1bb426186d906df66,0,0.018169,0,2012,71-43-2,0,26,0,SONORA,Hidrocarburos Aromáticos y Alifáticos,1,0,PEMEX REFINACION TERMINAL DE ALMACENAMIENTO Y REPARTO NOGALES SON,PREBM2604311,0,0,0,Petroleo y petroquimica,0,Benceno,0,kg/año,RECIBO ALMACENAMIENTO Y REPARTO DE HIDROCARBUROS,No disponible,CARRETERA INTERNACIONAL KM5.5,INDUSTRIAL,No disponible,No disponible,84000,43,M9,No aplica,Transporte por ductos de productos refinados del petróleo.,SIN NOMBRE,SIN NOMBRE,"31°16'47""",NOGALES,"110°56'16""",0,Nogales,SN,No disponible,No disponible,486910,No disponible,31.2797222222222,-110.937777777778,1,0,1,1,1,26,1,43,31.2797222222222,-110.937777777778,26_43_1_71-43-2_2012
65298bd1bb426186d906df67,0,0.014936879,0,2012,75-07-0,0,26,0,SONORA,Otros,2B,0,PEMEX REFINACION TERMINAL DE ALMACENAMIENTO Y REPARTO NOGALES SON,PREBM2604311,0,0,0,Petroleo y petroquimica,0,Acetaldehido,0,kg/año,RECIBO ALMACENAMIENTO Y REPARTO DE HIDROCARBUROS,No disponible,CARRETERA INTERNACIONAL KM5.5,INDUSTRIAL,No disponible,No disponible,84000,43,M9,No aplica,Transporte por ductos de productos refinados del petróleo.,SIN NOMBRE,SIN NOMBRE,"31°16'47""",NOGALES,"110°56'16""",0,Nogales,SN,No disponible,No disponible,486910,No disponible,31.2797222222222,-110.937777777778,1,0,1,1,1,26,1,43,31.2797222222222,-110.937777777778,26_43_2B_75-07-0_2012
65298ba4bb426186d904c9aa,39.255387,0,0,2008,7440-38-2,0,26,0,SONORA,,1,0,OPERADORA DE SERVICIOS MAYAN S.A. DE C.V.,OSMBB2604811,0,0,0,Otros,0,Arsénico,0,kg/año,Hotelería,No disponible,Boulevard Kino y Av. Sinaloa,El Puerto,284396.7969,3458969.2302,83550,48,AY,No aplica,Hoteles con otros servicios integrados,No disponible,No disponible,"31°18'54""",Puerto Peñasco,"113°32'02""",0,Puerto Peñasco,Lote 1 y 6,No disponible,No disponible,721111,Servicios de Hotel,31.315,-113.533888888889,1,0,1,1,1,26,1,48,31.315,-113.533888888889,26_48_1_7440-38-2_2008
65298ba4bb426186d904c9ab,20.984723,0,0,2008,7440-43-9,0,26,0,SONORA,,1,0,OPERADORA DE SERVICIOS MAYAN S.A. DE C.V.,OSMBB2604811,0,0,0,Otros,0,Cadmio,0,kg/año,Hotelería,No disponible,Boulevard Kino y Av. Sinaloa,El Puerto,284396.7969,3458969.2302,83550,48,AY,No aplica,Hoteles con otros servicios integrados,No disponible,No disponible,"31°18'54""",Puerto Peñasco,"113°32'02""",0,Puerto Peñasco,Lote 1 y 6,No disponible,No disponible,721111,Servicios de Hotel,31.315,-113.533888888889,1,0,1,1,1,26,1,48,31.315,-113.533888888889,26_48_1_7440-43-9_2008
65298bbcbb426186d905d278,0.004804105,0,0,2009,7440-38-2,0,26,0,SONORA,,1,0,Operadora de Servicios Mayan S.A. de C.V.,OSMBB2604811,0,0,0,Otros,0,Arsénico,0,kg/año,Hotelería,No disponible,Boulevard Kino y Av. Sinaloa,El Puerto,284396.7969,3458969.2302,83550,48,AY,No aplica,Hoteles con otros servicios integrados.,No disponible,No disponible,"31°18'54""",Puerto Peñasco,"113°32'02""",0,Puerto Peñasco,Lote 1 y 6,No disponible,No disponible,721111,Servicios de Hotel,31.315,-113.533888888889,1,0,1,1,1,26,1,48,31.315,-113.533888888889,26_48_1_7440-38-2_2009
65298bbcbb426186d905d27a,0.0020443,0,0,2009,7440-43-9,0,26,0,SONORA,,1,0,Operadora de Servicios Mayan S.A. de C.V.,OSMBB2604811,0,0,0,Otros,0,Cadmio,0,kg/año,Hotelería,No disponible,Boulevard Kino y Av. Sinaloa,El Puerto,284396.7969,3458969.2302,83550,48,AY,No aplica,Hoteles con otros servicios integrados.,No disponible,No disponible,"31°18'54""",Puerto Peñasco,"113°32'02""",0,Puerto Peñasco,Lote 1 y 6,No disponible,No disponible,721111,Servicios de Hotel,31.315,-113.533888888889,1,0,1,1,1,26,1,48,31.315,-113.533888888889,26_48_1_7440-43-9_2009
65298bd0bb426186d906d856,0,0,0,2012,7440-38-2,0,26,0,SONORA,Metales,1,0,Operadora Turística Hotelera SA de CV,OTHBB2604811,0,0,0,Otros,1.6187075,Arsénico,0,kg/año,Hotelería,No disponible,Boulevard Kino y Av. Sinaloa,El Puerto,No disponible,No disponible,83550,48,AY,No aplica,Hoteles sin otros servicios integrados.,En la esquina de Blvd Kino,Av. Sinaloa,"31°14'42""",Puerto Peñasco,"113°15'50""",0,Puerto Peñasco,16,No disponible,No disponible,721112,No disponible,31.245,-113.263888888889,1,0,1,1,1,26,1,48,31.245,-113.263888888889,26_48_1_7440-38-2_2012
65298bd0bb426186d906d857,0,0,0,2012,7440-43-9,0,26,0,SONORA,Metales,1,0,Operadora Turística Hotelera SA de CV,OTHBB2604811,0,0,0,Otros,1.294966,Cadmio,0,kg/año,Hotelería,No disponible,Boulevard Kino y Av. Sinaloa,El Puerto,No disponible,No disponible,83550,48,AY,No aplica,Hoteles sin otros servicios integrados.,En la esquina de Blvd Kino,Av. Sinaloa,"31°14'42""",Puerto Peñasco,"113°15'50""",0,Puerto Peñasco,16,No disponible,No disponible,721112,No disponible,31.245,-113.263888888889,1,0,1,1,1,26,1,48,31.245,-113.263888888889,26_48_1_7440-43-9_2012
65298ba1bb426186d90499a7,0,0,0,2018,7440-02-0,0,26,0,SONORA,,2B,0,"AUTOTECH PRODUCTION DE MEXICO S. DE R.L. DE C.V.,",APM2605500078,0,0,324,Automotriz,0,"Níquel (polvos respirables, humos o vapores)",0,kg/año,Recubrimientos metalicos,No disponible,Avenida DE LA INDUSTRIA,Colonia PARQUE INDUSTRIAL,715063.2661,3593659.5458,83455,55,9M,No aplica,Recubrimientos y terminados metálicos,No disponible,No disponible,"32°27'33""",SAN LUIS RIO COLORADO,"114°42'42""",0,San Luis Rio Colorado,301,B ,No disponible,332810,Produccion de otras auto partes,32.4591666666667,-114.711666666667,1,0,1,1,1,26,1,55,32.4591666666667,-114.711666666667,26_55_2B_7440-02-0_2018
65298ba5bb426186d904d3b4,0.0407725,0,0,2008,7440-38-2,0,26,0,SONORA,,1,0,TSE DE MEXICO S.A DE C.V.,TME9L2605511,0,0,0,Automotriz,0,Arsénico,0,kg/año,PRODUCCIÓN DE PARTES PARA EL SISTEMA DE FRENOS AUTOMOTRIZ (SÓLO MEDIANTE PROCESOS TÉRMICOS,No disponible,AVENIDA DE LA INDUSTRIA,PARQUE INDUSTRIAL,0,0,83455,55,9L,No aplica,Fabricación de partes de sistemas de frenos para vehículos automotrices,No disponible,No disponible,"32°28'36""",No disponible,"114°45'45""",0,San Luis Rio Colorado,No disponible,No disponible,PARQUE INDUSTRIAL SAN LUIS,336340,Produccion de partes para el sistema de frenos automotriz,32.4766666666667,-114.7625,1,0,1,1,1,26,1,55,32.4766666666667,-114.7625,26_55_1_7440-38-2_2008
65298ba5bb426186d904d3b5,0.32618,0,0,2008,7440-43-9,0,26,0,SONORA,,1,0,TSE DE MEXICO S.A DE C.V.,TME9L2605511,0,0,0,Automotriz,0,Cadmio,0,kg/año,PRODUCCIÓN DE PARTES PARA EL SISTEMA DE FRENOS AUTOMOTRIZ (SÓLO MEDIANTE PROCESOS TÉRMICOS,No disponible,AVENIDA DE LA INDUSTRIA,PARQUE INDUSTRIAL,0,0,83455,55,9L,No aplica,Fabricación de partes de sistemas de frenos para vehículos automotrices,No disponible,No disponible,"32°28'36""",No disponible,"114°45'45""",0,San Luis Rio Colorado,No disponible,No disponible,PARQUE INDUSTRIAL SAN LUIS,336340,Produccion de partes para el sistema de frenos automotriz,32.4766666666667,-114.7625,1,0,1,1,1,26,1,55,32.4766666666667,-114.7625,26_55_1_7440-43-9_2008
65298bb1bb426186d905467b,0.000621,0,0,2005,7440-38-2,0,26,0,SONORA,,1,0,DEMDA MEXICO MEXICO S A DE C V,DMEAI2605511,0,0,0,"Equipos y articulos electronicos, electricos y domesticos",0,Arsénico,0,kg/año,ENSAMBLE DE TELEVISIONES.,"Produccion de aparatos, equipos y/o accesorios electricos y/o electronicos",AV. SAMUEL OCANA GARCIA 203 B,PARQUE INDUSTRIAL,0,0,83450,55,No disponible,No aplica,No disponible,ESQUINA CON REVOLUCION,No disponible,"32°27'24""",SAN LUIS RIO COLORADO,"0.114°42'57""",0,San Luis Rio Colorado,SN,No disponible,PARQUE INDUSTRIAL SAN LUIS RIO COLORADO,No disponible,No disponible,32.4566666666667,-11.7158333333333,1,0,1,0,0,0,0,0,32.4518877,-114.771711,26_55_1_7440-38-2_2005
65298bb1bb426186d905467c,0.000621,0,0,2005,7440-43-9,0,26,0,SONORA,,1,0,DEMDA MEXICO MEXICO S A DE C V,DMEAI2605511,0,0,0,"Equipos y articulos electronicos, electricos y domesticos",0,Cadmio,0,kg/año,ENSAMBLE DE TELEVISIONES.,"Produccion de aparatos, equipos y/o accesorios electricos y/o electronicos",AV. SAMUEL OCANA GARCIA 203 B,PARQUE INDUSTRIAL,0,0,83450,55,No disponible,No aplica,No disponible,ESQUINA CON REVOLUCION,No disponible,"32°27'24""",SAN LUIS RIO COLORADO,"0.114°42'57""",0,San Luis Rio Colorado,SN,No disponible,PARQUE INDUSTRIAL SAN LUIS RIO COLORADO,No disponible,No disponible,32.4566666666667,-11.7158333333333,1,0,1,0,0,0,0,0,32.4518877,-114.771711,26_55_1_7440-43-9_2005
65298bb3bb426186d9056289,0.000059904,0,0,2005,7440-43-9,0,26,0,SONORA,,1,0,TSE DE MEXICO S.A DE C.V.,TME9L2605511,0,0,0,Automotriz,0,Cadmio,0,kg/año,PRODUCCIÓN DE PARTES PARA EL SISTEMA DE FRENOS AUTOMOTRIZ (SÓLO MEDIANTE PROCESOS TÉRMICOS,Produccion de partes para el sistema de frenos automotriz,AVENIDA DE LA INDUSTRIA,PARQUE INDUSTRIAL,0,0,83455,55,No disponible,No aplica,No disponible,MIGUEL DE LA MADRID,No disponible,"32°28'36""",No disponible,"114°45'45""",0,San Luis Rio Colorado,No disponible,No disponible,PARQUE INDUSTRIAL SAN LUIS,No disponible,No disponible,32.4766666666667,-114.7625,1,0,1,1,1,26,1,55,32.4766666666667,-114.7625,26_55_1_7440-43-9_2005
65298bb7bb426186d9058b93,0.000260944,0,0,2007,7440-38-2,0,26,0,SONORA,,1,0,TSE DE MEXICO S.A DE C.V.,TME9L2605511,0,0,0,Automotriz,0,Arsénico,0,kg/año,PRODUCCIÓN DE PARTES PARA EL SISTEMA DE FRENOS AUTOMOTRIZ (SÓLO MEDIANTE PROCESOS TÉRMICOS,No disponible,AVENIDA DE LA INDUSTRIA,PARQUE INDUSTRIAL,0,0,83455,55,9L,No aplica,Fabricación de partes de sistemas de frenos para vehículos automotrices.,No disponible,No disponible,"32°28'36""",No disponible,"114°45'45""",0,San Luis Rio Colorado,No disponible,No disponible,PARQUE INDUSTRIAL SAN LUIS,336340,Produccion de partes para el sistema de frenos automotriz,32.4766666666667,-114.7625,1,0,1,1,1,26,1,55,32.4766666666667,-114.7625,26_55_1_7440-38-2_2007
65298b9fbb426186d90484e9,0,0,0,2011,7440-38-2,0,26,0,SONORA,,1,0,Compañia Minera La Parreña S.A. de C.V.,MPAAM2603011,0,0,0,Metalurgica (incluye la siderurgica),3.3467,Arsénico,0,kg/año,MINERIA DE COBRE,No disponible,DOMICILIO CONOCIDO,ND,No disponible,No disponible,84620,59,15,No aplica,Minería de cobre,No disponible,No disponible,"31°7'0""",MILPILLAS,"110°20'0""",0,Santa Cruz,ND,ND,No disponible,212231,Mineria de cobre y niquel,31.1166666666667,-110.333333333333,1,0,1,1,1,26,0,19,31.2327396,-110.5966985,26_59_1_7440-38-2_2011
65298ba4bb426186d904c80c,0.10731,0,0,2008,7440-38-2,0,26,0,SONORA,,1,0,COMPADIA MINERA LA PARREDA S.A. DE C.V.,MPAAM2603011,0,0,0,Metalurgica (incluye la siderurgica),0,Arsénico,0,kg/año,MINERIA DE COBRE,No disponible,DOMICILIO CONOCIDO,ND,No disponible,No disponible,84620,59,15,No aplica,Minería de cobre,No disponible,No disponible,"31°7'0""",MILPILLAS,"110°20'0""",0,Santa Cruz,ND,ND,No disponible,212231,Mineria de cobre y niquel,31.1166666666667,-110.333333333333,1,0,1,1,1,26,0,19,31.2327396,-110.5966985,26_59_1_7440-38-2_2008
65298ba4bb426186d904c80d,0.1469125,0,0,2008,7440-43-9,0,26,0,SONORA,,1,0,COMPADIA MINERA LA PARREDA S.A. DE C.V.,MPAAM2603011,0,0,0,Metalurgica (incluye la siderurgica),0,Cadmio,0,kg/año,MINERIA DE COBRE,No disponible,DOMICILIO CONOCIDO,ND,No disponible,No disponible,84620,59,15,No aplica,Minería de cobre,No disponible,No disponible,"31°7'0""",MILPILLAS,"110°20'0""",0,Santa Cruz,ND,ND,No disponible,212231,Mineria de cobre y niquel,31.1166666666667,-110.333333333333,1,0,1,1,1,26,0,19,31.2327396,-110.5966985,26_59_1_7440-43-9_2008
65298bb9bb426186d905a765,0,0,0,2010,7440-38-2,0,26,0,SONORA,,1,0,Compañia Minera La Parreña S.A. de C.V.,MPAAM2603011,0,0,0,Metalurgica (incluye la siderurgica),2.26,Arsénico,0,kg/año,MINERIA DE COBRE,No disponible,DOMICILIO CONOCIDO,ND,No disponible,No disponible,84620,59,15,No aplica,Minería de cobre.,No disponible,No disponible,"31°7'0""",MILPILLAS,"110°20'0""",0,Santa Cruz,ND,ND,No disponible,212231,Mineria de cobre y niquel,31.1166666666667,-110.333333333333,1,0,1,1,1,26,0,19,31.2327396,-110.5966985,26_59_1_7440-38-2_2010
65298bbcbb426186d905d0b9,0.00119,0,0,2009,7440-38-2,0,26,0,SONORA,,1,0,CompaDia Minera La ParreDa S.A. de C.V.,MPAAM2603011,0,0,0,Metalurgica (incluye la siderurgica),0,Arsénico,0,kg/año,MINERIA DE COBRE,No disponible,DOMICILIO CONOCIDO,ND,No disponible,No disponible,84620,59,15,No aplica,Minería de cobre.,No disponible,No disponible,"31°7'0""",MILPILLAS,"110°20'0""",0,Santa Cruz,ND,ND,No disponible,212231,Mineria de cobre y niquel,31.1166666666667,-110.333333333333,1,0,1,1,1,26,0,19,31.2327396,-110.5966985,26_59_1_7440-38-2_2009