_id,agua,aire,alcantarillado,anio,cas,coprocesamiento,cve_ent,dispfinal,estado,gposustancia,iarc,incineracion,nombre,nra,otros,reciclado,reutilizacion,sector,suelo,sustancia,tratamiento,unidad,actprincipal,actsemarnat,calle,colonia,coordenadaUTMX,coordenadaUTMY,cp,cve_mun,cveamb,descmod,descscian,entrec1,entrec2,latitudnorte,localidad,longitudoeste,mod,municipio,numexterior,numinterior,parqueind,scian,subsector,lat,lng,calculada,incorrecto,mapa,enmexico,enestado,cve_ent_coor,enmunicipio,cve_mun_coor,flat,flng,PERFIL
65298ba1bb426186d904956f,0,0,0,2011,7440-43-9,0,5,146.8,COAHUILA,,1,0,"TOTER DE MEXICO, S DE R.L. DE C.V.",TME6E0500211,0,0,0,Articulos y productos plasticos,0,Cadmio,0,kg/año,FABRICACION DE PRODUCTOS PLASTICOS,No disponible,BLV. INTERNACIONAL,PARQUE INTERNACIONAL,No disponible,No disponible,26269,2,6E,No aplica,Fabricación de otros productos de plástico sin reforzamiento,No disponible,No disponible,"29°16'34""",ACUNA,"100°54'26""",0,Acuña,SN,15,PARQUE INDUSTRIAL INTERNACIONAL,326199,Fabricacion de productos y articulos de plastico,29.2761111111111,-100.907222222222,1,0,1,1,1,5,1,2,29.2761111111111,-100.907222222222,5_2_1_7440-43-9_2011
65298ba1bb426186d904981b,0,3.03,0,2018,7439-92-1,0,5,0.0578,COAHUILA,,2B,0,"AEES MANUFACTURERA S DE RL DE CV,",AFM910500221,0,0,0,"Equipos y articulos electronicos, electricos y domesticos",0,"Plomo (polvos respirables, humos o vapores)",0,kg/año,Ensamble de arneses electricos y/o electronicos,No disponible,Carretera  PRESA LA AMISTAD,No disponible,306011.4933,3247690.1942,26220,2,91,No aplica,Fabricación de equipo eléctrico y electrónico y sus partes para vehículos automotores,No disponible,No disponible,"29°20'36""",CIUDAD ACUÑA,"100°59'53""",0,Acuña,KM. 5.0 , ,PARQUE INDUSTRIAL AMISTAD,336320,"Produccion de aparatos, equipos y/o accesorios electricos y/o electronicos",29.3433333333333,-100.998055555556,1,0,1,1,1,5,1,2,29.3433333333333,-100.998055555556,5_2_2B_7439-92-1_2018
65298ba1bb426186d9049a6c,0,0,0,2018,7439-92-1,19.2,5,0,COAHUILA,,2B,0,"BENDIX CVS DE MEXICO S.A. DE C.V.,BENDIX CVS DE MÉXICO S.A DE C.V.",BCM9L0500211,0,0,0,Automotriz,0,"Plomo (polvos respirables, humos o vapores)",0,kg/año,PRODUCCIÓN DE PARTES PARA EL SISTEMA DE FRENOS AUTOMOTRIZ,No disponible,Carretera  PRESA LA AMISTAD KM6 MAS 500,No disponible,305409.9436,3247812.6207,26220,2,9L,No aplica,Fabricación de partes de sistemas de frenos para vehículos automotrices,No disponible,No disponible,"29°20'39""",CIUDAD ACUÑA,"101°0'15""",0,Acuña,SN ,SN ,PARQUE INDUSTRIAL LA AMISTAD,336340,Produccion de partes para el sistema de frenos automotriz,29.3441666666667,-101.004166666667,1,0,1,1,1,5,1,2,29.3441666666667,-101.004166666667,5_2_2B_7439-92-1_2018
65298ba1bb426186d904a4e2,0,0,0,2018,7440-43-9,0,5,0,COAHUILA,,1,0,"HOWMET DE MÉXICO, S. DE R.L. DE C.V.,",HME8A0500211,0,1.67,0,Otros,0,Cadmio,0,kg/año,"Limpieza de partes metalicas, Elaboracion de moldes de cera y ceramica.",No disponible,Calle CARR. PRESA LA AMISTAD,No disponible,305826.9684,3247631.2964,26220,2,1I,No aplica,Otras industrias manufactureras,No disponible,No disponible,"29°20'34""",CIUDAD ACUÑA,"100°59'59""",0,Acuña,KM. 7.100.5 , ,PARQUE INDUSTRIAL AMISTAD,339999,Maquila de acabado y pintado de piezas metalicas y de otros materiales,29.3427777777778,-100.999722222222,1,0,1,1,1,5,1,2,29.3427777777778,-100.999722222222,5_2_1_7440-43-9_2018
65298ba8bb426186d904f209,0,9.3,0,2014,7439-92-1,0,5,0,COAHUILA,,2B,0,"AEES MANUFACTURERA S DE RL DE CV,",AFM910500221,0,0,0,"Equipos y articulos electronicos, electricos y domesticos",0,"Plomo (polvos respirables, humos o vapores)",0,kg/año,Ensamble de arneses electricos y/o electronicos,No disponible,Carretera  PRESA LA AMISTAD,No disponible,No disponible,No disponible,26220,2,91,No aplica,Fabricación de equipo eléctrico y electrónico y sus partes para vehículos automotores,No disponible,No disponible,"29°20'36""",Ciudad Acuña,"100°59'53""",0,Acuña,KM. 5.0 , ,PARQUE INDUSTRIAL AMISTAD,336320,"Produccion de aparatos, equipos y/o accesorios electricos y/o electronicos",29.3433333333333,-100.998055555556,1,0,1,1,1,5,1,2,29.3433333333333,-100.998055555556,5_2_2B_7439-92-1_2014
65298ba9bb426186d904fb5b,0,3.98,0,2014,7440-02-0,0,5,6240,COAHUILA,,2B,0,"HOWMET DE MÉXICO, S. DE R.L. DE C.V.,",HME8A0500211,0,33810,0,Otros,0,"Níquel (polvos respirables, humos o vapores)",0,kg/año,"Limpieza de partes metalicas, Elaboracion de moldes de cera y ceramica.",No disponible,Calle CARR. PRESA LA AMISTAD,No disponible,No disponible,No disponible,26220,2,1I,No aplica,Recubrimientos y terminados metálicos,No disponible,No disponible,"29°20'34""",Ciudad Acuña,"100°59'59""",0,Acuña,KM. 7.100.5 , ,PARQUE INDUSTRIAL AMISTAD,332810,Maquila de acabado y pintado de piezas metalicas y de otros materiales,29.3427777777778,-100.999722222222,1,0,1,1,1,5,1,2,29.3427777777778,-100.999722222222,5_2_2B_7440-02-0_2014
65298ba9bb426186d904fb5c,0,0,0,2014,7440-43-9,0,5,0,COAHUILA,,1,0,"HOWMET DE MÉXICO, S. DE R.L. DE C.V.,",HME8A0500211,0,1.2,0,Otros,0,Cadmio,0,kg/año,"Limpieza de partes metalicas, Elaboracion de moldes de cera y ceramica.",No disponible,Calle CARR. PRESA LA AMISTAD,No disponible,No disponible,No disponible,26220,2,1I,No aplica,Recubrimientos y terminados metálicos,No disponible,No disponible,"29°20'34""",Ciudad Acuña,"100°59'59""",0,Acuña,KM. 7.100.5 , ,PARQUE INDUSTRIAL AMISTAD,332810,Maquila de acabado y pintado de piezas metalicas y de otros materiales,29.3427777777778,-100.999722222222,1,0,1,1,1,5,1,2,29.3427777777778,-100.999722222222,5_2_1_7440-43-9_2014
65298baabb426186d90508d0,0,29.7,0,2016,7439-92-1,0,5,0,COAHUILA,,2B,0,"ARCONIC FASTENING SYSTEMS & RINGS (MEXICO I), S. DE R.L. DE C.V.,ARCONIC FASTENING SYSTEMS & RINGS (MEXICO I), S. DE R.L. DE C.V",AFS1I0500211,0,0,0,Articulos y productos metalicos,0,"Plomo (polvos respirables, humos o vapores)",0,kg/año,Fabricación de otros productos metálicos,No disponible,Calle HIDALGO,No disponible,306042.336,3247604.5485,26220,2,83,No aplica,"Fabricación de tornillos, tuercas, remaches y similares",No disponible,No disponible,"29°20'33""",Ciudad Acuña,"100°59'51""",0,Acuña,120,No disponible,PARQUE INDUSTRIAL AMISTAD,332720,"Produccion de tornillos, clavos, tuercas y similares",29.3425,-100.9975,1,0,1,1,1,5,1,2,29.3425,-100.9975,5_2_2B_7439-92-1_2016
65298baabb426186d90508d1,0,4.39,0,2016,7440-02-0,0,5,0,COAHUILA,,2B,0,"ARCONIC FASTENING SYSTEMS & RINGS (MEXICO I), S. DE R.L. DE C.V.,ARCONIC FASTENING SYSTEMS & RINGS (MEXICO I), S. DE R.L. DE C.V",AFS1I0500211,0,0,0,Articulos y productos metalicos,0,"Níquel (polvos respirables, humos o vapores)",0,kg/año,Fabricación de otros productos metálicos,No disponible,Calle HIDALGO,No disponible,306042.336,3247604.5485,26220,2,83,No aplica,"Fabricación de tornillos, tuercas, remaches y similares",No disponible,No disponible,"29°20'33""",Ciudad Acuña,"100°59'51""",0,Acuña,120,No disponible,PARQUE INDUSTRIAL AMISTAD,332720,"Produccion de tornillos, clavos, tuercas y similares",29.3425,-100.9975,1,0,1,1,1,5,1,2,29.3425,-100.9975,5_2_2B_7440-02-0_2016
65298babbb426186d9051409,0,0,0,2016,7440-02-0,0,5,7600,COAHUILA,,2B,0,"HOWMET DE MÉXICO, S. DE R.L. DE C.V.,",HME8A0500211,0,34620,0,Otros,0,"Níquel (polvos respirables, humos o vapores)",0,kg/año,"Limpieza de partes metalicas, Elaboracion de moldes de cera y ceramica.",No disponible,Calle CARR. PRESA LA AMISTAD,No disponible,305826.9684,3247631.2964,26220,2,1I,No aplica,Otras industrias manufactureras,No disponible,No disponible,"29°20'34""",Ciudad Acuña,"100°59'59""",0,Acuña,KM. 7.100.5,No disponible,PARQUE INDUSTRIAL AMISTAD,339999,Maquila de acabado y pintado de piezas metalicas y de otros materiales,29.3427777777778,-100.999722222222,1,0,1,1,1,5,1,2,29.3427777777778,-100.999722222222,5_2_2B_7440-02-0_2016
65298badbb426186d9052280,0,9.39,0,2017,7439-92-1,0,5,0.019,COAHUILA,,2B,0,"AEES MANUFACTURERA S DE RL DE CV,",AFM910500221,0,0,0,"Equipos y articulos electronicos, electricos y domesticos",0,"Plomo (polvos respirables, humos o vapores)",0,kg/año,Ensamble de arneses electricos y/o electronicos,No disponible,Carretera  PRESA LA AMISTAD,No disponible,306011.4933,3247690.1942,26220,2,91,No aplica,Fabricación de equipo eléctrico y electrónico y sus partes para vehículos automotores,No disponible,No disponible,"29°20'36""",CIUDAD ACUÑA,"100°59'53""",0,Acuña,KM. 5.0 , ,PARQUE INDUSTRIAL AMISTAD,336320,"Produccion de aparatos, equipos y/o accesorios electricos y/o electronicos",29.3433333333333,-100.998055555556,1,0,1,1,1,5,1,2,29.3433333333333,-100.998055555556,5_2_2B_7439-92-1_2017
65298bafbb426186d9052e49,0,0,0,2017,7440-43-9,0,5,0,COAHUILA,,1,0,"HOWMET DE MÉXICO, S. DE R.L. DE C.V.,",HME8A0500211,0,1.35,0,Otros,0,Cadmio,0,kg/año,"Limpieza de partes metalicas, Elaboracion de moldes de cera y ceramica.",No disponible,Calle CARR. PRESA LA AMISTAD,No disponible,305826.9684,3247631.2964,26220,2,1I,No aplica,Otras industrias manufactureras,No disponible,No disponible,"29°20'34""",CIUDAD ACUÑA,"100°59'59""",0,Acuña,KM. 7.100.5 , ,PARQUE INDUSTRIAL AMISTAD,339999,Maquila de acabado y pintado de piezas metalicas y de otros materiales,29.3427777777778,-100.999722222222,1,0,1,1,1,5,1,2,29.3427777777778,-100.999722222222,5_2_1_7440-43-9_2017
65298bafbb426186d9052e4b,0,0,0,2017,7440-02-0,0,5,5653,COAHUILA,,2B,0,"HOWMET DE MÉXICO, S. DE R.L. DE C.V.,",HME8A0500211,0,49470,0,Otros,0,"Níquel (polvos respirables, humos o vapores)",0,kg/año,"Limpieza de partes metalicas, Elaboracion de moldes de cera y ceramica.",No disponible,Calle CARR. PRESA LA AMISTAD,No disponible,305826.9684,3247631.2964,26220,2,1I,No aplica,Otras industrias manufactureras,No disponible,No disponible,"29°20'34""",CIUDAD ACUÑA,"100°59'59""",0,Acuña,KM. 7.100.5 , ,PARQUE INDUSTRIAL AMISTAD,339999,Maquila de acabado y pintado de piezas metalicas y de otros materiales,29.3427777777778,-100.999722222222,1,0,1,1,1,5,1,2,29.3427777777778,-100.999722222222,5_2_2B_7440-02-0_2017
65298bb1bb426186d9054706,0.005,0,0,2005,7440-38-2,0,5,0,COAHUILA,,1,0,EQUIPOS DE ACUÑA S.A. DE C.V.,EAC8E0500211,0,0,0,Metalurgica (incluye la siderurgica),0,Arsénico,0,kg/año,FABRICACION ENSAMBLE Y REPARACION DE EQUIPO INDUSTRIAL,Fabricacion y ensamble de maquinaria y equipo para diversos usos industriales,CARRETERA PRESA LA AMISTAD,PARQUE INDUSTRIAL MODELO,0,0,26220,2,No disponible,No aplica,No disponible,No disponible,No disponible,"29°20'26""",CIUDAD ACUÑA,"101°1'56""",0,Acuña,KM. 8.5,No disponible,PARQUE INDUSTRIAL MODELO,No disponible,No disponible,29.3405555555556,-101.032222222222,1,0,1,1,1,5,1,2,29.3405555555556,-101.032222222222,5_2_1_7440-38-2_2005
65298bb1bb426186d9054707,0.00077397,0,0,2005,7440-43-9,0,5,0,COAHUILA,,1,0,EQUIPOS DE ACUÑA S.A. DE C.V.,EAC8E0500211,0,0,0,Metalurgica (incluye la siderurgica),0,Cadmio,0,kg/año,FABRICACION ENSAMBLE Y REPARACION DE EQUIPO INDUSTRIAL,Fabricacion y ensamble de maquinaria y equipo para diversos usos industriales,CARRETERA PRESA LA AMISTAD,PARQUE INDUSTRIAL MODELO,0,0,26220,2,No disponible,No aplica,No disponible,No disponible,No disponible,"29°20'26""",CIUDAD ACUÑA,"101°1'56""",0,Acuña,KM. 8.5,No disponible,PARQUE INDUSTRIAL MODELO,No disponible,No disponible,29.3405555555556,-101.032222222222,1,0,1,1,1,5,1,2,29.3405555555556,-101.032222222222,5_2_1_7440-43-9_2005
65298bb3bb426186d9055949,0.000001,0,0,2005,7440-43-9,0,5,0,COAHUILA,,1,0,PISTAS DE PRUEBAS AMISTAD S.A. DE C.V.,PPAKE0500211,0,0,0,Otros,0,Cadmio,0,kg/año,PRUEBA Y EVALUACION DE LLANTAS NUEVAS,Reparacion y mantenimiento automotriz,CARRETERA PRESA LA AMISTAD KM. 14.6,PARQUE INDUSTRIAL,3250033,14297928,26230,2,No disponible,No aplica,No disponible,No disponible,No disponible,29.36065,ACUÑA,-101.08355,0,Acuña,14.6,No disponible,No disponible,No disponible,No disponible,29.36065,-101.08355,0,0,1,1,1,5,1,2,29.36065,-101.08355,5_2_1_7440-43-9_2005
65298bb3bb426186d905594a,1e-7,0,0,2005,7440-38-2,0,5,0,COAHUILA,,1,0,PISTAS DE PRUEBAS AMISTAD S.A. DE C.V.,PPAKE0500211,0,0,0,Otros,0,Arsénico,0,kg/año,PRUEBA Y EVALUACION DE LLANTAS NUEVAS,Reparacion y mantenimiento automotriz,CARRETERA PRESA LA AMISTAD KM. 14.6,PARQUE INDUSTRIAL,3250033,14297928,26230,2,No disponible,No aplica,No disponible,No disponible,No disponible,29.36065,ACUÑA,-101.08355,0,Acuña,14.6,No disponible,No disponible,No disponible,No disponible,29.36065,-101.08355,0,0,1,1,1,5,1,2,29.36065,-101.08355,5_2_1_7440-38-2_2005
65298bb4bb426186d9057017,0.000004830151,0,0,2007,7440-38-2,0,5,0,COAHUILA,,1,0,"Equipos de AcuDa, S.A. de C.V.",EAC8E0500211,0,0,0,Metalurgica (incluye la siderurgica),0,Arsénico,0,kg/año,"Fabricación, ensamble y reparación de equipo industrial.",No disponible,Carretera Presa La Amistad,Parque Industrial Modelo,No disponible,No disponible,26220,2,LK,No aplica,Fabricación de otra maquinaria y equipo para la industria en general.,No disponible,No disponible,"29°20'26""",Cd. AcuDa,"101°1'56""",0,Acuña,km 8.5,No disponible,PARQUE INDUSTRIAL MODELO,333999,Fabricacion y ensamble de maquinaria y equipo para diversos usos industriales,29.3405555555556,-101.032222222222,1,0,1,1,1,5,1,2,29.3405555555556,-101.032222222222,5_2_1_7440-38-2_2007
65298bb4bb426186d9057019,0.000009660301,0,0,2007,7440-43-9,0,5,0,COAHUILA,,1,0,"Equipos de AcuDa, S.A. de C.V.",EAC8E0500211,0,0,0,Metalurgica (incluye la siderurgica),0,Cadmio,0,kg/año,"Fabricación, ensamble y reparación de equipo industrial.",No disponible,Carretera Presa La Amistad,Parque Industrial Modelo,No disponible,No disponible,26220,2,LK,No aplica,Fabricación de otra maquinaria y equipo para la industria en general.,No disponible,No disponible,"29°20'26""",Cd. AcuDa,"101°1'56""",0,Acuña,km 8.5,No disponible,PARQUE INDUSTRIAL MODELO,333999,Fabricacion y ensamble de maquinaria y equipo para diversos usos industriales,29.3405555555556,-101.032222222222,1,0,1,1,1,5,1,2,29.3405555555556,-101.032222222222,5_2_1_7440-43-9_2007
65298bb7bb426186d9058b78,0.000781136,0,0,2007,7440-38-2,0,5,0,COAHUILA,,1,0,"TOTER DE MEXICO, S DE R.L. DE C.V.",TME6E0500211,0,0,0,Articulos y productos plasticos,0,Arsénico,0,kg/año,FABRICACION DE PRODUCTOS PLASTICOS,No disponible,BLV. INTERNACIONAL,PARQUE INTERNACIONAL,No disponible,No disponible,26269,2,6E,No aplica,Fabricación de otros productos de plástico sin reforzamiento.,No disponible,No disponible,"29°16'34""",ACUNA,"100°54'26""",0,Acuña,SN,15,PARQUE INDUSTRIAL INTERNACIONAL,326199,Fabricacion de productos y articulos de plastico,29.2761111111111,-100.907222222222,1,0,1,1,1,5,1,2,29.2761111111111,-100.907222222222,5_2_1_7440-38-2_2007
65298bb7bb426186d9058b7a,0.000390568,0,0,2007,7440-43-9,0,5,0,COAHUILA,,1,0,"TOTER DE MEXICO, S DE R.L. DE C.V.",TME6E0500211,0,0,0,Articulos y productos plasticos,0,Cadmio,0,kg/año,FABRICACION DE PRODUCTOS PLASTICOS,No disponible,BLV. INTERNACIONAL,PARQUE INTERNACIONAL,No disponible,No disponible,26269,2,6E,No aplica,Fabricación de otros productos de plástico sin reforzamiento.,No disponible,No disponible,"29°16'34""",ACUNA,"100°54'26""",0,Acuña,SN,15,PARQUE INDUSTRIAL INTERNACIONAL,326199,Fabricacion de productos y articulos de plastico,29.2761111111111,-100.907222222222,1,0,1,1,1,5,1,2,29.2761111111111,-100.907222222222,5_2_1_7440-43-9_2007
65298bbabb426186d905b764,0,0,0,2010,7440-43-9,0,5,36,COAHUILA,,1,0,"TOTER DE MEXICO, S DE R.L. DE C.V.",TME6E0500211,0,0,0,Articulos y productos plasticos,0,Cadmio,0,kg/año,FABRICACION DE PRODUCTOS PLASTICOS,No disponible,BLV. INTERNACIONAL,PARQUE INTERNACIONAL,No disponible,No disponible,26269,2,6E,No aplica,Fabricación de otros productos de plástico sin reforzamiento.,No disponible,No disponible,"29°16'34""",ACUNA,"100°54'26""",0,Acuña,SN,15,PARQUE INDUSTRIAL INTERNACIONAL,326199,Fabricacion de productos y articulos de plastico,29.2761111111111,-100.907222222222,1,0,1,1,1,5,1,2,29.2761111111111,-100.907222222222,5_2_1_7440-43-9_2010
65298bbdbb426186d905e10d,0,8.02,0,2020,7439-92-1,0,5,0.135,COAHUILA,,2B,0,"AEES MANUFACTURERA S DE RL DE CV,",AFM910500221,0,0,0,"Equipos y articulos electronicos, electricos y domesticos",0,"Plomo (polvos respirables, humos o vapores)",0,kg/año,Ensamble de arneses electricos y/o electronicos,No disponible,Carretera  PRESA LA AMISTAD,No disponible,306011.4933,3247690.1942,26220,2,91,No aplica,Fabricación de equipo eléctrico y electrónico y sus partes para vehículos automotores,No disponible,No disponible,"29°20'36""",CIUDAD ACUÑA,"100°59'53""",0,Acuña,KM. 5.0 , ,PARQUE INDUSTRIAL AMISTAD,336320,"Produccion de aparatos, equipos y/o accesorios electricos y/o electronicos",29.3433333333333,-100.998055555556,1,0,1,1,1,5,1,2,29.3433333333333,-100.998055555556,5_2_2B_7439-92-1_2020
65298bbfbb426186d905edfd,0,0,0,2020,7440-43-9,0,5,0,COAHUILA,,1,0,"HOWMET DE MÉXICO, S. DE R.L. DE C.V.,",HME8A0500211,0,1.018,0,Otros,0,Cadmio,0,kg/año,"Limpieza de partes metalicas, Elaboracion de moldes de cera y ceramica, maquinado de pieza",No disponible,Calle CARR. PRESA LA AMISTAD,No disponible,305826.9684,3247631.2964,26220,2,1I,No aplica,Recubrimientos y terminados metálicos,No disponible,No disponible,"29°20'34""",CIUDAD ACUÑA,"100°59'59""",0,Acuña,KM. 7.100.5 , ,PARQUE INDUSTRIAL AMISTAD,332810,Maquila de acabado y pintado de piezas metalicas y de otros materiales,29.3427777777778,-100.999722222222,1,0,1,1,1,5,1,2,29.3427777777778,-100.999722222222,5_2_1_7440-43-9_2020
65298bbfbb426186d905ee01,0,1.73,0,2020,7439-92-1,0,5,0,COAHUILA,,2B,0,"HOWMET FASTENING SYSTEMS MEXICO I, S. DE R.L. DE C.V.,HOWMET FASTENING SYSTEMS MEXICO I, S. DE R.L. DE C.V",AFS1I0500211,0,0,0,Articulos y productos metalicos,0,"Plomo (polvos respirables, humos o vapores)",0,kg/año,Fabricación de otros productos metálicos,No disponible,Calle HIDALGO,No disponible,306042.336,3247604.5485,26220,2,83,No aplica,"Fabricación de tornillos, tuercas, remaches y similares",No disponible,No disponible,"29°20'33""",CIUDAD ACUÑA,"100°59'51""",0,Acuña,120, ,PARQUE INDUSTRIAL AMISTAD,332720,"Produccion de tornillos, clavos, tuercas y similares",29.3425,-100.9975,1,0,1,1,1,5,1,2,29.3425,-100.9975,5_2_2B_7439-92-1_2020
65298bc0bb426186d905fd2a,0.0000194,0,0,2004,7440-38-2,0,5,0,COAHUILA,,1,0,Alcoa Fujikura de México S. de R.L. de C.V. Planta Soporte ASP,AFM910500216,0,0,0,"Equipos y articulos electronicos, electricos y domesticos",0,Arsénico,0,kg/año,Producción de aparatos equipos y o accesorios eléctricos y o electrónicos,"Produccion de aparatos, equipos y/o accesorios electricos y/o electronicos",Car. Presa La Amistad,Parque Industrial,0,0,26220,2,No disponible,No aplica,No disponible,No disponible,No disponible,"29°20'23""",ACUNA,"100°59'7""",0,Acuña,km. 4.5,No disponible,Parque Industrial Amistad,No disponible,No disponible,29.3397222222222,-100.985277777778,1,0,1,1,1,5,1,2,29.3397222222222,-100.985277777778,5_2_1_7440-38-2_2004
65298bc0bb426186d905fd2f,1.06e-7,0,0,2004,7440-38-2,0,5,0,COAHUILA,,1,0,Alcoa Fujikura de México S. de R.L de C.V.,AFMRP0500261,0,0,0,"Equipos y articulos electronicos, electricos y domesticos",0,Arsénico,0,kg/año,Producción de Aparatos Equipos y o accesorios electricos y o electronicos,"Produccion de aparatos, equipos y/o accesorios electricos y/o electronicos",Carretera Presa la Amistad,Sin Nombre,0,0,26220,2,No disponible,No aplica,No disponible,Sin Nombre,Sin Nombre,"29°20'29""",Acuña,"-100°59'8""",0,Acuña,Km5,No disponible,Parque Industrial Amistad,No disponible,No disponible,29.3413888888889,-99.0144444444444,1,0,1,0,0,0,0,0,29.3232963,-100.9514187,5_2_1_7440-38-2_2004
65298bc0bb426186d90603de,0.00000110206,0,0,2004,7440-38-2,0,5,0,COAHUILA,,1,0,Fabricas Elena S. de R.L. de C.V.,FELRP0500211,0,0,0,Articulos y productos compuestos de diferentes materiales,0,Arsénico,0,kg/año,Fabricacion y elaboracion de persianas de aluminio,Produccion de persianas,Carretera Presa La Amistad,No disponible,0,0,26220,2,No disponible,No aplica,No disponible,No disponible,No disponible,"29°20'21""",No disponible,"-100°59'44""",0,Acuña,Km. 7.5,No disponible,Parque Industrial La Paz,No disponible,No disponible,29.3391666666667,-99.0044444444444,1,0,1,0,0,0,0,0,29.3232963,-100.9514187,5_2_1_7440-38-2_2004
65298bc1bb426186d9060c97,1e-7,0,0,2004,7440-38-2,0,5,0,COAHUILA,,1,0,PISTAS DE PRUEBAS AMISTAD S.A. DE C.V.,PPAKE0500211,0,0,0,Otros,0,Arsénico,0,kg/año,PRUEBA Y EVALUACION DE LLANTAS NUEVAS,Reparacion y mantenimiento automotriz,CARRETERA PRESA LA AMISTAD KM. 14.6,PARQUE INDUSTRIAL,3250033,14297928,26230,2,No disponible,No aplica,No disponible,No disponible,No disponible,29.36065,ACUÑA,-101.08355,0,Acuña,14.6,No disponible,No disponible,No disponible,No disponible,29.36065,-101.08355,0,0,1,1,1,5,1,2,29.36065,-101.08355,5_2_1_7440-38-2_2004
65298bc1bb426186d9061232,0,2.335,0,2019,7439-92-1,0,5,0.0795,COAHUILA,,2B,0,"AEES MANUFACTURERA S DE RL DE CV,",AFM910500221,0,0,0,"Equipos y articulos electronicos, electricos y domesticos",0,"Plomo (polvos respirables, humos o vapores)",0,kg/año,Ensamble de arneses electricos y/o electronicos,No disponible,Carretera  PRESA LA AMISTAD,No disponible,306011.4933,3247690.1942,26220,2,91,No aplica,Fabricación de equipo eléctrico y electrónico y sus partes para vehículos automotores,No disponible,No disponible,"29°20'36""",CIUDAD ACUÑA,"100°59'53""",0,Acuña,KM. 5.0 , ,PARQUE INDUSTRIAL AMISTAD,336320,"Produccion de aparatos, equipos y/o accesorios electricos y/o electronicos",29.3433333333333,-100.998055555556,1,0,1,1,1,5,1,2,29.3433333333333,-100.998055555556,5_2_2B_7439-92-1_2019
65298bc2bb426186d906148a,0,0,0,2019,7439-92-1,0,5,115.8,COAHUILA,,2B,0,"BENDIX CVS DE MÉXICO, S.A. DE C.V.,",BCM9L0500212,0,0,0,Automotriz,0,"Plomo (polvos respirables, humos o vapores)",0,kg/año,FABRICACIÓN DE PARTES PARA SISTEMAS DE FRENOS PARA VEHÍCULOS AUTOMOTRICES,No disponible,Carretera  PRESA LA AMISTAD KM 6.5,No disponible,306742.7471,3247342.4143,26220,2,9L,No aplica,Fabricación de partes de sistemas de frenos para vehículos automotrices,No disponible,No disponible,"29°20'25""",CIUDAD ACUÑA,"100°59'25""",0,Acuña,KM 6.5 , ,PARQUE INDUSTRIAL LA AMISTAD,336340,Produccion de partes para el sistema de frenos automotriz,29.3402777777778,-100.990277777778,1,0,1,1,1,5,1,2,29.3402777777778,-100.990277777778,5_2_2B_7439-92-1_2019
65298bc2bb426186d906148b,0,0,0,2019,7439-92-1,0,5,80.4,COAHUILA,,2B,0,"BENDIX CVS DE MÉXICO, S.A. DE C.V.,BENDIX CVS DE MÉXICO, S.A DE C.V.",BCM9L0500211,0,0,0,Automotriz,0,"Plomo (polvos respirables, humos o vapores)",0,kg/año,FABRICACIÓN DE PARTES DE SISTEMAS DE FRENOS PARA VEHÍCULOS AUTOMOTRICES,No disponible,Carretera  PRESA LA AMISTAD KM 6.94,No disponible,305409.9436,3247812.6207,26220,2,9L,No aplica,Fabricación de partes de sistemas de frenos para vehículos automotrices,No disponible,No disponible,"29°20'39""",CIUDAD ACUÑA,"101°0'15""",0,Acuña,SN ,SN ,PARQUE INDUSTRIAL LA AMISTAD,336340,Produccion de partes para el sistema de frenos automotriz,29.3441666666667,-101.004166666667,1,0,1,1,1,5,1,2,29.3441666666667,-101.004166666667,5_2_2B_7439-92-1_2019
65298bc2bb426186d9061f2c,0,0,0,2019,7440-43-9,0,5,0,COAHUILA,,1,0,"HOWMET DE MÉXICO, S. DE R.L. DE C.V.,",HME8A0500211,0,1.77,0,Quimica,0,Cadmio,0,kg/año,"Limpieza de partes metalicas, Elaboracion de moldes de cera y ceramica, maquinado de pieza",No disponible,Calle CARR. PRESA LA AMISTAD,No disponible,305826.9684,3247631.2964,26220,2,1I,No aplica,Otras industrias manufactureras,No disponible,No disponible,"29°20'34""",CIUDAD ACUÑA,"100°59'59""",0,Acuña,KM. 7.100.5 , ,PARQUE INDUSTRIAL AMISTAD,339999,Maquila de acabado y pintado de piezas metalicas y de otros materiales,29.3427777777778,-100.999722222222,1,0,1,1,1,5,1,2,29.3427777777778,-100.999722222222,5_2_1_7440-43-9_2019
65298bc8bb426186d9066f23,0,5.3,0,2015,7439-92-1,0,5,0,COAHUILA,,2B,0,"AEES MANUFACTURERA S DE RL DE CV,",AFM910500221,0,0,0,"Equipos y articulos electronicos, electricos y domesticos",0,"Plomo (polvos respirables, humos o vapores)",0,kg/año,Ensamble de arneses electricos y/o electronicos,No disponible,Carretera  PRESA LA AMISTAD,No disponible,306011.4933,3247690.1942,26220,2,91,No aplica,Fabricación de equipo eléctrico y electrónico y sus partes para vehículos automotores,No disponible,No disponible,"29°20'36""",Ciudad Acuña,"100°59'53""",0,Acuña,KM. 5.0,No disponible,PARQUE INDUSTRIAL AMISTAD,336320,"Produccion de aparatos, equipos y/o accesorios electricos y/o electronicos",29.3433333333333,-100.998055555556,1,0,1,1,1,5,1,2,29.3433333333333,-100.998055555556,5_2_2B_7439-92-1_2015
65298bc9bb426186d90679d1,0,0,0,2015,7440-43-9,0,5,0,COAHUILA,,1,0,"HOWMET DE MÉXICO, S. DE R.L. DE C.V.,",HME8A0500211,0,1.04,0,Otros,0,Cadmio,0,kg/año,"Limpieza de partes metalicas, Elaboracion de moldes de cera y ceramica.",No disponible,Calle CARR. PRESA LA AMISTAD,No disponible,305826.9684,3247631.2964,26220,2,1I,No aplica,Recubrimientos y terminados metálicos,No disponible,No disponible,"29°20'34""",Ciudad Acuña,"100°59'59""",0,Acuña,KM. 7.100.5,No disponible,PARQUE INDUSTRIAL AMISTAD,332810,Maquila de acabado y pintado de piezas metalicas y de otros materiales,29.3427777777778,-100.999722222222,1,0,1,1,1,5,1,2,29.3427777777778,-100.999722222222,5_2_1_7440-43-9_2015
65298bc9bb426186d90679d4,0,0,0,2015,7440-02-0,0,5,5190,COAHUILA,,2B,0,"HOWMET DE MÉXICO, S. DE R.L. DE C.V.,",HME8A0500211,0,31500,0,Otros,0,"Níquel (polvos respirables, humos o vapores)",0,kg/año,"Limpieza de partes metalicas, Elaboracion de moldes de cera y ceramica.",No disponible,Calle CARR. PRESA LA AMISTAD,No disponible,305826.9684,3247631.2964,26220,2,1I,No aplica,Recubrimientos y terminados metálicos,No disponible,No disponible,"29°20'34""",Ciudad Acuña,"100°59'59""",0,Acuña,KM. 7.100.5,No disponible,PARQUE INDUSTRIAL AMISTAD,332810,Maquila de acabado y pintado de piezas metalicas y de otros materiales,29.3427777777778,-100.999722222222,1,0,1,1,1,5,1,2,29.3427777777778,-100.999722222222,5_2_2B_7440-02-0_2015
65298bcabb426186d9069446,0.017175,0,0,2006,7440-38-2,0,5,0,COAHUILA,,1,0,"Equipos de AcuDa, S.A. de C.V.",EAC8E0500211,0,0,0,Metalurgica (incluye la siderurgica),0,Arsénico,0,kg/año,"Fabricación, ensamble y reparación de equipo industrial.",No disponible,Carretera Presa La Amistad,Parque Industrial Modelo,No disponible,No disponible,26220,2,LK,No aplica,Fabricación de otra maquinaria y equipo para la industria en general,No disponible,No disponible,"29°20'26""",Cd. AcuDa,"101°1'56""",0,Acuña,km 8.5,No disponible,PARQUE INDUSTRIAL MODELO,333999,Fabricacion y ensamble de maquinaria y equipo para diversos usos industriales,29.3405555555556,-101.032222222222,1,0,1,1,1,5,1,2,29.3405555555556,-101.032222222222,5_2_1_7440-38-2_2006
65298bcabb426186d9069447,0.003435,0,0,2006,7440-43-9,0,5,0,COAHUILA,,1,0,"Equipos de AcuDa, S.A. de C.V.",EAC8E0500211,0,0,0,Metalurgica (incluye la siderurgica),0,Cadmio,0,kg/año,"Fabricación, ensamble y reparación de equipo industrial.",No disponible,Carretera Presa La Amistad,Parque Industrial Modelo,No disponible,No disponible,26220,2,LK,No aplica,Fabricación de otra maquinaria y equipo para la industria en general,No disponible,No disponible,"29°20'26""",Cd. AcuDa,"101°1'56""",0,Acuña,km 8.5,No disponible,PARQUE INDUSTRIAL MODELO,333999,Fabricacion y ensamble de maquinaria y equipo para diversos usos industriales,29.3405555555556,-101.032222222222,1,0,1,1,1,5,1,2,29.3405555555556,-101.032222222222,5_2_1_7440-43-9_2006
65298bcebb426186d906b516,0,0,0.01,2012,7440-38-2,0,5,0,COAHUILA,Metales,1,0,AEES MANUFACTURERA S DE R.L. DE C.V.,AFM910500221,0,0,0,"Equipos y articulos electronicos, electricos y domesticos",0,Arsénico,0,kg/año,Procesos de ensamble de arneses electricos y electronicos,No disponible,Carretera Presa la Amistad Km. 4.5 y 5.0,Parque Industrial Amistad,No disponible,No disponible,26220,2,91,No aplica,Fabricación de equipo eléctrico y electrónico y sus partes para vehículos automotores.,No disponible,No disponible,"29°20'59""",Cd. Acuña,"100°59'26""",0,Acuña,No disponible,No disponible,Parque Industrial Amistad,336320,No disponible,29.3497222222222,-100.990555555556,1,0,1,1,1,5,1,2,29.3497222222222,-100.990555555556,5_2_1_7440-38-2_2012
65298bcebb426186d906b523,0,36.79,0,2012,7440-43-9,0,5,0,COAHUILA,Metales,1,0,ALCOA FASTENING SYSTEMS MEXICO I S DE RL DE CV,AFS1I0500211,0,0,0,Articulos y productos metalicos,0,Cadmio,0,kg/año,MAQUILADO DE PIEZAS METALICAS,No disponible,HIDALGO,PARQUE INDUSTRIAL,No disponible,No disponible,26220,2,7X,No aplica,Fabricación de otros productos metálicos.,CARRETERA PRESA AMISTAD,MEXICO,"29°20'34""",Acuna,"100°59'51""",0,Acuña,120,23,PARQUE INDUSTRIAL AMISTAD,332999,No disponible,29.3427777777778,-100.9975,1,0,1,1,1,5,1,2,29.3427777777778,-100.9975,5_2_1_7440-43-9_2012
65298bd0bb426186d906de3e,0,0,0,2012,7440-38-2,0,5,0,COAHUILA,Metales,1,0,PISTA DE PRUEBAS AMISTAD S.A. DE C.V.,PPAKE0500211,0,0,0,Otros,0.015525,Arsénico,0,kg/año,PRUEBA Y EVALUACION DE LLANTAS NUEVAS,No disponible,CARRETERA PRESA LA AMISTAD KM. 14.6,PARQUE INDUSTRIAL,No disponible,No disponible,26230,2,TS,No aplica,Laboratorios de pruebas.,Carretera Presa la  Amistad,N/D,"29°21'48""",ACUÑA,"101°4'54""",0,Acuña,KM. 14.6,No disponible,No disponible,541380,No disponible,29.3633333333333,-101.081666666667,1,0,1,1,1,5,1,2,29.3633333333333,-101.081666666667,5_2_1_7440-38-2_2012
65298bd0bb426186d906de3f,0,0,0,2012,7440-43-9,0,5,0,COAHUILA,Metales,1,0,PISTA DE PRUEBAS AMISTAD S.A. DE C.V.,PPAKE0500211,0,0,0,Otros,0.46575,Cadmio,0,kg/año,PRUEBA Y EVALUACION DE LLANTAS NUEVAS,No disponible,CARRETERA PRESA LA AMISTAD KM. 14.6,PARQUE INDUSTRIAL,No disponible,No disponible,26230,2,TS,No aplica,Laboratorios de pruebas.,Carretera Presa la  Amistad,N/D,"29°21'48""",ACUÑA,"101°4'54""",0,Acuña,KM. 14.6,No disponible,No disponible,541380,No disponible,29.3633333333333,-101.081666666667,1,0,1,1,1,5,1,2,29.3633333333333,-101.081666666667,5_2_1_7440-43-9_2012
65298ba7bb426186d904e7b7,0,0,0,2021,1336-36-3,0,5,0.09397091444,COAHUILA,,1,0,"MATERIAS PRIMAS MONTERREY, S. DE R.L. DE C.V.,MATERIAS PRIMAS MONTERREY, S. DE R. L. DE C. V. (PLANTA CANOITAS)",MPM0501300002,0,0,0,Metalurgica (incluye la siderurgica),0,Bifenilos policlorados,0,kg/año,"EXTRACCIÓN, BENEFICIO Y COMERCIALIZACIÓN DE ARENA SILICA",No disponible,Carretera CARR. N. LAREDO-P.NEGRAS KM.87.5,Rancho Canoitas,393025.1281,3104100.9947,26670,13,MK,No aplica,Minería de sílice,No disponible,No disponible,"28°3'28""",Hidalgo,"100°5'18""",0,Hidalgo,S/N ,S/N ,No disponible,212324,Mineria de otros minerales metalicos no ferrosos,28.0577777777778,-100.088333333333,1,0,1,1,1,5,1,13,28.0577777777778,-100.088333333333,5_13_1_1336-36-3_2021
65298b9ebb426186d904704c,1.214504,0,0,2011,7440-43-9,0,5,0,COAHUILA,,1,0,"COMPAÑÍA CERVECERA DE COAHUILA, S.A. DE C.V.",CCO300502211,0,0,0,Bebidas y tabaco,0,Cadmio,0,kg/año,FABRICACION Y VENTA DE CERVEZA,No disponible,CARR. 57 KM 233 MÁS 200,No disponible,No disponible,No disponible,26170,22,30,No aplica,Elaboración de cerveza,No disponible,No disponible,"28°34'49""",RIO ESCONDIDO,"100°36'3""",0,Nava,85,No disponible,"CORREDOR INDUSTRIAL, COMERCIAL Y DE SERVICIOS",312120,Produccion de bebidas alcoholicas a base de fermentacion y/o destilacion,28.5802777777778,-100.600833333333,1,0,1,1,1,5,1,22,28.5802777777778,-100.600833333333,5_22_1_7440-43-9_2011
65298b9ebb426186d9047052,2.631426,0,0,2011,7440-38-2,0,5,0,COAHUILA,,1,0,"COMPAÑÍA CERVECERA DE COAHUILA, S.A. DE C.V.",CCO300502211,0,0,0,Bebidas y tabaco,0,Arsénico,0,kg/año,FABRICACION Y VENTA DE CERVEZA,No disponible,CARR. 57 KM 233 MÁS 200,No disponible,No disponible,No disponible,26170,22,30,No aplica,Elaboración de cerveza,No disponible,No disponible,"28°34'49""",RIO ESCONDIDO,"100°36'3""",0,Nava,85,No disponible,"CORREDOR INDUSTRIAL, COMERCIAL Y DE SERVICIOS",312120,Produccion de bebidas alcoholicas a base de fermentacion y/o destilacion,28.5802777777778,-100.600833333333,1,0,1,1,1,5,1,22,28.5802777777778,-100.600833333333,5_22_1_7440-38-2_2011
65298b9ebb426186d904710c,18,0,0,2011,7440-38-2,0,5,0,COAHUILA,,1,0,CFE C.T. CARBON II,CFEAD0502221,0,0,0,Generación de energía eléctrica,0,Arsénico,0,kg/año,GENERACIÓN Y TRANSMISIÓN DE ENERGÍA ELÉCTRICA (SÓLO GENERACIÓN; INCLUYE LAS INSTALACIONES,No disponible,CARR. 57 KM 31.5 TRAMO P. NEG. MONCLOVA,N.A.,No disponible,No disponible,26170,22,AD,No aplica,"Generación, transmisión y distribución de energía eléctrica",No disponible,No disponible,"28°27'42""",NAVA,"100°42'10""",0,Nava,N.A.,N.A.,AREA DESPOBLADA,221110,Generacion y transmision de energia electrica,28.4616666666667,-100.702777777778,1,0,1,1,1,5,1,22,28.4616666666667,-100.702777777778,5_22_1_7440-38-2_2011
65298ba1bb426186d9049da7,0,699.75,0,2018,7440-38-2,0,5,0,COAHUILA,,1,0,"CFE GENERACIÓN VI,CFE GENERACIÓN VI CENTRAL TERMOELÉCTRICA JOSÉ LÓPEZ PORTILLO",CGV0502200023,0,0,0,Generación de energía eléctrica,0,Arsénico,0,kg/año,GENERACIÓN DE ENERGÍA ELÉCTRICA,No disponible,Carretera  FEDERAL 57 KM 27.5,No disponible,334387.8057,3152258.7753,26170,22,AD,No aplica,"Generación, transmisión y distribución de energía eléctrica",No disponible,No disponible,"28°29'11""",NAVA,"100°41'30""",0,Nava,S/N , ,NAVA ,221110,Generacion y transmision de energia electrica,28.4863888888889,-100.691666666667,1,0,1,1,1,5,1,22,28.4863888888889,-100.691666666667,5_22_1_7440-38-2_2018
65298ba1bb426186d9049da9,0,2218.74,0,2018,71-43-2,0,5,0,COAHUILA,,1,0,"CFE GENERACIÓN VI,CFE GENERACIÓN VI CENTRAL TERMOELÉCTRICA JOSÉ LÓPEZ PORTILLO",CGV0502200023,0,0,0,Generación de energía eléctrica,0,Benceno,0,kg/año,GENERACIÓN DE ENERGÍA ELÉCTRICA,No disponible,Carretera  FEDERAL 57 KM 27.5,No disponible,334387.8057,3152258.7753,26170,22,AD,No aplica,"Generación, transmisión y distribución de energía eléctrica",No disponible,No disponible,"28°29'11""",NAVA,"100°41'30""",0,Nava,S/N , ,NAVA ,221110,Generacion y transmision de energia electrica,28.4863888888889,-100.691666666667,1,0,1,1,1,5,1,22,28.4863888888889,-100.691666666667,5_22_1_71-43-2_2018
65298ba1bb426186d9049daa,0,87.04,0,2018,7440-43-9,0,5,0,COAHUILA,,1,0,"CFE GENERACIÓN VI,CFE GENERACIÓN VI CENTRAL TERMOELÉCTRICA JOSÉ LÓPEZ PORTILLO",CGV0502200023,0,0,0,Generación de energía eléctrica,0,Cadmio,0,kg/año,GENERACIÓN DE ENERGÍA ELÉCTRICA,No disponible,Carretera  FEDERAL 57 KM 27.5,No disponible,334387.8057,3152258.7753,26170,22,AD,No aplica,"Generación, transmisión y distribución de energía eléctrica",No disponible,No disponible,"28°29'11""",NAVA,"100°41'30""",0,Nava,S/N , ,NAVA ,221110,Generacion y transmision de energia electrica,28.4863888888889,-100.691666666667,1,0,1,1,1,5,1,22,28.4863888888889,-100.691666666667,5_22_1_7440-43-9_2018
65298ba1bb426186d9049dab,0,409.61,0,2018,50-00-0,0,5,0,COAHUILA,,1,0,"CFE GENERACIÓN VI,CFE GENERACIÓN VI CENTRAL TERMOELÉCTRICA JOSÉ LÓPEZ PORTILLO",CGV0502200023,0,0,0,Generación de energía eléctrica,0,Formaldehido,0,kg/año,GENERACIÓN DE ENERGÍA ELÉCTRICA,No disponible,Carretera  FEDERAL 57 KM 27.5,No disponible,334387.8057,3152258.7753,26170,22,AD,No aplica,"Generación, transmisión y distribución de energía eléctrica",No disponible,No disponible,"28°29'11""",NAVA,"100°41'30""",0,Nava,S/N , ,NAVA ,221110,Generacion y transmision de energia electrica,28.4863888888889,-100.691666666667,1,0,1,1,1,5,1,22,28.4863888888889,-100.691666666667,5_22_1_50-00-0_2018
65298ba1bb426186d9049dae,0,477.88,0,2018,7440-02-0,0,5,0,COAHUILA,,2B,0,"CFE GENERACIÓN VI,CFE GENERACIÓN VI CENTRAL TERMOELÉCTRICA JOSÉ LÓPEZ PORTILLO",CGV0502200023,0,0,0,Generación de energía eléctrica,0,"Níquel (polvos respirables, humos o vapores)",0,kg/año,GENERACIÓN DE ENERGÍA ELÉCTRICA,No disponible,Carretera  FEDERAL 57 KM 27.5,No disponible,334387.8057,3152258.7753,26170,22,AD,No aplica,"Generación, transmisión y distribución de energía eléctrica",No disponible,No disponible,"28°29'11""",NAVA,"100°41'30""",0,Nava,S/N , ,NAVA ,221110,Generacion y transmision de energia electrica,28.4863888888889,-100.691666666667,1,0,1,1,1,5,1,22,28.4863888888889,-100.691666666667,5_22_2B_7440-02-0_2018
65298ba1bb426186d9049daf,0,716.82,0,2018,7439-92-1,0,5,0,COAHUILA,,2B,0,"CFE GENERACIÓN VI,CFE GENERACIÓN VI CENTRAL TERMOELÉCTRICA JOSÉ LÓPEZ PORTILLO",CGV0502200023,0,0,0,Generación de energía eléctrica,0,"Plomo (polvos respirables, humos o vapores)",0,kg/año,GENERACIÓN DE ENERGÍA ELÉCTRICA,No disponible,Carretera  FEDERAL 57 KM 27.5,No disponible,334387.8057,3152258.7753,26170,22,AD,No aplica,"Generación, transmisión y distribución de energía eléctrica",No disponible,No disponible,"28°29'11""",NAVA,"100°41'30""",0,Nava,S/N , ,NAVA ,221110,Generacion y transmision de energia electrica,28.4863888888889,-100.691666666667,1,0,1,1,1,5,1,22,28.4863888888889,-100.691666666667,5_22_2B_7439-92-1_2018
65298ba3bb426186d904b926,0.9420702,0,0,2008,7440-38-2,0,5,0,COAHUILA,,1,0,CENTRAL TERMOELECTRICA JOSE LOPEZ PORTILLO,CFEAD0502211,0,0,0,Generación de energía eléctrica,0,Arsénico,0,kg/año,GENERACIÓN DE ENERGIA ELECTRICA,No disponible,CARRETERA FED. 57 KM 27.5 TRAMO P.N.-MON,N.A.,No disponible,No disponible,26530,22,AD,No aplica,"Generación, transmisión y distribución de energía eléctrica",No disponible,No disponible,"28°28'0""",NAVA,"100°41'0""",0,Nava,N.A.,N.A.,No disponible,221110,Generacion y transmision de energia electrica,28.4666666666667,-100.683333333333,1,0,1,1,1,5,1,22,28.4666666666667,-100.683333333333,5_22_1_7440-38-2_2008
65298ba3bb426186d904b927,15.70117,0,0,2008,7440-43-9,0,5,0,COAHUILA,,1,0,CENTRAL TERMOELECTRICA JOSE LOPEZ PORTILLO,CFEAD0502211,0,0,0,Generación de energía eléctrica,0,Cadmio,0,kg/año,GENERACIÓN DE ENERGIA ELECTRICA,No disponible,CARRETERA FED. 57 KM 27.5 TRAMO P.N.-MON,N.A.,No disponible,No disponible,26530,22,AD,No aplica,"Generación, transmisión y distribución de energía eléctrica",No disponible,No disponible,"28°28'0""",NAVA,"100°41'0""",0,Nava,N.A.,N.A.,No disponible,221110,Generacion y transmision de energia electrica,28.4666666666667,-100.683333333333,1,0,1,1,1,5,1,22,28.4666666666667,-100.683333333333,5_22_1_7440-43-9_2008
65298ba6bb426186d904da43,0,183.59,0,2021,50-00-0,0,5,0,COAHUILA,,1,0,"CFE GENERACIÓN IV, CENTRAL TERMOELÉCTRICA JOSÉ LÓPEZ PORTILLO",CGI0502200032,0,0,0,Generación de energía eléctrica,0,Formaldehido,0,kg/año,GENERACIÓN DE ENERGÍA ELÉCTRICA,No disponible,Carretera  FEDERAL 57 KM 27.5,No disponible,334079.2826,3152599.9235,26170,22,AD,No aplica,"Generación, transmisión y distribución de energía eléctrica",No disponible,No disponible,"28°29'22""",Nava,"100°41'42""",0,Nava,S/N , ,NAVA ,221110,Generacion y transmision de energia electrica,28.4894444444444,-100.695,1,0,1,1,1,5,1,22,28.4894444444444,-100.695,5_22_1_50-00-0_2021
65298ba6bb426186d904da44,0,994.45,0,2021,71-43-2,0,5,0,COAHUILA,,1,0,"CFE GENERACIÓN IV, CENTRAL TERMOELÉCTRICA JOSÉ LÓPEZ PORTILLO",CGI0502200032,0,0,0,Generación de energía eléctrica,0,Benceno,0,kg/año,GENERACIÓN DE ENERGÍA ELÉCTRICA,No disponible,Carretera  FEDERAL 57 KM 27.5,No disponible,334079.2826,3152599.9235,26170,22,AD,No aplica,"Generación, transmisión y distribución de energía eléctrica",No disponible,No disponible,"28°29'22""",Nava,"100°41'42""",0,Nava,S/N , ,NAVA ,221110,Generacion y transmision de energia electrica,28.4894444444444,-100.695,1,0,1,1,1,5,1,22,28.4894444444444,-100.695,5_22_1_71-43-2_2021
65298ba6bb426186d904da45,0,321.28,0,2021,7439-92-1,0,5,0,COAHUILA,,2B,0,"CFE GENERACIÓN IV, CENTRAL TERMOELÉCTRICA JOSÉ LÓPEZ PORTILLO",CGI0502200032,0,0,0,Generación de energía eléctrica,0,"Plomo (polvos respirables, humos o vapores)",0,kg/año,GENERACIÓN DE ENERGÍA ELÉCTRICA,No disponible,Carretera  FEDERAL 57 KM 27.5,No disponible,334079.2826,3152599.9235,26170,22,AD,No aplica,"Generación, transmisión y distribución de energía eléctrica",No disponible,No disponible,"28°29'22""",Nava,"100°41'42""",0,Nava,S/N , ,NAVA ,221110,Generacion y transmision de energia electrica,28.4894444444444,-100.695,1,0,1,1,1,5,1,22,28.4894444444444,-100.695,5_22_2B_7439-92-1_2021
65298ba6bb426186d904da47,0,214.19,0,2021,7440-02-0,0,5,0,COAHUILA,,2B,0,"CFE GENERACIÓN IV, CENTRAL TERMOELÉCTRICA JOSÉ LÓPEZ PORTILLO",CGI0502200032,0,0,0,Generación de energía eléctrica,0,"Níquel (polvos respirables, humos o vapores)",0,kg/año,GENERACIÓN DE ENERGÍA ELÉCTRICA,No disponible,Carretera  FEDERAL 57 KM 27.5,No disponible,334079.2826,3152599.9235,26170,22,AD,No aplica,"Generación, transmisión y distribución de energía eléctrica",No disponible,No disponible,"28°29'22""",Nava,"100°41'42""",0,Nava,S/N , ,NAVA ,221110,Generacion y transmision de energia electrica,28.4894444444444,-100.695,1,0,1,1,1,5,1,22,28.4894444444444,-100.695,5_22_2B_7440-02-0_2021
65298ba6bb426186d904da48,0,313.63,0,2021,7440-38-2,0,5,0,COAHUILA,,1,0,"CFE GENERACIÓN IV, CENTRAL TERMOELÉCTRICA JOSÉ LÓPEZ PORTILLO",CGI0502200032,0,0,0,Generación de energía eléctrica,0,Arsénico,0,kg/año,GENERACIÓN DE ENERGÍA ELÉCTRICA,No disponible,Carretera  FEDERAL 57 KM 27.5,No disponible,334079.2826,3152599.9235,26170,22,AD,No aplica,"Generación, transmisión y distribución de energía eléctrica",No disponible,No disponible,"28°29'22""",Nava,"100°41'42""",0,Nava,S/N , ,NAVA ,221110,Generacion y transmision de energia electrica,28.4894444444444,-100.695,1,0,1,1,1,5,1,22,28.4894444444444,-100.695,5_22_1_7440-38-2_2021
65298ba6bb426186d904da49,0,39.01,0,2021,7440-43-9,0,5,0,COAHUILA,,1,0,"CFE GENERACIÓN IV, CENTRAL TERMOELÉCTRICA JOSÉ LÓPEZ PORTILLO",CGI0502200032,0,0,0,Generación de energía eléctrica,0,Cadmio,0,kg/año,GENERACIÓN DE ENERGÍA ELÉCTRICA,No disponible,Carretera  FEDERAL 57 KM 27.5,No disponible,334079.2826,3152599.9235,26170,22,AD,No aplica,"Generación, transmisión y distribución de energía eléctrica",No disponible,No disponible,"28°29'22""",Nava,"100°41'42""",0,Nava,S/N , ,NAVA ,221110,Generacion y transmision de energia electrica,28.4894444444444,-100.695,1,0,1,1,1,5,1,22,28.4894444444444,-100.695,5_22_1_7440-43-9_2021
65298ba8bb426186d904f523,150,0,0,2014,7439-92-1,0,5,0,COAHUILA,,2B,0,"COMISIÓN FEDERAL DE ELECTRICIDAD,CENTRAL TERMOELÉCTRICA CARBÓN II",CFEAD0502221,0,0,0,Generación de energía eléctrica,0,"Plomo (polvos respirables, humos o vapores)",0,kg/año,GENERACIÓN DE ENERGÍA ELÉCTRICA,No disponible,"Carretera  FEDERAL 57,",Ejido EL ENCINO,No disponible,No disponible,26170,22,AD,No aplica,"Generación, transmisión y distribución de energía eléctrica",No disponible,No disponible,"28°27'44""",Nava,"100°42'11""",0,Nava,KM 31.5 , ,No disponible,221110,Generacion y transmision de energia electrica,28.4622222222222,-100.703055555556,1,0,1,1,1,5,1,22,28.4622222222222,-100.703055555556,5_22_2B_7439-92-1_2014
65298ba8bb426186d904f524,4,0,0,2014,7440-38-2,0,5,0,COAHUILA,,1,0,"COMISIÓN FEDERAL DE ELECTRICIDAD,CENTRAL TERMOELÉCTRICA CARBÓN II",CFEAD0502221,0,0,0,Generación de energía eléctrica,0,Arsénico,0,kg/año,GENERACIÓN DE ENERGÍA ELÉCTRICA,No disponible,"Carretera  FEDERAL 57,",Ejido EL ENCINO,No disponible,No disponible,26170,22,AD,No aplica,"Generación, transmisión y distribución de energía eléctrica",No disponible,No disponible,"28°27'44""",Nava,"100°42'11""",0,Nava,KM 31.5 , ,No disponible,221110,Generacion y transmision de energia electrica,28.4622222222222,-100.703055555556,1,0,1,1,1,5,1,22,28.4622222222222,-100.703055555556,5_22_1_7440-38-2_2014
65298baabb426186d9050786,8.3534,0,0,2014,7439-92-1,0,5,44.223899,COAHUILA,,2B,0,"RUBEN DARIO VALDEZ TORRES, COMPAÑIA CERVECERA DE COAHUILA, S. DE R.L. DE C.V.",VAT050000001,0,64452,0,Bebidas y tabaco,0,"Plomo (polvos respirables, humos o vapores)",0,kg/año,FABRICACIÓN Y VENTA DE CERVEZA,No disponible,Carretera  57,No disponible,No disponible,No disponible,26170,22,30,No aplica,Elaboración de cerveza,No disponible,No disponible,"28°34'49""",Nava,"100°36'3""",0,Nava,85,0,NAVA CENTRO,312120,Produccion de bebidas alcoholicas a base de fermentacion y/o destilacion,28.5802777777778,-100.600833333333,1,0,1,1,1,5,1,22,28.5802777777778,-100.600833333333,5_22_2B_7439-92-1_2014
65298baabb426186d9050788,30.024058,0,0,2014,7440-02-0,0,5,0,COAHUILA,,2B,0,"RUBEN DARIO VALDEZ TORRES, COMPAÑIA CERVECERA DE COAHUILA, S. DE R.L. DE C.V.",VAT050000001,0,0,0,Bebidas y tabaco,1.118144,"Níquel (polvos respirables, humos o vapores)",0,kg/año,FABRICACIÓN Y VENTA DE CERVEZA,No disponible,Carretera  57,No disponible,No disponible,No disponible,26170,22,30,No aplica,Elaboración de cerveza,No disponible,No disponible,"28°34'49""",Nava,"100°36'3""",0,Nava,85,0,NAVA CENTRO,312120,Produccion de bebidas alcoholicas a base de fermentacion y/o destilacion,28.5802777777778,-100.600833333333,1,0,1,1,1,5,1,22,28.5802777777778,-100.600833333333,5_22_2B_7440-02-0_2014
65298baabb426186d9050789,19.864832,0,0,2014,7440-38-2,0,5,0,COAHUILA,,1,0,"RUBEN DARIO VALDEZ TORRES, COMPAÑIA CERVECERA DE COAHUILA, S. DE R.L. DE C.V.",VAT050000001,0,0,0,Bebidas y tabaco,0,Arsénico,0,kg/año,FABRICACIÓN Y VENTA DE CERVEZA,No disponible,Carretera  57,No disponible,No disponible,No disponible,26170,22,30,No aplica,Elaboración de cerveza,No disponible,No disponible,"28°34'49""",Nava,"100°36'3""",0,Nava,85,0,NAVA CENTRO,312120,Produccion de bebidas alcoholicas a base de fermentacion y/o destilacion,28.5802777777778,-100.600833333333,1,0,1,1,1,5,1,22,28.5802777777778,-100.600833333333,5_22_1_7440-38-2_2014
65298baabb426186d905078a,4.469301,0,0,2014,7440-43-9,0,5,0,COAHUILA,,1,0,"RUBEN DARIO VALDEZ TORRES, COMPAÑIA CERVECERA DE COAHUILA, S. DE R.L. DE C.V.",VAT050000001,0,0,0,Bebidas y tabaco,0,Cadmio,0,kg/año,FABRICACIÓN Y VENTA DE CERVEZA,No disponible,Carretera  57,No disponible,No disponible,No disponible,26170,22,30,No aplica,Elaboración de cerveza,No disponible,No disponible,"28°34'49""",Nava,"100°36'3""",0,Nava,85,0,NAVA CENTRO,312120,Produccion de bebidas alcoholicas a base de fermentacion y/o destilacion,28.5802777777778,-100.600833333333,1,0,1,1,1,5,1,22,28.5802777777778,-100.600833333333,5_22_1_7440-43-9_2014
65298baabb426186d9050bd9,2.27702398,0,0,2016,7439-92-1,0,5,0,COAHUILA,,2B,0,"COMPAÑÍA CERVECERA DE COAHUILA, S. DE R.L. DE C.V., COMPAÑIA CERVECERA DE COAHUILA, S. DE R.L. DE C.V.",CCO300502211,0,0,0,Bebidas y tabaco,88.2139789,"Plomo (polvos respirables, humos o vapores)",0,kg/año,FABRICACIÓN Y VENTA DE CERVEZA,No disponible,Carretera  57,No disponible,343430.5351,3162537.0405,26170,22,30,No aplica,Elaboración de cerveza,No disponible,No disponible,"28°34'49""",Nava,"100°36'3""",0,Nava,85 N/A,N/A N/A,NAVA CENTRO,312120,Produccion de bebidas alcoholicas a base de fermentacion y/o destilacion,28.5802777777778,-100.600833333333,1,0,1,1,1,5,1,22,28.5802777777778,-100.600833333333,5_22_2B_7439-92-1_2016
65298baabb426186d9050bda,62.80298283,0,0,2016,7440-02-0,0,5,0,COAHUILA,,2B,0,"COMPAÑÍA CERVECERA DE COAHUILA, S. DE R.L. DE C.V., COMPAÑIA CERVECERA DE COAHUILA, S. DE R.L. DE C.V.",CCO300502211,0,0,0,Bebidas y tabaco,0,"Níquel (polvos respirables, humos o vapores)",0,kg/año,FABRICACIÓN Y VENTA DE CERVEZA,No disponible,Carretera  57,No disponible,343430.5351,3162537.0405,26170,22,30,No aplica,Elaboración de cerveza,No disponible,No disponible,"28°34'49""",Nava,"100°36'3""",0,Nava,85 N/A,N/A N/A,NAVA CENTRO,312120,Produccion de bebidas alcoholicas a base de fermentacion y/o destilacion,28.5802777777778,-100.600833333333,1,0,1,1,1,5,1,22,28.5802777777778,-100.600833333333,5_22_2B_7440-02-0_2016
65298baabb426186d9050bdb,2.05523593,0,0,2016,7440-38-2,0,5,0,COAHUILA,,1,0,"COMPAÑÍA CERVECERA DE COAHUILA, S. DE R.L. DE C.V., COMPAÑIA CERVECERA DE COAHUILA, S. DE R.L. DE C.V.",CCO300502211,0,0,0,Bebidas y tabaco,0,Arsénico,0,kg/año,FABRICACIÓN Y VENTA DE CERVEZA,No disponible,Carretera  57,No disponible,343430.5351,3162537.0405,26170,22,30,No aplica,Elaboración de cerveza,No disponible,No disponible,"28°34'49""",Nava,"100°36'3""",0,Nava,85 N/A,N/A N/A,NAVA CENTRO,312120,Produccion de bebidas alcoholicas a base de fermentacion y/o destilacion,28.5802777777778,-100.600833333333,1,0,1,1,1,5,1,22,28.5802777777778,-100.600833333333,5_22_1_7440-38-2_2016
65298baabb426186d9050c69,15.7,0,0,2016,7439-92-1,0,5,0,COAHUILA,,2B,0,"COMISIÓN FEDERAL DE ELECTRICIDAD,CENTRAL TERMOELÉCTRICA CARBÓN II",CFEAD0502221,0,0,0,Generación de energía eléctrica,0,"Plomo (polvos respirables, humos o vapores)",0,kg/año,Generación de Energía Eléctrica,No disponible,Carretera carretera federal 57,Ejido EL ENCINO,329581.6682,3149143.7339,26170,22,AD,No aplica,"Generación, transmisión y distribución de energía eléctrica",No disponible,No disponible,"28°27'27""",Nava,"100°44'25""",0,Nava,km 216 + 300,No disponible,No disponible,221110,Generacion y transmision de energia electrica,28.4575,-100.740277777778,1,0,1,1,1,5,1,22,28.4575,-100.740277777778,5_22_2B_7439-92-1_2016
65298baabb426186d9050c6a,26.5,0,0,2016,7440-38-2,0,5,0,COAHUILA,,1,0,"COMISIÓN FEDERAL DE ELECTRICIDAD,CENTRAL TERMOELÉCTRICA CARBÓN II",CFEAD0502221,0,0,0,Generación de energía eléctrica,0,Arsénico,0,kg/año,Generación de Energía Eléctrica,No disponible,Carretera carretera federal 57,Ejido EL ENCINO,329581.6682,3149143.7339,26170,22,AD,No aplica,"Generación, transmisión y distribución de energía eléctrica",No disponible,No disponible,"28°27'27""",Nava,"100°44'25""",0,Nava,km 216 + 300,No disponible,No disponible,221110,Generacion y transmision de energia electrica,28.4575,-100.740277777778,1,0,1,1,1,5,1,22,28.4575,-100.740277777778,5_22_1_7440-38-2_2016
65298badbb426186d905272a,0,1967.51,0,2017,71-43-2,0,5,0,COAHUILA,,1,0,"CFE GENERACIÓN VI,CFE GENERACIÓN VI CENTRAL TERMOELÉCTRICA JOSÉ LÓPEZ PORTILLO",CGV0502200023,0,0,0,Generación de energía eléctrica,0,Benceno,0,kg/año,GENERACIÓN DE ENERGÍA ELÉCTRICA,No disponible,Carretera  FEDERAL 57 KM 27.5,Colonia NAVA CENTRO,334387.8057,3152258.7753,26170,22,AD,No aplica,"Generación, transmisión y distribución de energía eléctrica",No disponible,No disponible,"28°29'11""",NAVA,"100°41'30""",0,Nava,S/N , ,No disponible,221110,Generacion y transmision de energia electrica,28.4863888888889,-100.691666666667,1,0,1,1,1,5,1,22,28.4863888888889,-100.691666666667,5_22_1_71-43-2_2017
65298badbb426186d905272b,0,363.23,0,2017,50-00-0,0,5,0,COAHUILA,,1,0,"CFE GENERACIÓN VI,CFE GENERACIÓN VI CENTRAL TERMOELÉCTRICA JOSÉ LÓPEZ PORTILLO",CGV0502200023,0,0,0,Generación de energía eléctrica,0,Formaldehido,0,kg/año,GENERACIÓN DE ENERGÍA ELÉCTRICA,No disponible,Carretera  FEDERAL 57 KM 27.5,Colonia NAVA CENTRO,334387.8057,3152258.7753,26170,22,AD,No aplica,"Generación, transmisión y distribución de energía eléctrica",No disponible,No disponible,"28°29'11""",NAVA,"100°41'30""",0,Nava,S/N , ,No disponible,221110,Generacion y transmision de energia electrica,28.4863888888889,-100.691666666667,1,0,1,1,1,5,1,22,28.4863888888889,-100.691666666667,5_22_1_50-00-0_2017
65298bb0bb426186d9054279,0.00074299,0,0,2005,7440-38-2,0,5,0,COAHUILA,,1,0,CENTRAL TERMOELECTRICA JOSE LOPEZ PORTILLO,CFEAD0502211,0,0,0,Generación de energía eléctrica,0,Arsénico,0,kg/año,GENERACIÓN DE ENERGIA ELECTRICA,Generacion y transmision de energia electrica,CARRETERA FED. 57 KM 27.5 TRAMO P.N.-MON,N.A.,2132412,1446802,26530,22,No disponible,No aplica,No disponible,No disponible,No disponible,"28°28'0""",NAVA,"100°41'0""",0,Nava,N.A.,N.A.,No disponible,No disponible,No disponible,28.4666666666667,-100.683333333333,1,0,1,1,1,5,1,22,28.4666666666667,-100.683333333333,5_22_1_7440-38-2_2005
65298bb0bb426186d905427d,0.02,0,0,2005,7440-43-9,0,5,0,COAHUILA,,1,0,CENTRAL TERMOELECTRICA JOSE LOPEZ PORTILLO,CFEAD0502211,0,0,0,Generación de energía eléctrica,0,Cadmio,0,kg/año,GENERACIÓN DE ENERGIA ELECTRICA,Generacion y transmision de energia electrica,CARRETERA FED. 57 KM 27.5 TRAMO P.N.-MON,N.A.,2132412,1446802,26530,22,No disponible,No aplica,No disponible,No disponible,No disponible,"28°28'0""",NAVA,"100°41'0""",0,Nava,N.A.,N.A.,No disponible,No disponible,No disponible,28.4666666666667,-100.683333333333,1,0,1,1,1,5,1,22,28.4666666666667,-100.683333333333,5_22_1_7440-43-9_2005
65298bb4bb426186d9056aed,0.0018489079,0,0,2007,7440-38-2,0,5,0,COAHUILA,,1,0,CENTRAL TERMOELECTRICA JOSE LOPEZ PORTILLO,CFEAD0502211,0,0,0,Generación de energía eléctrica,0,Arsénico,0,kg/año,GENERACIÓN DE ENERGIA ELECTRICA,No disponible,CARRETERA FED. 57 KM 27.5 TRAMO P.N.-MON,N.A.,No disponible,No disponible,26530,22,AD,No aplica,"Generación, transmisión y distribución de energía eléctrica.",No disponible,No disponible,"28°28'0""",NAVA,"100°41'0""",0,Nava,N.A.,N.A.,No disponible,221110,Generacion y transmision de energia electrica,28.4666666666667,-100.683333333333,1,0,1,1,1,5,1,22,28.4666666666667,-100.683333333333,5_22_1_7440-38-2_2007
65298bb4bb426186d9056aef,0.023228555,0,0,2007,7440-43-9,0,5,0,COAHUILA,,1,0,CENTRAL TERMOELECTRICA JOSE LOPEZ PORTILLO,CFEAD0502211,0,0,0,Generación de energía eléctrica,0,Cadmio,0,kg/año,GENERACIÓN DE ENERGIA ELECTRICA,No disponible,CARRETERA FED. 57 KM 27.5 TRAMO P.N.-MON,N.A.,No disponible,No disponible,26530,22,AD,No aplica,"Generación, transmisión y distribución de energía eléctrica.",No disponible,No disponible,"28°28'0""",NAVA,"100°41'0""",0,Nava,N.A.,N.A.,No disponible,221110,Generacion y transmision de energia electrica,28.4666666666667,-100.683333333333,1,0,1,1,1,5,1,22,28.4666666666667,-100.683333333333,5_22_1_7440-43-9_2007
65298bb5bb426186d9057bb3,0.00003984,0,0,2007,7440-38-2,0,5,0,COAHUILA,,1,0,MINERA CARBONIFERA RIO ESCONDIDO S.A DE C.V. MINA V,MCR1L0502212,0,0,0,Metalurgica (incluye la siderurgica),0,Arsénico,0,kg/año,EXTRACCION DE CARBON MINA SUBTERRANEA,No disponible,CARR 57 KM 220 TRAMO MONCLOVA P. NEGRAS,No disponible,50810344,315337791,26170,22,1L,No aplica,Minería de carbón mineral.,No disponible,No disponible,"28°30'0""",NAVA COAHUILA,"100°40'0""",0,Nava,No disponible,No disponible,No disponible,212110,Extraccion y/o beneficio de minerales no metalicos,28.5,-100.666666666667,1,0,1,1,1,5,1,22,28.5,-100.666666666667,5_22_1_7440-38-2_2007
65298bb5bb426186d9057bb4,0.0003984,0,0,2007,7440-43-9,0,5,0,COAHUILA,,1,0,MINERA CARBONIFERA RIO ESCONDIDO S.A DE C.V. MINA V,MCR1L0502212,0,0,0,Metalurgica (incluye la siderurgica),0,Cadmio,0,kg/año,EXTRACCION DE CARBON MINA SUBTERRANEA,No disponible,CARR 57 KM 220 TRAMO MONCLOVA P. NEGRAS,No disponible,50810344,315337791,26170,22,1L,No aplica,Minería de carbón mineral.,No disponible,No disponible,"28°30'0""",NAVA COAHUILA,"100°40'0""",0,Nava,No disponible,No disponible,No disponible,212110,Extraccion y/o beneficio de minerales no metalicos,28.5,-100.666666666667,1,0,1,1,1,5,1,22,28.5,-100.666666666667,5_22_1_7440-43-9_2007
65298bb5bb426186d9057bba,0.000035502,0,0,2007,7440-38-2,0,5,0,COAHUILA,,1,0,MINERA CARBONIFERA RIO ESCONDIDO S.A. DE C.V. MINA II,MCR1L0502213,0,0,0,Metalurgica (incluye la siderurgica),0,Arsénico,0,kg/año,EXTRACCION DE CARBON DE MINA SUBTERRANEA,No disponible,CARRETERA 57 KM 220 TRAMO MONCLOVA P.N,No disponible,0,0,26170,22,1L,No aplica,Minería de carbón mineral.,No disponible,No disponible,"28°28'37""",NAVA,"100°38'23""",0,Nava,No disponible,No disponible,No disponible,212110,Extraccion y/o beneficio de minerales no metalicos,28.4769444444444,-100.639722222222,1,0,1,1,1,5,1,22,28.4769444444444,-100.639722222222,5_22_1_7440-38-2_2007
65298bb5bb426186d9057bbb,0.00035502,0,0,2007,7440-43-9,0,5,0,COAHUILA,,1,0,MINERA CARBONIFERA RIO ESCONDIDO S.A. DE C.V. MINA II,MCR1L0502213,0,0,0,Metalurgica (incluye la siderurgica),0,Cadmio,0,kg/año,EXTRACCION DE CARBON DE MINA SUBTERRANEA,No disponible,CARRETERA 57 KM 220 TRAMO MONCLOVA P.N,No disponible,0,0,26170,22,1L,No aplica,Minería de carbón mineral.,No disponible,No disponible,"28°28'37""",NAVA,"100°38'23""",0,Nava,No disponible,No disponible,No disponible,212110,Extraccion y/o beneficio de minerales no metalicos,28.4769444444444,-100.639722222222,1,0,1,1,1,5,1,22,28.4769444444444,-100.639722222222,5_22_1_7440-43-9_2007
65298bb5bb426186d9057bc1,0.000045974,0,0,2007,7440-38-2,0,5,0,COAHUILA,,1,0,MINERA CARBONIFERA RIO ESCONDIDO S.A. DE C.V. TAJO III,MCR1L0502214,0,0,0,Metalurgica (incluye la siderurgica),0,Arsénico,0,kg/año,EXTRACCION DE CARBON MINAS A CIELO ABIERTO,No disponible,CARR.57 KM 220 TRAMO MONCLOVA P.NEGRAS,No disponible,0,0,26170,22,1L,No aplica,Minería de carbón mineral.,No disponible,No disponible,"28°31'59""",NAVA,"100°41'21""",0,Nava,No disponible,No disponible,No disponible,212110,Extraccion y/o beneficio de minerales no metalicos,28.5330555555556,-100.689166666667,1,0,1,1,1,5,1,22,28.5330555555556,-100.689166666667,5_22_1_7440-38-2_2007
65298bb5bb426186d9057bc2,0.00045974,0,0,2007,7440-43-9,0,5,0,COAHUILA,,1,0,MINERA CARBONIFERA RIO ESCONDIDO S.A. DE C.V. TAJO III,MCR1L0502214,0,0,0,Metalurgica (incluye la siderurgica),0,Cadmio,0,kg/año,EXTRACCION DE CARBON MINAS A CIELO ABIERTO,No disponible,CARR.57 KM 220 TRAMO MONCLOVA P.NEGRAS,No disponible,0,0,26170,22,1L,No aplica,Minería de carbón mineral.,No disponible,No disponible,"28°31'59""",NAVA,"100°41'21""",0,Nava,No disponible,No disponible,No disponible,212110,Extraccion y/o beneficio de minerales no metalicos,28.5330555555556,-100.689166666667,1,0,1,1,1,5,1,22,28.5330555555556,-100.689166666667,5_22_1_7440-43-9_2007
65298bb5bb426186d9057bc8,0.031394,0,0,2007,7440-38-2,0,5,0,COAHUILA,,1,0,MINERA CARBONIFERA RIO ESCONDIDO SA DE CV PLANTA LAVADORA,MCR1L0502215,0,0,0,Metalurgica (incluye la siderurgica),0,Arsénico,0,kg/año,LAVADO Y MEZCLADO DE CARBON,No disponible,CARR. 57 KM 220 TRAMO MONCLOVA P.NEGRAS,No disponible,0,0,26170,22,1L,No aplica,Minería de carbón mineral.,No disponible,No disponible,"28°29'23""",NAVA,"100°40'13""",0,Nava,No disponible,No disponible,No disponible,212110,Extraccion y/o beneficio de minerales no metalicos,28.4897222222222,-100.670277777778,1,0,1,1,1,5,1,22,28.4897222222222,-100.670277777778,5_22_1_7440-38-2_2007
65298bb5bb426186d9057bc9,0.31394,0,0,2007,7440-43-9,0,5,0,COAHUILA,,1,0,MINERA CARBONIFERA RIO ESCONDIDO SA DE CV PLANTA LAVADORA,MCR1L0502215,0,0,0,Metalurgica (incluye la siderurgica),0,Cadmio,0,kg/año,LAVADO Y MEZCLADO DE CARBON,No disponible,CARR. 57 KM 220 TRAMO MONCLOVA P.NEGRAS,No disponible,0,0,26170,22,1L,No aplica,Minería de carbón mineral.,No disponible,No disponible,"28°29'23""",NAVA,"100°40'13""",0,Nava,No disponible,No disponible,No disponible,212110,Extraccion y/o beneficio de minerales no metalicos,28.4897222222222,-100.670277777778,1,0,1,1,1,5,1,22,28.4897222222222,-100.670277777778,5_22_1_7440-43-9_2007
65298bb5bb426186d9057bcf,0.0000196,0,0,2007,7440-38-2,0,5,0,COAHUILA,,1,0,MINERA CARBONIFERA RIO ESCONDIDO S.A. DE C.V. MINA VI,MCR1L0502216,0,0,0,Metalurgica (incluye la siderurgica),0,Arsénico,0,kg/año,EXTRACCION Y BENEFICIO DE CARBON,No disponible,CARR.57 KM 223 TRAMO P.NEGRAS,No disponible,0,0,26170,22,1L,No aplica,Minería de carbón mineral.,No disponible,No disponible,"28°28'58""",NAVA,"100°35'50""",0,Nava,No disponible,No disponible,No disponible,212110,Extraccion y/o beneficio de minerales no metalicos,28.4827777777778,-100.597222222222,1,0,1,1,1,5,1,22,28.4827777777778,-100.597222222222,5_22_1_7440-38-2_2007
65298bb5bb426186d9057bd0,0.00196,0,0,2007,7440-43-9,0,5,0,COAHUILA,,1,0,MINERA CARBONIFERA RIO ESCONDIDO S.A. DE C.V. MINA VI,MCR1L0502216,0,0,0,Metalurgica (incluye la siderurgica),0,Cadmio,0,kg/año,EXTRACCION Y BENEFICIO DE CARBON,No disponible,CARR.57 KM 223 TRAMO P.NEGRAS,No disponible,0,0,26170,22,1L,No aplica,Minería de carbón mineral.,No disponible,No disponible,"28°28'58""",NAVA,"100°35'50""",0,Nava,No disponible,No disponible,No disponible,212110,Extraccion y/o beneficio de minerales no metalicos,28.4827777777778,-100.597222222222,1,0,1,1,1,5,1,22,28.4827777777778,-100.597222222222,5_22_1_7440-43-9_2007
65298bb8bb426186d905940d,18,0,0,2010,7440-38-2,0,5,0,COAHUILA,,1,0,CFE C.T. CARBON II,CFEAD0502221,0,0,0,Generación de energía eléctrica,0,Arsénico,0,kg/año,GENERACIÓN Y TRANSMISIÓN DE ENERGÍA ELÉCTRICA (SÓLO GENERACIÓN; INCLUYE LAS INSTALACIONES,No disponible,CARR. 57 KM 31.5 TRAMO P. NEG. MONCLOVA,N.A.,No disponible,No disponible,26170,22,AD,No aplica,"Generación, transmisión y distribución de energía eléctrica.",No disponible,No disponible,"28°27'42""",NAVA,"100°42'10""",0,Nava,N.A.,N.A.,AREA DESPOBLADA,221110,Generacion y transmision de energia electrica,28.4616666666667,-100.702777777778,1,0,1,1,1,5,1,22,28.4616666666667,-100.702777777778,5_22_1_7440-38-2_2010
65298bbbbb426186d905bd0c,0.000046311,0,0,2009,7440-38-2,0,5,0,COAHUILA,,1,0,"BEBIDAS MUNDIALES, S.A. DE C.V. Planta Piedras Negras",BMU2P0502211,0,0,0,Bebidas y tabaco,0,Arsénico,0,kg/año,"Elaboración y distribución con bebidas con y sin gas, hielo y agua purificada.",No disponible,Carretera 57 Km. 13,No disponible,345665.875,3164713,26170,22,36,No aplica,Elaboración de refrescos y otras bebidas no alcohólicas.,No disponible,No disponible,"28°36'5""",No disponible,"100°34'44""",0,Nava,SN,No disponible,No disponible,312111,Produccion de refrescos,28.6013888888889,-100.578888888889,1,0,1,1,1,5,1,22,28.6013888888889,-100.578888888889,5_22_1_7440-38-2_2009
65298bbbbb426186d905beeb,0.020952905,0,0,2009,7440-43-9,0,5,0,COAHUILA,,1,0,CENTRAL TERMOELECTRICA JOSE LOPEZ PORTILLO,CFEAD0502211,0,0,0,Generación de energía eléctrica,0,Cadmio,0,kg/año,GENERACIÓN DE ENERGIA ELECTRICA,No disponible,CARRETERA FED. 57 KM 27.5 TRAMO P.N.-MON,N.A.,No disponible,No disponible,26530,22,AD,No aplica,"Generación, transmisión y distribución de energía eléctrica.",No disponible,No disponible,"28°28'0""",NAVA,"100°41'0""",0,Nava,N.A.,N.A.,No disponible,221110,Generacion y transmision de energia electrica,28.4666666666667,-100.683333333333,1,0,1,1,1,5,1,22,28.4666666666667,-100.683333333333,5_22_1_7440-43-9_2009
65298bbbbb426186d905beec,0.0013790088,0,0,2009,7440-38-2,0,5,0,COAHUILA,,1,0,CENTRAL TERMOELECTRICA JOSE LOPEZ PORTILLO,CFEAD0502211,0,0,0,Generación de energía eléctrica,0,Arsénico,0,kg/año,GENERACIÓN DE ENERGIA ELECTRICA,No disponible,CARRETERA FED. 57 KM 27.5 TRAMO P.N.-MON,N.A.,No disponible,No disponible,26530,22,AD,No aplica,"Generación, transmisión y distribución de energía eléctrica.",No disponible,No disponible,"28°28'0""",NAVA,"100°41'0""",0,Nava,N.A.,N.A.,No disponible,221110,Generacion y transmision de energia electrica,28.4666666666667,-100.683333333333,1,0,1,1,1,5,1,22,28.4666666666667,-100.683333333333,5_22_1_7440-38-2_2009
65298bbbbb426186d905bef4,0.0330953066,0,0,2009,7440-38-2,0,5,0,COAHUILA,,1,0,CFE C.T. CARBON II,CFEAD0502221,0,0,0,Generación de energía eléctrica,0,Arsénico,0,kg/año,GENERACIÓN Y TRANSMISIÓN DE ENERGÍA ELÉCTRICA (SÓLO GENERACIÓN; INCLUYE LAS INSTALACIONES,No disponible,CARR. 57 KM 31.5 TRAMO P. NEG. MONCLOVA,N.A.,No disponible,No disponible,26170,22,AD,No aplica,"Generación, transmisión y distribución de energía eléctrica.",No disponible,No disponible,"28°27'42""",NAVA,"100°42'10""",0,Nava,N.A.,N.A.,AREA DESPOBLADA,221110,Generacion y transmision de energia electrica,28.4616666666667,-100.702777777778,1,0,1,1,1,5,1,22,28.4616666666667,-100.702777777778,5_22_1_7440-38-2_2009
65298bbcbb426186d905d07d,0.00002001,0,0,2009,7440-43-9,0,5,0,COAHUILA,,1,0,MINERA DEL NORTE S.A. DE C.V. UNIDAD MICARE MINA VII,MNOSP0502211,0,0,0,Otros,0,Cadmio,0,kg/año,EXTRACCION DE CARBON MINA SUBTERRANEA,No disponible,CARRETERA 57 KM 220 MONCLOVA PIEDRAS NEG,No disponible,0,0,26170,22,SP,No aplica,Minería de carbón mineral.,No disponible,No disponible,"28°22'10""",NAVA,"100°35'41""",0,Nava,No disponible,No disponible,No disponible,212110,Exploraciones y explotaciones mineras,28.3694444444444,-100.594722222222,1,0,1,1,1,5,1,22,28.3694444444444,-100.594722222222,5_22_1_7440-43-9_2009
65298bbcbb426186d905d07e,0.000023345,0,0,2009,7440-38-2,0,5,0,COAHUILA,,1,0,MINERA DEL NORTE S.A. DE C.V. UNIDAD MICARE MINA VII,MNOSP0502211,0,0,0,Otros,0,Arsénico,0,kg/año,EXTRACCION DE CARBON MINA SUBTERRANEA,No disponible,CARRETERA 57 KM 220 MONCLOVA PIEDRAS NEG,No disponible,0,0,26170,22,SP,No aplica,Minería de carbón mineral.,No disponible,No disponible,"28°22'10""",NAVA,"100°35'41""",0,Nava,No disponible,No disponible,No disponible,212110,Exploraciones y explotaciones mineras,28.3694444444444,-100.594722222222,1,0,1,1,1,5,1,22,28.3694444444444,-100.594722222222,5_22_1_7440-38-2_2009
65298bbcbb426186d905d085,0.000186233,0,0,2009,7440-38-2,0,5,0,COAHUILA,,1,0,MINERA DEL NORTE S.A. DE C.V. UNIDAD MICARE MINA II,MNO1L0502211,0,0,0,Metalurgica (incluye la siderurgica),0,Arsénico,0,kg/año,TALLERES MINAS NSUBTERRANEAS,No disponible,CARRETERA 57 KM 220 MONCLOVA PIEDRAS NEG,No disponible,0,0,26170,22,1L,No aplica,"Reparación y mantenimiento de maquinaria y equipo para mover, levantar y acomodar materiales.",No disponible,No disponible,"28°28'37""",NAVA,"100°38'23""",0,Nava,No disponible,No disponible,No disponible,811313,Extraccion y/o beneficio de minerales no metalicos,28.4769444444444,-100.639722222222,1,0,1,1,1,5,1,22,28.4769444444444,-100.639722222222,5_22_1_7440-38-2_2009
65298bbcbb426186d905d088,0.000017324,0,0,2009,7440-43-9,0,5,0,COAHUILA,,1,0,MINERA DEL NORTE S.A. DE C.V. UNIDAD MICARE MINA II,MNO1L0502211,0,0,0,Metalurgica (incluye la siderurgica),0,Cadmio,0,kg/año,TALLERES MINAS NSUBTERRANEAS,No disponible,CARRETERA 57 KM 220 MONCLOVA PIEDRAS NEG,No disponible,0,0,26170,22,1L,No aplica,"Reparación y mantenimiento de maquinaria y equipo para mover, levantar y acomodar materiales.",No disponible,No disponible,"28°28'37""",NAVA,"100°38'23""",0,Nava,No disponible,No disponible,No disponible,811313,Extraccion y/o beneficio de minerales no metalicos,28.4769444444444,-100.639722222222,1,0,1,1,1,5,1,22,28.4769444444444,-100.639722222222,5_22_1_7440-43-9_2009
65298bbcbb426186d905d08f,0.00135708,0,0,2009,7440-43-9,0,5,0,COAHUILA,,1,0,MINERA DEL NORTE S.A. DE C.V. UNIDAD MICARE MINA VI,MNO1L0502212,0,0,0,Metalurgica (incluye la siderurgica),0,Cadmio,0,kg/año,EXTRACCION DE CARBON MINA SUBTERRANEA,No disponible,CARRETERA 57 KM 220 MONCLOVA PIEDRAS NEG,No disponible,No disponible,No disponible,26170,22,1L,No aplica,Minería de carbón mineral.,No disponible,No disponible,"28°28'58""",NAVA,"100°35'50""",0,Nava,No disponible,No disponible,No disponible,212110,Extraccion y/o beneficio de minerales no metalicos,28.4827777777778,-100.597222222222,1,0,1,1,1,5,1,22,28.4827777777778,-100.597222222222,5_22_1_7440-43-9_2009
65298bbcbb426186d905d090,0.001458861,0,0,2009,7440-38-2,0,5,0,COAHUILA,,1,0,MINERA DEL NORTE S.A. DE C.V. UNIDAD MICARE MINA VI,MNO1L0502212,0,0,0,Metalurgica (incluye la siderurgica),0,Arsénico,0,kg/año,EXTRACCION DE CARBON MINA SUBTERRANEA,No disponible,CARRETERA 57 KM 220 MONCLOVA PIEDRAS NEG,No disponible,No disponible,No disponible,26170,22,1L,No aplica,Minería de carbón mineral.,No disponible,No disponible,"28°28'58""",NAVA,"100°35'50""",0,Nava,No disponible,No disponible,No disponible,212110,Extraccion y/o beneficio de minerales no metalicos,28.4827777777778,-100.597222222222,1,0,1,1,1,5,1,22,28.4827777777778,-100.597222222222,5_22_1_7440-38-2_2009
65298bbcbb426186d905d091,0.00081336,0,0,2009,7440-43-9,0,5,0,COAHUILA,,1,0,MINERA DEL NORTE S.A. DE C.V. UNIDAD MICARE PLANTA LAVADORA,MNO1L0502213,0,0,0,Metalurgica (incluye la siderurgica),0,Cadmio,0,kg/año,LAVADO Y MEZCLADO DE CARBON,No disponible,CARR. 57 KM 220 MONCLOVA PIEDRAS NEGRAS,No disponible,No disponible,No disponible,26170,22,1L,No aplica,Minería de carbón mineral.,No disponible,No disponible,"28°29'23""",NAVA,"100°40'13""",0,Nava,No disponible,No disponible,No disponible,212110,Extraccion y/o beneficio de minerales no metalicos,28.4897222222222,-100.670277777778,1,0,1,1,1,5,1,22,28.4897222222222,-100.670277777778,5_22_1_7440-43-9_2009
65298bbcbb426186d905d097,0.000868801,0,0,2009,7440-38-2,0,5,0,COAHUILA,,1,0,MINERA DEL NORTE S.A. DE C.V. UNIDAD MICARE PLANTA LAVADORA,MNO1L0502213,0,0,0,Metalurgica (incluye la siderurgica),0,Arsénico,0,kg/año,LAVADO Y MEZCLADO DE CARBON,No disponible,CARR. 57 KM 220 MONCLOVA PIEDRAS NEGRAS,No disponible,No disponible,No disponible,26170,22,1L,No aplica,Minería de carbón mineral.,No disponible,No disponible,"28°29'23""",NAVA,"100°40'13""",0,Nava,No disponible,No disponible,No disponible,212110,Extraccion y/o beneficio de minerales no metalicos,28.4897222222222,-100.670277777778,1,0,1,1,1,5,1,22,28.4897222222222,-100.670277777778,5_22_1_7440-38-2_2009
65298bbebb426186d905e668,0,407.945913,0,2020,7440-38-2,0,5,0,COAHUILA,,1,0,"CFE GENERACIÓN IV, CENTRAL TERMOELÉCTRICA JOSÉ LÓPEZ PORTILLO",CGI0502200032,0,0,0,Generación de energía eléctrica,0,Arsénico,0,kg/año,GENERACIÓN DE ENERGÍA ELÉCTRICA,No disponible,Carretera  FEDERAL 57 KM 27.5,No disponible,334079.2826,3152599.9235,26170,22,AD,No aplica,"Generación, transmisión y distribución de energía eléctrica",No disponible,No disponible,"28°29'22""",NAVA,"100°41'42""",0,Nava,S/N , ,NAVA ,221110,Generacion y transmision de energia electrica,28.4894444444444,-100.695,1,0,1,1,1,5,1,22,28.4894444444444,-100.695,5_22_1_7440-38-2_2020
65298bbebb426186d905e66a,0,1293.48704,0,2020,71-43-2,0,5,0,COAHUILA,,1,0,"CFE GENERACIÓN IV, CENTRAL TERMOELÉCTRICA JOSÉ LÓPEZ PORTILLO",CGI0502200032,0,0,0,Generación de energía eléctrica,0,Benceno,0,kg/año,GENERACIÓN DE ENERGÍA ELÉCTRICA,No disponible,Carretera  FEDERAL 57 KM 27.5,No disponible,334079.2826,3152599.9235,26170,22,AD,No aplica,"Generación, transmisión y distribución de energía eléctrica",No disponible,No disponible,"28°29'22""",NAVA,"100°41'42""",0,Nava,S/N , ,NAVA ,221110,Generacion y transmision de energia electrica,28.4894444444444,-100.695,1,0,1,1,1,5,1,22,28.4894444444444,-100.695,5_22_1_71-43-2_2020
65298bbebb426186d905e66b,0,50.74449163,0,2020,7440-43-9,0,5,0,COAHUILA,,1,0,"CFE GENERACIÓN IV, CENTRAL TERMOELÉCTRICA JOSÉ LÓPEZ PORTILLO",CGI0502200032,0,0,0,Generación de energía eléctrica,0,Cadmio,0,kg/año,GENERACIÓN DE ENERGÍA ELÉCTRICA,No disponible,Carretera  FEDERAL 57 KM 27.5,No disponible,334079.2826,3152599.9235,26170,22,AD,No aplica,"Generación, transmisión y distribución de energía eléctrica",No disponible,No disponible,"28°29'22""",NAVA,"100°41'42""",0,Nava,S/N , ,NAVA ,221110,Generacion y transmision de energia electrica,28.4894444444444,-100.695,1,0,1,1,1,5,1,22,28.4894444444444,-100.695,5_22_1_7440-43-9_2020
65298bbebb426186d905e66f,0,238.797608,0,2020,50-00-0,0,5,0,COAHUILA,,1,0,"CFE GENERACIÓN IV, CENTRAL TERMOELÉCTRICA JOSÉ LÓPEZ PORTILLO",CGI0502200032,0,0,0,Generación de energía eléctrica,0,Formaldehido,0,kg/año,GENERACIÓN DE ENERGÍA ELÉCTRICA,No disponible,Carretera  FEDERAL 57 KM 27.5,No disponible,334079.2826,3152599.9235,26170,22,AD,No aplica,"Generación, transmisión y distribución de energía eléctrica",No disponible,No disponible,"28°29'22""",NAVA,"100°41'42""",0,Nava,S/N , ,NAVA ,221110,Generacion y transmision de energia electrica,28.4894444444444,-100.695,1,0,1,1,1,5,1,22,28.4894444444444,-100.695,5_22_1_50-00-0_2020
65298bbebb426186d905e673,0,278.597209,0,2020,7440-02-0,0,5,0,COAHUILA,,2B,0,"CFE GENERACIÓN IV, CENTRAL TERMOELÉCTRICA JOSÉ LÓPEZ PORTILLO",CGI0502200032,0,0,0,Generación de energía eléctrica,0,"Níquel (polvos respirables, humos o vapores)",0,kg/año,GENERACIÓN DE ENERGÍA ELÉCTRICA,No disponible,Carretera  FEDERAL 57 KM 27.5,No disponible,334079.2826,3152599.9235,26170,22,AD,No aplica,"Generación, transmisión y distribución de energía eléctrica",No disponible,No disponible,"28°29'22""",NAVA,"100°41'42""",0,Nava,S/N , ,NAVA ,221110,Generacion y transmision de energia electrica,28.4894444444444,-100.695,1,0,1,1,1,5,1,22,28.4894444444444,-100.695,5_22_2B_7440-02-0_2020
65298bbebb426186d905e675,0,417.895813,0,2020,7439-92-1,0,5,0,COAHUILA,,2B,0,"CFE GENERACIÓN IV, CENTRAL TERMOELÉCTRICA JOSÉ LÓPEZ PORTILLO",CGI0502200032,0,0,0,Generación de energía eléctrica,0,"Plomo (polvos respirables, humos o vapores)",0,kg/año,GENERACIÓN DE ENERGÍA ELÉCTRICA,No disponible,Carretera  FEDERAL 57 KM 27.5,No disponible,334079.2826,3152599.9235,26170,22,AD,No aplica,"Generación, transmisión y distribución de energía eléctrica",No disponible,No disponible,"28°29'22""",NAVA,"100°41'42""",0,Nava,S/N , ,NAVA ,221110,Generacion y transmision de energia electrica,28.4894444444444,-100.695,1,0,1,1,1,5,1,22,28.4894444444444,-100.695,5_22_2B_7439-92-1_2020
65298bc0bb426186d905ffb8,0.000009668,0,0,2004,7440-38-2,0,5,0,COAHUILA,,1,0,CFE C.T. CARBON II,CFE0502211,0,0,0,Generación de energía eléctrica,0,Arsénico,0,kg/año,GENERACIÓN Y TRANSMISIÓN DE ENERGÍA ELÉCTRICA (SÓLO GENERACIÓN; INCLUYE LAS INSTALACIONES,Generacion y transmision de energia electrica,CARR. 57 KM 31.5 TRAMO P. NEG. MONCLOV0,N.A.,0,0,26170,22,No disponible,No aplica,No disponible,No disponible,No disponible,"28°27'42""",NAVA,"100°42'10""",0,Nava,N.A.,No disponible,No disponible,No disponible,No disponible,28.4616666666667,-100.702777777778,1,0,1,1,1,5,1,22,28.4616666666667,-100.702777777778,5_22_1_7440-38-2_2004
65298bc0bb426186d905ffce,0.011,0,0,2004,7440-43-9,0,5,0,COAHUILA,,1,0,CENTRAL TERMOELECTRICA JOSE LOPEZ PORTILLO,CFEAD0502211,0,0,0,Generación de energía eléctrica,0,Cadmio,0,kg/año,GENERACIÓN DE ENERGIA ELECTRICA,Generacion y transmision de energia electrica,CARRETERA FED. 57 KM 27.5 TRAMO P.N.-MON,N.A.,2132412,1446802,26530,22,No disponible,No aplica,No disponible,No disponible,No disponible,"28°28'0""",NAVA,"100°41'0""",0,Nava,N.A.,N.A.,No disponible,No disponible,No disponible,28.4666666666667,-100.683333333333,1,0,1,1,1,5,1,22,28.4666666666667,-100.683333333333,5_22_1_7440-43-9_2004
65298bc0bb426186d905ffcf,0.000398,0,0,2004,7440-38-2,0,5,0,COAHUILA,,1,0,CENTRAL TERMOELECTRICA JOSE LOPEZ PORTILLO,CFEAD0502211,0,0,0,Generación de energía eléctrica,0,Arsénico,0,kg/año,GENERACIÓN DE ENERGIA ELECTRICA,Generacion y transmision de energia electrica,CARRETERA FED. 57 KM 27.5 TRAMO P.N.-MON,N.A.,2132412,1446802,26530,22,No disponible,No aplica,No disponible,No disponible,No disponible,"28°28'0""",NAVA,"100°41'0""",0,Nava,N.A.,N.A.,No disponible,No disponible,No disponible,28.4666666666667,-100.683333333333,1,0,1,1,1,5,1,22,28.4666666666667,-100.683333333333,5_22_1_7440-38-2_2004
65298bc1bb426186d90608a3,0.001,0,0,2004,7440-43-9,0,5,0,COAHUILA,,1,0,MINERA CARBONIFERA RIO ESCONDIDO S.A DE C.V. TAJO III TAJO II EXTENSION,MCREA0502211,0,0,0,Metalurgica (incluye la siderurgica),0,Cadmio,0,kg/año,EXTRACCION DE CARBON MINA A CIELO ABIERTO,Extraccion y/o beneficio de minerales no metalicos,CARR. 57 KM 220 TRAMO MONCLOVA P. NEGRA,No disponible,0,0,26170,22,No disponible,No aplica,No disponible,No disponible,No disponible,"28°31'59""",NAVA,"100°41'21""",0,Nava,No disponible,No disponible,No disponible,No disponible,No disponible,28.5330555555556,-100.689166666667,1,0,1,1,1,5,1,22,28.5330555555556,-100.689166666667,5_22_1_7440-43-9_2004
65298bc1bb426186d90608a5,0.000052461,0,0,2004,7440-38-2,0,5,0,COAHUILA,,1,0,MINERA CARBONIFERA RIO ESCONDIDO S.A DE C.V. TAJO III TAJO II EXTENSION,MCREA0502211,0,0,0,Metalurgica (incluye la siderurgica),0,Arsénico,0,kg/año,EXTRACCION DE CARBON MINA A CIELO ABIERTO,Extraccion y/o beneficio de minerales no metalicos,CARR. 57 KM 220 TRAMO MONCLOVA P. NEGRA,No disponible,0,0,26170,22,No disponible,No aplica,No disponible,No disponible,No disponible,"28°31'59""",NAVA,"100°41'21""",0,Nava,No disponible,No disponible,No disponible,No disponible,No disponible,28.5330555555556,-100.689166666667,1,0,1,1,1,5,1,22,28.5330555555556,-100.689166666667,5_22_1_7440-38-2_2004
65298bc1bb426186d90608ad,0.002,0,0,2004,7440-43-9,0,5,0,COAHUILA,,1,0,MINERA CARBONIFERA RIO ESCONDIDO S.A DE C.V. MINA V SUBTERRANEA,MCRRP0502211,0,0,0,Metalurgica (incluye la siderurgica),0,Cadmio,0,kg/año,EXTRACCION DE CARBON MINA SUBTERRANEA,Extraccion y/o beneficio de minerales no metalicos,CARR 57 KM 220 TRAMO MONCLOVA P. NEGRAS,No disponible,50810344,315337791,26170,22,No disponible,No aplica,No disponible,No disponible,No disponible,"28°30'0""",NAVA,"100°40'0""",0,Nava,No disponible,No disponible,No disponible,No disponible,No disponible,28.5,-100.666666666667,1,0,1,1,1,5,1,22,28.5,-100.666666666667,5_22_1_7440-43-9_2004
65298bc1bb426186d90608ae,0.000061494,0,0,2004,7440-38-2,0,5,0,COAHUILA,,1,0,MINERA CARBONIFERA RIO ESCONDIDO S.A DE C.V. MINA V SUBTERRANEA,MCRRP0502211,0,0,0,Metalurgica (incluye la siderurgica),0,Arsénico,0,kg/año,EXTRACCION DE CARBON MINA SUBTERRANEA,Extraccion y/o beneficio de minerales no metalicos,CARR 57 KM 220 TRAMO MONCLOVA P. NEGRAS,No disponible,50810344,315337791,26170,22,No disponible,No aplica,No disponible,No disponible,No disponible,"28°30'0""",NAVA,"100°40'0""",0,Nava,No disponible,No disponible,No disponible,No disponible,No disponible,28.5,-100.666666666667,1,0,1,1,1,5,1,22,28.5,-100.666666666667,5_22_1_7440-38-2_2004
65298bc1bb426186d90608b4,0.002,0,0,2004,7440-43-9,0,5,0,COAHUILA,,1,0,MINERA CARBONIFERA RIO ESCONDIDO S.A. DE C.V. MINA II,MCRRP0502221,0,0,0,Metalurgica (incluye la siderurgica),0,Cadmio,0,kg/año,EXTRACCIÓN DE CARBON MINA SUBTERRANEA,Extraccion y/o beneficio de minerales no metalicos,CARRETERA 57 KM 220 TRAMO MONCLOVA P. N.,No disponible,0,0,26170,22,No disponible,No aplica,No disponible,No disponible,No disponible,"28°28'37""",NAVA,"100°38'23""",0,Nava,No disponible,No disponible,No disponible,No disponible,No disponible,28.4769444444444,-100.639722222222,1,0,1,1,1,5,1,22,28.4769444444444,-100.639722222222,5_22_1_7440-43-9_2004
65298bc1bb426186d90608b6,0.00046465,0,0,2004,7440-38-2,0,5,0,COAHUILA,,1,0,MINERA CARBONIFERA RIO ESCONDIDO S.A. DE C.V. MINA II,MCRRP0502221,0,0,0,Metalurgica (incluye la siderurgica),0,Arsénico,0,kg/año,EXTRACCIÓN DE CARBON MINA SUBTERRANEA,Extraccion y/o beneficio de minerales no metalicos,CARRETERA 57 KM 220 TRAMO MONCLOVA P. N.,No disponible,0,0,26170,22,No disponible,No aplica,No disponible,No disponible,No disponible,"28°28'37""",NAVA,"100°38'23""",0,Nava,No disponible,No disponible,No disponible,No disponible,No disponible,28.4769444444444,-100.639722222222,1,0,1,1,1,5,1,22,28.4769444444444,-100.639722222222,5_22_1_7440-38-2_2004
65298bc1bb426186d90608b8,0.0000702091,0,0,2004,7440-38-2,0,5,0,COAHUILA,,1,0,MINERA CARBONIFERA RIO ESCONDIDO PLANTA LAVADORA,MCRRP0502231,0,0,0,Metalurgica (incluye la siderurgica),0,Arsénico,0,kg/año,LAVADO Y MEZCLADO DEL CARBON,Extraccion y/o beneficio de minerales no metalicos,CARRETERA 57 KM 220 TRAMO MONCLOVA PN.,No disponible,0,0,26170,22,No disponible,No aplica,No disponible,No disponible,No disponible,"28°29'23""",NAVA,"100°40'13""",0,Nava,No disponible,No disponible,No disponible,No disponible,No disponible,28.4897222222222,-100.670277777778,1,0,1,1,1,5,1,22,28.4897222222222,-100.670277777778,5_22_1_7440-38-2_2004
65298bc1bb426186d90608b9,0.001,0,0,2004,7440-43-9,0,5,0,COAHUILA,,1,0,MINERA CARBONIFERA RIO ESCONDIDO PLANTA LAVADORA,MCRRP0502231,0,0,0,Metalurgica (incluye la siderurgica),0,Cadmio,0,kg/año,LAVADO Y MEZCLADO DEL CARBON,Extraccion y/o beneficio de minerales no metalicos,CARRETERA 57 KM 220 TRAMO MONCLOVA PN.,No disponible,0,0,26170,22,No disponible,No aplica,No disponible,No disponible,No disponible,"28°29'23""",NAVA,"100°40'13""",0,Nava,No disponible,No disponible,No disponible,No disponible,No disponible,28.4897222222222,-100.670277777778,1,0,1,1,1,5,1,22,28.4897222222222,-100.670277777778,5_22_1_7440-43-9_2004
65298bc2bb426186d90617ae,0,606.11,0,2019,7440-38-2,0,5,0,COAHUILA,,1,0,"CFE GENERACIÓN VI,CFE GENERACIÓN VI CENTRAL TERMOELÉCTRICA JOSÉ LÓPEZ PORTILLO",CGV0502200023,0,0,0,Generación de energía eléctrica,0,Arsénico,0,kg/año,GENERACIÓN DE ENERGÍA ELÉCTRICA,No disponible,Carretera  FEDERAL 57 KM 27.5,No disponible,334387.8057,3152258.7753,26170,22,AD,No aplica,"Generación, transmisión y distribución de energía eléctrica",No disponible,No disponible,"28°29'11""",NAVA,"100°41'30""",0,Nava,S/N , ,NAVA ,221110,Generacion y transmision de energia electrica,28.4863888888889,-100.691666666667,1,0,1,1,1,5,1,22,28.4863888888889,-100.691666666667,5_22_1_7440-38-2_2019
65298bc2bb426186d90617b0,0,1921.82,0,2019,71-43-2,0,5,0,COAHUILA,,1,0,"CFE GENERACIÓN VI,CFE GENERACIÓN VI CENTRAL TERMOELÉCTRICA JOSÉ LÓPEZ PORTILLO",CGV0502200023,0,0,0,Generación de energía eléctrica,0,Benceno,0,kg/año,GENERACIÓN DE ENERGÍA ELÉCTRICA,No disponible,Carretera  FEDERAL 57 KM 27.5,No disponible,334387.8057,3152258.7753,26170,22,AD,No aplica,"Generación, transmisión y distribución de energía eléctrica",No disponible,No disponible,"28°29'11""",NAVA,"100°41'30""",0,Nava,S/N , ,NAVA ,221110,Generacion y transmision de energia electrica,28.4863888888889,-100.691666666667,1,0,1,1,1,5,1,22,28.4863888888889,-100.691666666667,5_22_1_71-43-2_2019
65298bc2bb426186d90617b1,0,75.4,0,2019,7440-43-9,0,5,0,COAHUILA,,1,0,"CFE GENERACIÓN VI,CFE GENERACIÓN VI CENTRAL TERMOELÉCTRICA JOSÉ LÓPEZ PORTILLO",CGV0502200023,0,0,0,Generación de energía eléctrica,0,Cadmio,0,kg/año,GENERACIÓN DE ENERGÍA ELÉCTRICA,No disponible,Carretera  FEDERAL 57 KM 27.5,No disponible,334387.8057,3152258.7753,26170,22,AD,No aplica,"Generación, transmisión y distribución de energía eléctrica",No disponible,No disponible,"28°29'11""",NAVA,"100°41'30""",0,Nava,S/N , ,NAVA ,221110,Generacion y transmision de energia electrica,28.4863888888889,-100.691666666667,1,0,1,1,1,5,1,22,28.4863888888889,-100.691666666667,5_22_1_7440-43-9_2019
65298bc2bb426186d90617b3,0,354.8,0,2019,50-00-0,0,5,0,COAHUILA,,1,0,"CFE GENERACIÓN VI,CFE GENERACIÓN VI CENTRAL TERMOELÉCTRICA JOSÉ LÓPEZ PORTILLO",CGV0502200023,0,0,0,Generación de energía eléctrica,0,Formaldehido,0,kg/año,GENERACIÓN DE ENERGÍA ELÉCTRICA,No disponible,Carretera  FEDERAL 57 KM 27.5,No disponible,334387.8057,3152258.7753,26170,22,AD,No aplica,"Generación, transmisión y distribución de energía eléctrica",No disponible,No disponible,"28°29'11""",NAVA,"100°41'30""",0,Nava,S/N , ,NAVA ,221110,Generacion y transmision de energia electrica,28.4863888888889,-100.691666666667,1,0,1,1,1,5,1,22,28.4863888888889,-100.691666666667,5_22_1_50-00-0_2019
65298bc2bb426186d90617b6,0,413.93,0,2019,7440-02-0,0,5,0,COAHUILA,,2B,0,"CFE GENERACIÓN VI,CFE GENERACIÓN VI CENTRAL TERMOELÉCTRICA JOSÉ LÓPEZ PORTILLO",CGV0502200023,0,0,0,Generación de energía eléctrica,0,"Níquel (polvos respirables, humos o vapores)",0,kg/año,GENERACIÓN DE ENERGÍA ELÉCTRICA,No disponible,Carretera  FEDERAL 57 KM 27.5,No disponible,334387.8057,3152258.7753,26170,22,AD,No aplica,"Generación, transmisión y distribución de energía eléctrica",No disponible,No disponible,"28°29'11""",NAVA,"100°41'30""",0,Nava,S/N , ,NAVA ,221110,Generacion y transmision de energia electrica,28.4863888888889,-100.691666666667,1,0,1,1,1,5,1,22,28.4863888888889,-100.691666666667,5_22_2B_7440-02-0_2019
65298bc2bb426186d90617b7,0,620.9,0,2019,7439-92-1,0,5,0,COAHUILA,,2B,0,"CFE GENERACIÓN VI,CFE GENERACIÓN VI CENTRAL TERMOELÉCTRICA JOSÉ LÓPEZ PORTILLO",CGV0502200023,0,0,0,Generación de energía eléctrica,0,"Plomo (polvos respirables, humos o vapores)",0,kg/año,GENERACIÓN DE ENERGÍA ELÉCTRICA,No disponible,Carretera  FEDERAL 57 KM 27.5,No disponible,334387.8057,3152258.7753,26170,22,AD,No aplica,"Generación, transmisión y distribución de energía eléctrica",No disponible,No disponible,"28°29'11""",NAVA,"100°41'30""",0,Nava,S/N , ,NAVA ,221110,Generacion y transmision de energia electrica,28.4863888888889,-100.691666666667,1,0,1,1,1,5,1,22,28.4863888888889,-100.691666666667,5_22_2B_7439-92-1_2019
65298bc4bb426186d906379e,0.5305239,0,0,2013,7440-43-9,0,5,0,COAHUILA,,1,0,COMPAÑIA CERVECERA DE COAHUILA S. DE R.L. DE C.V.,CCO300502211,0,0,0,Bebidas y tabaco,0.0080736,Cadmio,0,kg/año,FABRICACION Y VENTA DE CERVEZA,No disponible,CARRETERA 57 KM. 233.2,No disponible,No disponible,No disponible,26170,22,30,No aplica,Elaboración de cerveza.,No disponible,No disponible,"28°34'49""",RIO ESCONDIDO,"100°36'3""",0,Nava,85,No disponible,No disponible,312120,Produccion de bebidas alcoholicas a base de fermentacion y/o destilacion,28.5802777777778,-100.600833333333,1,0,1,1,1,5,1,22,28.5802777777778,-100.600833333333,5_22_1_7440-43-9_2013
65298bc4bb426186d90637a2,1.8787522,0,0,2013,7440-38-2,0,5,0,COAHUILA,,1,0,COMPAÑIA CERVECERA DE COAHUILA S. DE R.L. DE C.V.,CCO300502211,0,0,0,Bebidas y tabaco,0,Arsénico,0,kg/año,FABRICACION Y VENTA DE CERVEZA,No disponible,CARRETERA 57 KM. 233.2,No disponible,No disponible,No disponible,26170,22,30,No aplica,Elaboración de cerveza.,No disponible,No disponible,"28°34'49""",RIO ESCONDIDO,"100°36'3""",0,Nava,85,No disponible,No disponible,312120,Produccion de bebidas alcoholicas a base de fermentacion y/o destilacion,28.5802777777778,-100.600833333333,1,0,1,1,1,5,1,22,28.5802777777778,-100.600833333333,5_22_1_7440-38-2_2013
65298bc4bb426186d906394a,5,0,0,2013,7440-38-2,0,5,0,COAHUILA,,1,0,CFE C.T. CARBÓN II,CFEAD0502221,0,0,0,Generación de energía eléctrica,0,Arsénico,0,kg/año,GENERACIÓN Y TRANSMISIÓN DE ENERGÍA ELÉCTRICA (SÓLO GENERACIÓN; INCLUYE LAS INSTALACIONES,No disponible,CARR. FED.57 KM 31.5 TRAMO P. NEGRA-MONC,N.A.,No disponible,No disponible,26170,22,AD,No aplica,"Generación, transmisión y distribución de energía eléctrica.",No disponible,No disponible,"28°27'42""",NAVA,"100°42'10""",0,Nava,N.A.,N.A.,AREA DESPOBLADA,221110,Generacion y transmision de energia electrica,28.4616666666667,-100.702777777778,1,0,1,1,1,5,1,22,28.4616666666667,-100.702777777778,5_22_1_7440-38-2_2013
65298bc8bb426186d9067209,4.305848539,0,0,2015,7440-38-2,0,5,0,COAHUILA,,1,0,"COMPAÑÍA CERVECERA DE COAHUILA, S. DE R.L. DE C.V., COMPAÑIA CERVECERA DE COAHUILA, S. DE R.L. DE C.V.",CCO300502211,0,0,0,Bebidas y tabaco,0,Arsénico,0,kg/año,FABRICACIÓN Y VENTA DE CERVEZA,No disponible,Carretera  57,No disponible,343430.5351,3162537.0405,26170,22,30,No aplica,Elaboración de cerveza,No disponible,No disponible,"28°34'49""",Nava,"100°36'3""",0,Nava,85 N/A,N/A N/A,NAVA CENTRO,312120,Produccion de bebidas alcoholicas a base de fermentacion y/o destilacion,28.5802777777778,-100.600833333333,1,0,1,1,1,5,1,22,28.5802777777778,-100.600833333333,5_22_1_7440-38-2_2015
65298bc8bb426186d906720b,35.46866836,0,0,2015,7440-02-0,0,5,0,COAHUILA,,2B,0,"COMPAÑÍA CERVECERA DE COAHUILA, S. DE R.L. DE C.V., COMPAÑIA CERVECERA DE COAHUILA, S. DE R.L. DE C.V.",CCO300502211,0,0,0,Bebidas y tabaco,0,"Níquel (polvos respirables, humos o vapores)",0,kg/año,FABRICACIÓN Y VENTA DE CERVEZA,No disponible,Carretera  57,No disponible,343430.5351,3162537.0405,26170,22,30,No aplica,Elaboración de cerveza,No disponible,No disponible,"28°34'49""",Nava,"100°36'3""",0,Nava,85 N/A,N/A N/A,NAVA CENTRO,312120,Produccion de bebidas alcoholicas a base de fermentacion y/o destilacion,28.5802777777778,-100.600833333333,1,0,1,1,1,5,1,22,28.5802777777778,-100.600833333333,5_22_2B_7440-02-0_2015
65298bc8bb426186d906720c,1.59160078,0,0,2015,7439-92-1,0,5,44.223899,COAHUILA,,2B,0,"COMPAÑÍA CERVECERA DE COAHUILA, S. DE R.L. DE C.V., COMPAÑIA CERVECERA DE COAHUILA, S. DE R.L. DE C.V.",CCO300502211,0,0,0,Bebidas y tabaco,47.58952591,"Plomo (polvos respirables, humos o vapores)",0,kg/año,FABRICACIÓN Y VENTA DE CERVEZA,No disponible,Carretera  57,No disponible,343430.5351,3162537.0405,26170,22,30,No aplica,Elaboración de cerveza,No disponible,No disponible,"28°34'49""",Nava,"100°36'3""",0,Nava,85 N/A,N/A N/A,NAVA CENTRO,312120,Produccion de bebidas alcoholicas a base de fermentacion y/o destilacion,28.5802777777778,-100.600833333333,1,0,1,1,1,5,1,22,28.5802777777778,-100.600833333333,5_22_2B_7439-92-1_2015
65298bc8bb426186d90672ac,54,0,0,2015,7440-38-2,0,5,0,COAHUILA,,1,0,"COMISIÓN FEDERAL DE ELECTRICIDAD,CENTRAL TERMOELÉCTRICA CARBÓN II",CFEAD0502221,0,0,0,Generación de energía eléctrica,0,Arsénico,0,kg/año,GENERACIÓN DE ENERGÍA ELÉCTRICA,No disponible,"Carretera  FEDERAL 57,",Ejido EL ENCINO,333240.637,3149606.9947,26170,22,AD,No aplica,"Generación, transmisión y distribución de energía eléctrica",No disponible,No disponible,"28°27'44""",Nava,"100°42'11""",0,Nava,KM 31.5,No disponible,No disponible,221110,Generacion y transmision de energia electrica,28.4622222222222,-100.703055555556,1,0,1,1,1,5,1,22,28.4622222222222,-100.703055555556,5_22_1_7440-38-2_2015
65298bc8bb426186d90672b2,150,0,0,2015,7439-92-1,0,5,0,COAHUILA,,2B,0,"COMISIÓN FEDERAL DE ELECTRICIDAD,CENTRAL TERMOELÉCTRICA CARBÓN II",CFEAD0502221,0,0,0,Generación de energía eléctrica,0,"Plomo (polvos respirables, humos o vapores)",0,kg/año,GENERACIÓN DE ENERGÍA ELÉCTRICA,No disponible,"Carretera  FEDERAL 57,",Ejido EL ENCINO,333240.637,3149606.9947,26170,22,AD,No aplica,"Generación, transmisión y distribución de energía eléctrica",No disponible,No disponible,"28°27'44""",Nava,"100°42'11""",0,Nava,KM 31.5,No disponible,No disponible,221110,Generacion y transmision de energia electrica,28.4622222222222,-100.703055555556,1,0,1,1,1,5,1,22,28.4622222222222,-100.703055555556,5_22_2B_7439-92-1_2015
65298bcabb426186d9068e95,0.02603499552,0,0,2006,7440-43-9,0,5,0,COAHUILA,,1,0,CENTRAL TERMOELECTRICA JOSE LOPEZ PORTILLO,CFEAD0502211,0,0,0,Generación de energía eléctrica,0,Cadmio,0,kg/año,GENERACIÓN DE ENERGIA ELECTRICA,No disponible,CARRETERA FED. 57 KM 27.5 TRAMO P.N.-MON,N.A.,No disponible,No disponible,26530,22,AD,No aplica,"Generación, transmisión y distribución de energía eléctrica",No disponible,No disponible,"28°28'0""",NAVA,"100°41'0""",0,Nava,N.A.,N.A.,No disponible,221110,Generacion y transmision de energia electrica,28.4666666666667,-100.683333333333,1,0,1,1,1,5,1,22,28.4666666666667,-100.683333333333,5_22_1_7440-43-9_2006
65298bcabb426186d9068e96,0.001120951196,0,0,2006,7440-38-2,0,5,0,COAHUILA,,1,0,CENTRAL TERMOELECTRICA JOSE LOPEZ PORTILLO,CFEAD0502211,0,0,0,Generación de energía eléctrica,0,Arsénico,0,kg/año,GENERACIÓN DE ENERGIA ELECTRICA,No disponible,CARRETERA FED. 57 KM 27.5 TRAMO P.N.-MON,N.A.,No disponible,No disponible,26530,22,AD,No aplica,"Generación, transmisión y distribución de energía eléctrica",No disponible,No disponible,"28°28'0""",NAVA,"100°41'0""",0,Nava,N.A.,N.A.,No disponible,221110,Generacion y transmision de energia electrica,28.4666666666667,-100.683333333333,1,0,1,1,1,5,1,22,28.4666666666667,-100.683333333333,5_22_1_7440-38-2_2006
65298bcabb426186d9068e9e,0.026020157,0,0,2006,7440-38-2,0,5,0,COAHUILA,,1,0,CFE C.T. CARBON II,CFEAD0502221,0,0,0,Generación de energía eléctrica,0,Arsénico,0,kg/año,GENERACIÓN Y TRANSMISIÓN DE ENERGÍA ELÉCTRICA (SÓLO GENERACIÓN; INCLUYE LAS INSTALACIONES,No disponible,CARR. 57 KM 31.5 TRAMO P. NEG. MONCLOVA,N.A.,No disponible,No disponible,26170,22,AD,No aplica,"Generación, transmisión y distribución de energía eléctrica",No disponible,No disponible,"28°27'42""",NAVA,"100°42'10""",0,Nava,N.A.,N.A.,AREA DESPOBLADA,221110,Generacion y transmision de energia electrica,28.4616666666667,-100.702777777778,1,0,1,1,1,5,1,22,28.4616666666667,-100.702777777778,5_22_1_7440-38-2_2006
65298bcebb426186d906bb55,2.5152049,0,0,2012,7440-38-2,0,5,0,COAHUILA,Metales,1,0,"COMPAÑÍA CERVECERA DE COAHUILA, S.A. DE C.V.",CCO300502211,0,0,0,Bebidas y tabaco,0,Arsénico,0,kg/año,FABRICACION Y VENTA DE CERVEZA,No disponible,CARRETERA 57 KM 233.2,No disponible,No disponible,No disponible,26170,22,30,No aplica,Elaboración de cerveza.,No disponible,No disponible,"28°34'49""",No disponible,"100°36'3""",0,Nava,85,No disponible,"CORREDOR INDUSTRIAL, COMERCIAL Y DE SERVICIOS",312120,No disponible,28.5802777777778,-100.600833333333,1,0,1,1,1,5,1,22,28.5802777777778,-100.600833333333,5_22_1_7440-38-2_2012
65298bcebb426186d906bb56,1.1582412,0,0,2012,7440-43-9,0,5,0,COAHUILA,Metales,1,0,"COMPAÑÍA CERVECERA DE COAHUILA, S.A. DE C.V.",CCO300502211,0,0,0,Bebidas y tabaco,0,Cadmio,0,kg/año,FABRICACION Y VENTA DE CERVEZA,No disponible,CARRETERA 57 KM 233.2,No disponible,No disponible,No disponible,26170,22,30,No aplica,Elaboración de cerveza.,No disponible,No disponible,"28°34'49""",No disponible,"100°36'3""",0,Nava,85,No disponible,"CORREDOR INDUSTRIAL, COMERCIAL Y DE SERVICIOS",312120,No disponible,28.5802777777778,-100.600833333333,1,0,1,1,1,5,1,22,28.5802777777778,-100.600833333333,5_22_1_7440-43-9_2012
65298bcebb426186d906bc8a,19.1481752,0,0,2012,7440-38-2,0,5,0,COAHUILA,Metales,1,0,CFE C.T. CARBÓN II,CFEAD0502221,0,0,0,Generación de energía eléctrica,0,Arsénico,0,kg/año,GENERACIÓN Y TRANSMISIÓN DE ENERGÍA ELÉCTRICA (SÓLO GENERACIÓN; INCLUYE LAS INSTALACIONES,No disponible,CARR. FED.57 KM 31.5 TRAMO P. NEGRA-MONC,N.A.,No disponible,No disponible,26170,22,AD,No aplica,"Generación, transmisión y distribución de energía eléctrica.",N.A,N.A,"28°27'42""",NAVA,"100°42'10""",0,Nava,N.A.,N.A.,AREA DESPOBLADA,221110,No disponible,28.4616666666667,-100.702777777778,1,0,1,1,1,5,1,22,28.4616666666667,-100.702777777778,5_22_1_7440-38-2_2012
65298ba7bb426186d904e6c8,0,0,0,2021,7439-92-1,0,5,5.5,COAHUILA,,2B,0,"MINERA LA ENCANTADA, S.A. DE C.V.,MINERA LA ENCANTADA",MEN0502300003,0,0,0,Metalurgica (incluye la siderurgica),0,"Plomo (polvos respirables, humos o vapores)",0,kg/año,EXTRACCIÓN Y BENEFICIO DE MINERAL DE PLATA ,No disponible,Brecha No Aplica,Colonia LA ENCANTADA,741209.7058,3139756.046,27531,23,MJ,No aplica,Minería de plata,No disponible,No disponible,"28°21'42""",Ocampo,"102°32'20""",0,Ocampo,SIN NUMERO , ,No disponible,212222,Mineria de plata,28.3616666666667,-102.538888888889,1,0,1,1,1,5,1,23,28.3616666666667,-102.538888888889,5_23_2B_7439-92-1_2021
65298babbb426186d90517a7,0,0,0,2016,7439-92-1,0,5,4.354,COAHUILA,,2B,0,"MINERA LA ENCANTADA, S.A. DE C.V.,MINERA LA ENCANTADA",MEN0502300003,0,0,0,Metalurgica (incluye la siderurgica),0,"Plomo (polvos respirables, humos o vapores)",0,kg/año,BENEFICIO DE PLATA,No disponible,Brecha No Aplica,Colonia LA ENCANTADA,741209.7058,3139756.046,27531,23,MJ,No aplica,Minería de plata,No disponible,No disponible,"28°21'42""",Ocampo,"102°32'20""",0,Ocampo,SIN NUMERO,No disponible,No disponible,212222,Mineria de plata,28.3616666666667,-102.538888888889,1,0,1,1,1,5,1,23,28.3616666666667,-102.538888888889,5_23_2B_7439-92-1_2016
65298bbfbb426186d905f33e,0,0,0,2020,7439-92-1,0,5,350,COAHUILA,,2B,0,"MINERA LA ENCANTADA, S.A. DE C.V.,MINERA LA ENCANTADA",MEN0502300003,0,0,0,Metalurgica (incluye la siderurgica),0,"Plomo (polvos respirables, humos o vapores)",0,kg/año,EXTRACCIÓN DE MINERAL DE PLATA ,No disponible,Brecha No Aplica,Colonia LA ENCANTADA,741209.7058,3139756.046,27531,23,MJ,No aplica,Minería de plata,No disponible,No disponible,"28°21'42""",OCAMPO,"102°32'20""",0,Ocampo,SIN NUMERO , ,No disponible,212222,Mineria de plata,28.3616666666667,-102.538888888889,1,0,1,1,1,5,1,23,28.3616666666667,-102.538888888889,5_23_2B_7439-92-1_2020
65298bc2bb426186d906226b,0,0,0,2019,7439-92-1,0,5,370,COAHUILA,,2B,0,"LA ENCANTADA PROCESADORA DE MINERALES, S.A. DE C.V.,LA ENCANTADA PROCESADORA DE MINERALES",EPM0502300002,0,0,0,Cemento y Cal,0,"Plomo (polvos respirables, humos o vapores)",0,kg/año,BENEFICIO DE PLATA ,No disponible,Brecha No Aplica,Colonia LA ENCANTADA,738123.9241,3139427.2647,27531,23,MJ,No aplica,Minería de plata,No disponible,No disponible,"28°21'34""",OCAMPO,"102°34'13""",0,Ocampo,S/N , ,No disponible,212222,Mineria de plata,28.3594444444444,-102.570277777778,1,0,1,1,1,5,1,23,28.3594444444444,-102.570277777778,5_23_2B_7439-92-1_2019
65298ba7bb426186d904eec7,0,0,0,2021,118-74-1,0,5,0.0012,COAHUILA,,2B,0,"SOUTHWEST MANUFACTURAS DE MEXICO, S. DE R.L. DE C.V.,LINCOLN INDUSTRIES",SMM1I0502511,0,0,0,Quimica,0,Hexaclorobenceno,0,kg/año,RECUBRIMIENTO Y TERMINADOS METÁLICOS ,No disponible,Avenida AV. INDUSTRIAL,Colonia PARQUE INDUSTRIAL PIEDRAS NEGRAS,348066.5775,3173936.5018,26070,25,8A,No aplica,Recubrimientos y terminados metálicos,No disponible,No disponible,"28°41'1""",Piedras Negras,"100°33'18""",0,Piedras Negras,S/N , ,No disponible,332810,Galvanoplastia,28.6836111111111,-100.555,1,0,1,1,1,5,1,25,28.6836111111111,-100.555,5_25_2B_118-74-1_2021
65298ba8bb426186d904f0da,0,0,0,2021,7439-92-1,400.2,5,0,COAHUILA,,2B,0,"UTILITY TRAILER MANUFACTURING DE MEXICO S. DE R.L. DE C.V,UTILITY MANUFACTURING DE MEXICO S. DE R.L. DE C.V.",UTM0502500104,0,0,0,Automotriz,0,"Plomo (polvos respirables, humos o vapores)",0,kg/año,FABRICACIÓN DE CARROCERÍAS Y REMOLQUES,No disponible,Calle BUSTAMANTE,Colonia BRAVO,351602.1384,3173669.0724,26030,25,9H,No aplica,Fabricación de carrocerías y remolques,No disponible,No disponible,"28°40'54""",Piedras Negras,"100°31'7""",0,Piedras Negras,300, ,No disponible,336210,Produccion de carrocerias para autotransportes,28.6816666666667,-100.518611111111,1,0,1,1,1,5,1,25,28.6816666666667,-100.518611111111,5_25_2B_7439-92-1_2021
65298ba9bb426186d904fc5d,0,0,0,2014,7439-92-1,0,5,26.78,COAHUILA,,2B,0,"INDUSTRIAS LANCERMEX, S.A. DE C.V.,- PLANTA MANUFACTURA",ILALK0502511,0,0,0,Articulos y productos metalicos,0,"Plomo (polvos respirables, humos o vapores)",0,kg/año,Fabricación de otra maquinaria y equipo para el comercio y los servicios,No disponible,Avenida DOCTOR SALVADOR CHAVARRIA,Colonia MUNDO NUEVO,No disponible,No disponible,26010,25,8L,No aplica,Fabricación de otra maquinaria y equipo para el comercio y los servicios,No disponible,No disponible,"28°43'37""",Piedras Negras,"100°31'12""",0,Piedras Negras,100, ,No disponible,333319,"Produccion de maquinaria, equipos, aparatos, partes y/o sus piezas",28.7269444444444,-100.52,1,0,1,1,1,5,1,25,28.7269444444444,-100.52,5_25_2B_7439-92-1_2014
65298ba9bb426186d904fdf2,0,50.05,0,2014,7439-92-1,0,5,0,COAHUILA,,2B,0,"LITTELFUSE S. DE R.L. DE C.V.,",LIT1F0502511,0,0,0,"Equipos y articulos electronicos, electricos y domesticos",0,"Plomo (polvos respirables, humos o vapores)",0,kg/año,"FABRICACION DE FUSIBLES Y PORTAFUSIBLES AUTOMOTRICES, ELECTRONICOS E INDUSTRIALES",No disponible,Boulevard LIBRAMIENTO V. CARRANZA,No disponible,No disponible,No disponible,26090,25,91,No aplica,Fabricación de equipo eléctrico y electrónico y sus partes para vehículos automotores,No disponible,No disponible,"28°38'43""",Piedras Negras,"100°32'13""",0,Piedras Negras,2501, ,BUSSINES PARK,336320,"Produccion de aparatos, equipos y/o accesorios electricos y/o electronicos",28.6452777777778,-100.536944444444,1,0,1,1,1,5,1,25,28.6452777777778,-100.536944444444,5_25_2B_7439-92-1_2014
65298ba9bb426186d904fe00,0,0,0,2014,7440-43-9,0,5,18,COAHUILA,,1,0,"LEAR MEXICAN TRIM OPERATIONS S DE RL DE CV,LEAR MEXICAN TRIM OPERATIONS PLANTA 1-2",LMT9M0502511,0,0,0,Automotriz,0,Cadmio,0,kg/año,FABRICACIÓN Y ENSAMBLE DE  PARTES Y ACCESORIOS PARA AUTOMÓVILES,No disponible,Calle BLVD. REPUBLICA,Colonia PARQUE INDUSTRIAL RIO GRANDE,No disponible,No disponible,26080,25,9M,No aplica,Fabricación de otras partes para vehículos automotrices,No disponible,No disponible,"28°40'49""",Piedras Negras,"100°34'14""",0,Piedras Negras,130, ,No disponible,336390,Produccion de otras auto partes,28.6802777777778,-100.570555555556,1,0,1,1,1,5,1,25,28.6802777777778,-100.570555555556,5_25_1_7440-43-9_2014
65298bafbb426186d9053177,0,15.4497,0,2017,7439-92-1,0,5,0,COAHUILA,,2B,0,"LITTELFUSE S. DE R.L. DE C.V.,",LIT1F0502511,0,0,0,Automotriz,0,"Plomo (polvos respirables, humos o vapores)",0,kg/año,"FABRICACION DE FUSIBLES Y PORTAFUSIBLES AUTOMOTRICES, ELECTRONICOS E INDUSTRIALES",No disponible,Boulevard LIBRAMIENTO V. CARRANZA,No disponible,349779.619,3169668.3099,26090,25,9M,No aplica,Otras industrias manufactureras,No disponible,No disponible,"28°38'43""",PIEDRAS NEGRAS,"100°32'13""",0,Piedras Negras,2501, ,BUSSINES PARK,339999,Produccion de otras auto partes,28.6452777777778,-100.536944444444,1,0,1,1,1,5,1,25,28.6452777777778,-100.536944444444,5_25_2B_7439-92-1_2017
65298bb5bb426186d9057a83,1.403e-7,0,0,2007,7440-38-2,0,5,0,COAHUILA,,1,0,LEAR MEXICAN TRIM OPERATIONS S. DE R.L. DE .C.V.,LMT9M0502511,0,0,0,Automotriz,0,Arsénico,0,kg/año,FABRICACION Y/O ENSAMBLE DE PARTES Y ACCESORIOS AUTOMOTRICES,No disponible,BLVD. REPUBLICA,GUILLEN,0,0,26080,25,9M,No aplica,Fabricación de otras partes para vehículos automotrices.,No disponible,No disponible,"28°40'49""",PIEDRAS NEGRAS,"100°34'10""",0,Piedras Negras,130,No disponible,DESARROLLO INDUSTRIAL RIO GRANDE,336390,Produccion de otras auto partes,28.6802777777778,-100.569444444444,1,0,1,1,1,5,1,25,28.6802777777778,-100.569444444444,5_25_1_7440-38-2_2007
65298bb5bb426186d9057a85,0.0000014047,0,0,2007,7440-43-9,0,5,0,COAHUILA,,1,0,LEAR MEXICAN TRIM OPERATIONS S. DE R.L. DE .C.V.,LMT9M0502511,0,0,0,Automotriz,0,Cadmio,0,kg/año,FABRICACION Y/O ENSAMBLE DE PARTES Y ACCESORIOS AUTOMOTRICES,No disponible,BLVD. REPUBLICA,GUILLEN,0,0,26080,25,9M,No aplica,Fabricación de otras partes para vehículos automotrices.,No disponible,No disponible,"28°40'49""",PIEDRAS NEGRAS,"100°34'10""",0,Piedras Negras,130,No disponible,DESARROLLO INDUSTRIAL RIO GRANDE,336390,Produccion de otras auto partes,28.6802777777778,-100.569444444444,1,0,1,1,1,5,1,25,28.6802777777778,-100.569444444444,5_25_1_7440-43-9_2007
65298bb5bb426186d9057a87,0,1.5249,0,2007,75-09-2,0,5,0,COAHUILA,,2A,0,LEAR MEXICAN TRIM OPERATIONS S. DE R.L. DE .C.V.,LMT9M0502511,0,0,0,Automotriz,0,Cloruro de metileno,0,kg/año,FABRICACION Y/O ENSAMBLE DE PARTES Y ACCESORIOS AUTOMOTRICES,No disponible,BLVD. REPUBLICA,GUILLEN,0,0,26080,25,9M,No aplica,Fabricación de otras partes para vehículos automotrices.,No disponible,No disponible,"28°40'49""",PIEDRAS NEGRAS,"100°34'10""",0,Piedras Negras,130,No disponible,DESARROLLO INDUSTRIAL RIO GRANDE,336390,Produccion de otras auto partes,28.6802777777778,-100.569444444444,1,0,1,1,1,5,1,25,28.6802777777778,-100.569444444444,5_25_2A_75-09-2_2007
65298bb6bb426186d905871c,0.00067792386,0,0,2007,7440-38-2,0,5,0,COAHUILA,,1,0,RASSINI S.A. DE C.V.,RAS9K0502511,0,0,0,Automotriz,0,Arsénico,0,kg/año,PRODUCCIÓN DE PARTES PARA EL SISTEMA DE SUSPENSIÓN Y DIRECCIÓN (SI INCLUYE PROCESOS TÉRMIC,No disponible,PUERTO ARTURO,NICOLÁS BRAVO,No disponible,No disponible,26030,25,9K,No aplica,Fabricación de partes de sistemas de dirección y de suspensión para vehículos automotrices.,No disponible,No disponible,"28°41'22""",PIEDRAS NEGRAS,"100°31'22""",0,Piedras Negras,803,No disponible,DESARROLLO INDUSTRIAL RASSINI,336330,Produccion de partes para el sistema de suspension y direccion,28.6894444444444,-100.522777777778,1,0,1,1,1,5,1,25,28.6894444444444,-100.522777777778,5_25_1_7440-38-2_2007
65298bb6bb426186d905871e,0.00167572286,0,0,2007,7440-43-9,0,5,0,COAHUILA,,1,0,RASSINI S.A. DE C.V.,RAS9K0502511,0,0,0,Automotriz,0,Cadmio,0,kg/año,PRODUCCIÓN DE PARTES PARA EL SISTEMA DE SUSPENSIÓN Y DIRECCIÓN (SI INCLUYE PROCESOS TÉRMIC,No disponible,PUERTO ARTURO,NICOLÁS BRAVO,No disponible,No disponible,26030,25,9K,No aplica,Fabricación de partes de sistemas de dirección y de suspensión para vehículos automotrices.,No disponible,No disponible,"28°41'22""",PIEDRAS NEGRAS,"100°31'22""",0,Piedras Negras,803,No disponible,DESARROLLO INDUSTRIAL RASSINI,336330,Produccion de partes para el sistema de suspension y direccion,28.6894444444444,-100.522777777778,1,0,1,1,1,5,1,25,28.6894444444444,-100.522777777778,5_25_1_7440-43-9_2007
65298bb7bb426186d90587ed,0.000047174,0,0,2007,7440-38-2,0,5,0,COAHUILA,,1,0,RASSINI TORSION BARS S.A. DE C.V,RTB9K0502511,0,0,0,Automotriz,0,Arsénico,0,kg/año,FABRICACION DE BARRAS DE TORSION,No disponible,PUERTO ARTURO,BRAVO,No disponible,No disponible,26030,25,9K,No aplica,Fabricación de partes de sistemas de dirección y de suspensión para vehículos automotrices.,No disponible,No disponible,28.68934,PIEDRAS NEGRAS,-100.52043,0,Piedras Negras,805,No disponible,DESARROLLO INDUSTRIAL RASSINI,336330,Produccion de partes para el sistema de suspension y direccion,28.68934,-100.52043,0,0,1,1,1,5,1,25,28.68934,-100.52043,5_25_1_7440-38-2_2007
65298bb7bb426186d90587ef,0.000145152,0,0,2007,7440-43-9,0,5,0,COAHUILA,,1,0,RASSINI TORSION BARS S.A. DE C.V,RTB9K0502511,0,0,0,Automotriz,0,Cadmio,0,kg/año,FABRICACION DE BARRAS DE TORSION,No disponible,PUERTO ARTURO,BRAVO,No disponible,No disponible,26030,25,9K,No aplica,Fabricación de partes de sistemas de dirección y de suspensión para vehículos automotrices.,No disponible,No disponible,28.68934,PIEDRAS NEGRAS,-100.52043,0,Piedras Negras,805,No disponible,DESARROLLO INDUSTRIAL RASSINI,336330,Produccion de partes para el sistema de suspension y direccion,28.68934,-100.52043,0,0,1,1,1,5,1,25,28.68934,-100.52043,5_25_1_7440-43-9_2007
65298bb9bb426186d905a63f,0,96.79,0,2010,75-09-2,0,5,0,COAHUILA,,2A,0,MOTORES DOMESTICOS DE PIEDRAS NEGRAS S. DE R.L DE C.V,MFM8T0502512,0,0,0,"Equipos y articulos electronicos, electricos y domesticos",0,Cloruro de metileno,0,kg/año,FABRICACION Y ENSAMBLE DE MOTORES Y ESTATORES ELECTRICOS,No disponible,LIBR. GRAL. MANUEL PEREZ TREVIÑO,LOMAS DEL NORTE,No disponible,No disponible,26080,25,8T,No aplica,Fabricación de motores y generadores eléctricos.,No disponible,No disponible,"28°40'39""",No disponible,"100°33'9""",0,Piedras Negras,SIN NUMERO,No disponible,PARQUE INDUSTRIAL AMISTAD,335311,Produccion de motores electricos,28.6775,-100.5525,1,0,1,1,1,5,1,25,28.6775,-100.5525,5_25_2A_75-09-2_2010
65298bbcbb426186d905c9f3,0,0,0.000004429152,2009,7440-38-2,0,5,0,COAHUILA,,1,0,HENDRICKSON SPRING MÉXICO S. DE R.L. DE C.V.,HSM9K0502511,0,0,0,Automotriz,0,Arsénico,0,kg/año,PRODUCCIÓN DE PARTES PARA EL SISTEMA DE SUSPENSIÓN Y DIRECCIÓN (SI INCLUYE PROCESOS TÉRMIC,No disponible,RASSINI S.A. DE C.V.,NICOLÁS BRAVO,No disponible,No disponible,26030,25,9K,No aplica,Fabricación de partes de sistemas de dirección y de suspensión para vehículos automotrices.,No disponible,No disponible,28.68925,PIEDRAS NEGRAS,-100.52168,0,Piedras Negras,801,No disponible,No disponible,336330,Produccion de partes para el sistema de suspension y direccion,28.68925,-100.52168,0,0,1,1,1,5,1,25,28.68925,-100.52168,5_25_1_7440-38-2_2009
65298bbcbb426186d905cdb6,0,0,2.983456e-7,2009,7440-38-2,0,5,0,COAHUILA,,1,0,LEAR MEXICAN TRIM OPERATIONS S. DE R.L. DE .C.V.,LMT9M0502511,0,0,0,Automotriz,0,Arsénico,0,kg/año,FABRICACION Y/O ENSAMBLE DE PARTES Y ACCESORIOS AUTOMOTRICES,No disponible,BLVD. REPUBLICA,GUILLEN,0,0,26080,25,9M,No aplica,Fabricación de otras partes para vehículos automotrices.,No disponible,No disponible,"28°40'49""",PIEDRAS NEGRAS,"100°34'10""",0,Piedras Negras,130,No disponible,DESARROLLO INDUSTRIAL RIO GRANDE,336390,Produccion de otras auto partes,28.6802777777778,-100.569444444444,1,0,1,1,1,5,1,25,28.6802777777778,-100.569444444444,5_25_1_7440-38-2_2009
65298bbcbb426186d905cdb8,0,0,0.000002983456,2009,7440-43-9,0,5,0,COAHUILA,,1,0,LEAR MEXICAN TRIM OPERATIONS S. DE R.L. DE .C.V.,LMT9M0502511,0,0,0,Automotriz,0,Cadmio,0,kg/año,FABRICACION Y/O ENSAMBLE DE PARTES Y ACCESORIOS AUTOMOTRICES,No disponible,BLVD. REPUBLICA,GUILLEN,0,0,26080,25,9M,No aplica,Fabricación de otras partes para vehículos automotrices.,No disponible,No disponible,"28°40'49""",PIEDRAS NEGRAS,"100°34'10""",0,Piedras Negras,130,No disponible,DESARROLLO INDUSTRIAL RIO GRANDE,336390,Produccion de otras auto partes,28.6802777777778,-100.569444444444,1,0,1,1,1,5,1,25,28.6802777777778,-100.569444444444,5_25_1_7440-43-9_2009
65298bbcbb426186d905cdbd,0,1.68,0,2009,75-09-2,0,5,0,COAHUILA,,2A,0,LEAR MEXICAN TRIM OPERATIONS S. DE R.L. DE .C.V.,LMT9M0502511,0,0,0,Automotriz,0,Cloruro de metileno,0,kg/año,FABRICACION Y/O ENSAMBLE DE PARTES Y ACCESORIOS AUTOMOTRICES,No disponible,BLVD. REPUBLICA,GUILLEN,0,0,26080,25,9M,No aplica,Fabricación de otras partes para vehículos automotrices.,No disponible,No disponible,"28°40'49""",PIEDRAS NEGRAS,"100°34'10""",0,Piedras Negras,130,No disponible,DESARROLLO INDUSTRIAL RIO GRANDE,336390,Produccion de otras auto partes,28.6802777777778,-100.569444444444,1,0,1,1,1,5,1,25,28.6802777777778,-100.569444444444,5_25_2A_75-09-2_2009
65298bbcbb426186d905cf9d,0,0.0488,0,2009,75-09-2,0,5,0,COAHUILA,,2A,0,MOTORES DOMESTICOS DE PIEDRAS NEGRAS S. DE R.L DE C.V,MFM8T0502512,0,0,0,"Equipos y articulos electronicos, electricos y domesticos",0,Cloruro de metileno,0,kg/año,FABRICACION Y ENSAMBLE DE MOTORES Y ESTATORES ELECTRICOS,No disponible,LIBR. GRAL. MANUEL PEREZ TREVIÑO,LOMAS DEL NORTE,0,0,26080,25,8T,No aplica,Fabricación de motores y generadores eléctricos.,No disponible,No disponible,"28°40'39""",No disponible,"100°33'9""",0,Piedras Negras,SIN NUMERO,No disponible,PARQUE INDUSTRIAL AMISTAD,335311,Produccion de motores electricos,28.6775,-100.5525,1,0,1,1,1,5,1,25,28.6775,-100.5525,5_25_2A_75-09-2_2009
65298bc0bb426186d905fa1b,0,0,0,2020,118-74-1,0,5,0.0012,COAHUILA,,2B,0,"SOUTHWEST MANUFACTURAS DE MEXICO, S. DE R.L. DE C.V.,LINCOLN INDUSTRIES",SMM1I0502511,0,0,0,Quimica,0,Hexaclorobenceno,0,kg/año,RECUBRIMIENTO Y TERMINADOS METÁLICOS ,No disponible,Avenida AV. INDUSTRIAL,Colonia PARQUE INDUSTRIAL PIEDRAS NEGRAS,348066.5775,3173936.5018,26070,25,8A,No aplica,Recubrimientos y terminados metálicos,No disponible,No disponible,"28°41'1""",PIEDRAS NEGRAS,"100°33'18""",0,Piedras Negras,S/N , ,No disponible,332810,Galvanoplastia,28.6836111111111,-100.555,1,0,1,1,1,5,1,25,28.6836111111111,-100.555,5_25_2B_118-74-1_2020
65298bc0bb426186d905fc01,0,0,0,2020,7439-92-1,58.8,5,0,COAHUILA,,2B,0,"UTILITY TRAILER MANUFACTURING DE MEXICO S. DE R.L. DE C.V,UTILITY MANUFACTURING DE MEXICO S. DE R.L. DE C.V.",UTM0502500104,0,0,0,Automotriz,0,"Plomo (polvos respirables, humos o vapores)",0,kg/año,FABRICACIÓN DE CARROCERÍAS Y REMOLQUES,No disponible,Calle BUSTAMANTE,Colonia BRAVO,351602.1384,3173669.0724,26030,25,9H,No aplica,Fabricación de carrocerías y remolques,No disponible,No disponible,"28°40'54""",PIEDRAS NEGRAS,"100°31'7""",0,Piedras Negras,300, ,No disponible,336210,Produccion de carrocerias para autotransportes,28.6816666666667,-100.518611111111,1,0,1,1,1,5,1,25,28.6816666666667,-100.518611111111,5_25_2B_7439-92-1_2020
65298bc1bb426186d9060e41,0.0000026956,0,0,2004,7440-38-2,0,5,0,COAHUILA,,1,0,RASSINI S.A. DE C.V.,RAS9K0502511,0,0,0,Automotriz,0,Arsénico,0,kg/año,PRODUCCIÓN DE PARTES PARA EL SISTEMA DE SUSPENSIÓN Y DIRECCIÓN (SI INCLUYE PROCESOS TÉRMIC,Produccion de partes para el sistema de suspension y direccion,PUERTO ARTURO,NICOLÁS BRAVO,0,0,26030,25,No disponible,No aplica,No disponible,AV. RASSINI,No disponible,"28°41'22""",PIEDRAS NEGRAS,"100°31'22""",0,Piedras Negras,803,No disponible,DESARROLLO INDUSTRIAL RASSINI,No disponible,No disponible,28.6894444444444,-100.522777777778,1,0,1,1,1,5,1,25,28.6894444444444,-100.522777777778,5_25_1_7440-38-2_2004
65298bc1bb426186d9060eb7,0.00000960336,0,0,2004,7440-38-2,0,5,0,COAHUILA,,1,0,RASSINI TORSION BARS S.A. DE C.V,RTB9K0502511,0,0,0,Automotriz,0,Arsénico,0,kg/año,FABRICACION DE BARRAS DE TORSION,Produccion de partes para el sistema de suspension y direccion,PUERTO ARTURO,BRAVO,0,0,26030,25,No disponible,No aplica,No disponible,No disponible,No disponible,28.68934,PIEDRAS NEGRAS,-100.52043,0,Piedras Negras,805,No disponible,DESARROLLO INDUSTRIAL RASSINI,No disponible,No disponible,28.68934,-100.52043,0,0,1,1,1,5,1,25,28.68934,-100.52043,5_25_1_7440-38-2_2004
65298bc1bb426186d9060fc3,0.0000011456,0,0,2004,7440-38-2,0,5,0,COAHUILA,,1,0,SUSPENSIONES RASSINI S.A. DE C.V.,SRA9K0502511,0,0,0,Automotriz,0,Arsénico,0,kg/año,FABRICACION DE MUELLES AUTOMOTRICES,Produccion de partes para el sistema de suspension y direccion,AV. RASSINI,NICOLAS BRAVO,0,0,26030,25,No disponible,No aplica,No disponible,No disponible,No disponible,28.68898,PIEDRAS NEGRAS,-100.52076,0,Piedras Negras,805,No disponible,DESARROLLO INDUSTRIAL RASSINI,No disponible,No disponible,28.68898,-100.52076,0,0,1,1,1,5,1,25,28.68898,-100.52076,5_25_1_7440-38-2_2004
65298bc3bb426186d9062c64,0,0,0,2019,118-74-1,0,5,0.0012,COAHUILA,,2B,0,"SOUTHWEST MANUFACTURAS DE MEXICO, S. DE R.L. DE C.V.,",SMM1I0502511,0,0,0,Quimica,0,Hexaclorobenceno,0,kg/año,RECUBRIMIENTO Y TERMINADOS METÁLICOS ,No disponible,Calle AV. INDUSTRIAL,Colonia PARQUE INDUSTRIAL PIEDRAS NEGRAS,348066.5775,3173936.5018,26070,25,8A,No aplica,Otras industrias manufactureras,No disponible,No disponible,"28°41'1""",PIEDRAS NEGRAS,"100°33'18""",0,Piedras Negras,S/N , ,No disponible,339999,Galvanoplastia,28.6836111111111,-100.555,1,0,1,1,1,5,1,25,28.6836111111111,-100.555,5_25_2B_118-74-1_2019
65298bc9bb426186d9067ad3,0,0,0,2015,7439-92-1,0,5,619.71,COAHUILA,,2B,0,"INDUSTRIAS LANCERMEX, S.A. DE C.V.,- PLANTA MANUFACTURA",ILALK0502511,0,0,0,Articulos y productos metalicos,0,"Plomo (polvos respirables, humos o vapores)",0,kg/año,Fabricación de otra maquinaria y equipo para el comercio y los servicios,No disponible,Avenida DOCTOR SALVADOR CHAVARRIA,Colonia MUNDO NUEVO,351548.8978,3178690.6227,26010,25,8L,No aplica,Fabricación de otra maquinaria y equipo para el comercio y los servicios,No disponible,No disponible,"28°43'37""",Piedras Negras,"100°31'12""",0,Piedras Negras,100,No disponible,No disponible,333319,"Produccion de maquinaria, equipos, aparatos, partes y/o sus piezas",28.7269444444444,-100.52,1,0,1,1,1,5,1,25,28.7269444444444,-100.52,5_25_2B_7439-92-1_2015
65298bc9bb426186d9067c94,0,14.3,0,2015,7439-92-1,0,5,0,COAHUILA,,2B,0,"LITTELFUSE S. DE R.L. DE C.V.,",LIT1F0502511,0,0,0,"Equipos y articulos electronicos, electricos y domesticos",0,"Plomo (polvos respirables, humos o vapores)",0,kg/año,"FABRICACION DE FUSIBLES Y PORTAFUSIBLES AUTOMOTRICES, ELECTRONICOS E INDUSTRIALES",No disponible,Boulevard LIBRAMIENTO V. CARRANZA,No disponible,349779.619,3169668.3099,26090,25,91,No aplica,Fabricación de equipo eléctrico y electrónico y sus partes para vehículos automotores,No disponible,No disponible,"28°38'43""",Piedras Negras,"100°32'13""",0,Piedras Negras,2501,No disponible,BUSSINES PARK,336320,"Produccion de aparatos, equipos y/o accesorios electricos y/o electronicos",28.6452777777778,-100.536944444444,1,0,1,1,1,5,1,25,28.6452777777778,-100.536944444444,5_25_2B_7439-92-1_2015
65298bcebb426186d906b9c9,0,0,0,2012,7440-38-2,0,5,0,COAHUILA,Metales,1,0,"BEBIDAS MUNDIALES, S. DE R.L. DE C.V.",BMU2P0502211,0,0,0,Bebidas y tabaco,0.031461,Arsénico,0,kg/año,ELABORACION Y DISTRIBUCION DE BEBIDAS CON Y SIN GAS Y HIELO Y AGUA PURIFICADA,No disponible,CARR. FED 57 TRAMO PN NAVA,No disponible,No disponible,No disponible,64290,25,36,No aplica,Elaboración de refrescos y otras bebidas no alcohólicas.,ND,ND,"28°36'13""",NAVA,"100°34'59""",0,Piedras Negras,No disponible,No disponible,DESPOBLADO,312111,No disponible,28.6036111111111,-100.583055555556,1,0,1,1,1,5,0,22,28.6916182,-100.5408622,5_25_1_7440-38-2_2012
65298bcebb426186d906b9ca,0,0,0,2012,7440-43-9,0,5,0,COAHUILA,Metales,1,0,"BEBIDAS MUNDIALES, S. DE R.L. DE C.V.",BMU2P0502211,0,0,0,Bebidas y tabaco,0.52435,Cadmio,0,kg/año,ELABORACION Y DISTRIBUCION DE BEBIDAS CON Y SIN GAS Y HIELO Y AGUA PURIFICADA,No disponible,CARR. FED 57 TRAMO PN NAVA,No disponible,No disponible,No disponible,64290,25,36,No aplica,Elaboración de refrescos y otras bebidas no alcohólicas.,ND,ND,"28°36'13""",NAVA,"100°34'59""",0,Piedras Negras,No disponible,No disponible,DESPOBLADO,312111,No disponible,28.6036111111111,-100.583055555556,1,0,1,1,1,5,0,22,28.6916182,-100.5408622,5_25_1_7440-43-9_2012