CLEE,Name,Stratum,Entity,Municipality,Locality,AGEB,rdate,NAICSCode,NAICSName,Latitude,Longitude
02001212221000011000000000U9,OJOS NEGROS MINING,0 a 5 personas,Baja California,Ensenada,Ensenada,628,2020-11,212221,Minería de oro,31.86015795,-116.63179153
02001212291000013000000000U8,B.C. MINING CO. SA DE CV,11 a 30 personas,Baja California,Ensenada,Ensenada,076A,2012-06,212291,Minería de manganeso,31.85883281,-116.61208314
02002212221000011000000000S7,MINERA REAL DE ANGELES SA DE CV,0 a 5 personas,Baja California,Mexicali,Mineral Real de Ángeles,3738,2014-12,212221,Minería de oro,31.58400194,-115.11213778
02002212221000021000040128S6,MINERA REAL DE ANGELES SAN FELIPE,251 y más personas,Baja California,Mexicali,Mineral Real de Ángeles,3738,2020-04,212221,Minería de oro,31.58400194,-115.11213778
02003212110000021000000000U8,INDUSTRIAS CAL STONE S.A DE C.V.,6 a 10 personas,Baja California,Tecate,La Rumorosa,726,2020-11,212110,Minería de carbón mineral,32.52464931,-116.0582705
05002212395000013100055025S2,MINERA PICO ETEREO SA DE CV,11 a 30 personas,Coahuila de Zaragoza,Frontera,Frontera,175,2012-06,212395,Minería de fluorita,26.94745985,-101.45161162
05010213119000013000055025M8,MINERA PICO ETEREO SA DE CV,0 a 5 personas,Coahuila de Zaragoza,Frontera,Frontera,175,2016-01,212395,Minería de fluorita,26.94745985,-101.45161162
05018212110000045001000000U3,MINERA SIDERURGICA COAHUILA,101 a 250 personas,Coahuila de Zaragoza,Monclova,Almacén de Coimsa [Minera Siderúrgica],1519,2014-12,212110,Minería de carbón mineral,26.85733528,-101.37438278
05018213119000016010000000U4,CONSORCIO INDUSTRIAL DE CONSTRUCCION TITANES,101 a 250 personas,Coahuila de Zaragoza,Monclova,La Cola de Agua,1449,2019-04,212110,Minería de carbón mineral,26.9841325,-101.20339611
05020212110000011000023164S1,UNIDAD MIMOSA,0 a 5 personas,Coahuila de Zaragoza,Múzquiz,Ciudad Melchor Múzquiz,220A,2011-03,212110,Minería de carbón mineral,27.87380443,-101.49615301
05020212110000102000000000U8,COMERCIALIZADORA HÉRCULES S.A. DE C.V.,6 a 10 personas,Coahuila de Zaragoza,Múzquiz,Minas de Barroterán,1343,2014-12,212110,Minería de carbón mineral,27.64791892,-101.28077706
05020212110000141000023164S6,PLANTA LAVADORA AREA CARBON,0 a 5 personas,Coahuila de Zaragoza,Múzquiz,Palaú,59,2010-07,212110,Minería de carbón mineral,27.90646245,-101.42629465
05020212110000151001000000U5,UNIDAD MIMOSA,251 y más personas,Coahuila de Zaragoza,Múzquiz,Palaú,2500,2014-12,212110,Minería de carbón mineral,27.88808592,-101.40119171
05020212110000173000000000U9,MINERA SIN NOMBRE,11 a 30 personas,Coahuila de Zaragoza,Múzquiz,Ciudad Melchor Múzquiz,1220,2019-11,212110,Minería de carbón mineral,27.87595683,-101.5107138
05020212110000201000000000U8,OFICINA MINERA JIPA,0 a 5 personas,Coahuila de Zaragoza,Múzquiz,Ciudad Melchor Múzquiz,1220,2020-11,212110,Minería de carbón mineral,27.87597982,-101.51074389
05020212210000024000000000U2,SERVICIO AREA CARBON,31 a 50 personas,Coahuila de Zaragoza,Múzquiz,Palaú,2500,2020-11,212110,Minería de carbón mineral,27.88828052,-101.40026269
05020212222000016101000000S3,GRUPO FIRST MAJESTIC SILVER CORP.,101 a 250 personas,Coahuila de Zaragoza,Ocampo,La Encantada [Mina],2907,2010-07,212222,Minería de plata,28.36023472,-102.55853278
05020212222000031000019774S2,OFICINA AUXILIAR DE ENLACE,0 a 5 personas,Coahuila de Zaragoza,Múzquiz,Ciudad Melchor Múzquiz,220A,2019-04,212222,Minería de plata,27.87378422,-101.49712942
05020212395000011200055027S8,MINA LA SABINA BUENAVISTA,101 a 250 personas,Coahuila de Zaragoza,Ocampo,La Sabina,2822,2010-07,212395,Minería de fluorita,28.53573926,-102.50236421
05020212395000031001000000U6,ASOCIACION NACIONAL DE PEQUEÑOS Y MEDIANOS PRODUCTORES DE FLUORITA AC,101 a 250 personas,Coahuila de Zaragoza,Múzquiz,Ciudad Melchor Múzquiz,1220,2010-07,212395,Minería de fluorita,27.87660886,-101.51169602
05020212395000041001055026M5,OFICINA ADMINISTRATIVA MINERA RAMOS,0 a 5 personas,Coahuila de Zaragoza,Múzquiz,Ciudad Melchor Múzquiz,1235,2010-07,212395,Minería de fluorita,27.87348515,-101.52008238
05020212395000051001000000U4,MINERA MUZQUIZ,31 a 50 personas,Coahuila de Zaragoza,Múzquiz,El Calvario [Mina],947,2010-07,212395,Minería de fluorita,27.83906641,-101.56592487
05020212395000061001000000U3,"MINERA EL CALVARIO, S.A. DE C.V.",31 a 50 personas,Coahuila de Zaragoza,Múzquiz,El Calvario [Mina],947,2010-07,212395,Minería de fluorita,27.83791583,-101.56650583
05020212395000073101055026S8,PLANTA DE BENEFICIO POLVO INERTE DE FLOURITA,11 a 30 personas,Coahuila de Zaragoza,San Juan de Sabinas,Ramos [Minera],219,2010-07,212395,Minería de fluorita,27.93772972,-101.25666917
05020212395000083001055027M7,MINA LA SABINA BUENAVISTA,6 a 10 personas,Coahuila de Zaragoza,Múzquiz,Ciudad Melchor Múzquiz,1220,2016-01,212395,Minería de fluorita,27.8780151,-101.51179939
05020212395000092000000000U8,"MINERALES MIRASA, S.A. DE C.V.",6 a 10 personas,Coahuila de Zaragoza,Múzquiz,Ciudad Melchor Múzquiz,1235,2019-11,212110,Minería de carbón mineral,27.87353449,-101.52003169
05022212110000017000023164S4,UNIDAD MICARE,0 a 5 personas,Coahuila de Zaragoza,Nava,Micare [Mina lV],87,2010-07,212110,Minería de carbón mineral,28.4829105,-100.6431637
05023212222000017001019774M5,MINERA LA ENCANTADA,101 a 250 personas,Coahuila de Zaragoza,Ocampo,La Encantada [Mina],2907,2014-12,212222,Minería de plata,28.36023472,-102.55853278
05023212222000026000000000U6,LA ENCANTADA PROCESADORA DE MINERALES,101 a 250 personas,Coahuila de Zaragoza,Ocampo,La Encantada (La Prieta),2907,2019-04,212222,Minería de plata,28.36016455,-102.57709156
05023212232000015001000000U8,MAPA TRANSPORTES,31 a 50 personas,Coahuila de Zaragoza,Ocampo,El Ranchito,3676,2014-12,212232,Minería de plomo y zinc,27.34692913,-102.41754447
05026212110000043000055029S1,CARBONIFERA DE SAN PATRICIO,11 a 30 personas,Coahuila de Zaragoza,Progreso,Aura [Estación],368,2016-01,212110,Minería de carbón mineral,27.57161184,-101.33901576
05028212110000021000000000U3,MINERA HECHOS,11 a 30 personas,Coahuila de Zaragoza,Sabinas,Sabinas,413,2011-03,212110,Minería de carbón mineral,27.86215789,-101.12667462
05028212110000031100000000U2,CARBONIFERA MANANTIAL,11 a 30 personas,Coahuila de Zaragoza,Múzquiz,Las Delicias,195A,2010-07,212110,Minería de carbón mineral,27.66857055,-101.29729917
05028212110000081001000000U7,UNION NACIONAL DE PRODUCTORES DE CARBON AC,51 a 100 personas,Coahuila de Zaragoza,Sabinas,Sabinas,485,2010-07,212110,Minería de carbón mineral,27.85327521,-101.11455934
05028212110000091001000000U6,MINERA CARBONIFERA LOS PENCOS,11 a 30 personas,Coahuila de Zaragoza,Sabinas,San Alberto,790,2011-03,212110,Minería de carbón mineral,27.77790861,-101.24605528
05028212110000222101000000U7,CARBONIFERA LA ESPERANZA,0 a 5 personas,Coahuila de Zaragoza,Abasolo,Los Fresnos,104,2010-07,212110,Minería de carbón mineral,27.12738,-101.27363333
05028212110000232000000000U6,MINERA 2G SA DE CV,11 a 30 personas,Coahuila de Zaragoza,Sabinas,La Angostura,790,2010-07,212110,Minería de carbón mineral,27.69756833,-100.96200833
05028212110000303100000000U5,ZEDUVIK SA DE CV,31 a 50 personas,Coahuila de Zaragoza,San Juan de Sabinas,Nueva Rosita,076A,2010-07,212110,Minería de carbón mineral,27.92471004,-101.20386802
05028212110000353000055028M0,OPERADORA INDUSTRIAL MINERA,0 a 5 personas,Coahuila de Zaragoza,Sabinas,Sabinas,413,2010-07,212110,Minería de carbón mineral,27.85936531,-101.12566846
05028212110000363100055030S9,ENERGIA MINERAL,11 a 30 personas,Coahuila de Zaragoza,Progreso,Mario Treviño (Las Cabras),353,2010-07,212110,Minería de carbón mineral,27.59013573,-101.12900313
05028212110000383101000000U7,MINERA LA BONITA SA DE CV,6 a 10 personas,Coahuila de Zaragoza,Múzquiz,Las Delicias,195A,2010-07,212110,Minería de carbón mineral,27.66220804,-101.30059039
05028212110000445100000000U4,TAJO EL COYOTE,11 a 30 personas,Coahuila de Zaragoza,Progreso,Los Compadres (Los Betos),33,2010-07,212110,Minería de carbón mineral,27.56579924,-101.15130105
05028212110000477000055029M7,CARBONIFERA DE SAN PATRICIO,6 a 10 personas,Coahuila de Zaragoza,Sabinas,Sabinas,377,2010-07,212110,Minería de carbón mineral,27.86448855,-101.1466893
05028212110000516000055028S2,OPERADORA INDUSTRIAL MINERA,101 a 250 personas,Coahuila de Zaragoza,Sabinas,Sabinas,413,2016-01,212110,Minería de carbón mineral,27.85995052,-101.12574637
05028212110000531001055030M1,ENERGIA MINERAL SA DE CV,6 a 10 personas,Coahuila de Zaragoza,Sabinas,Sabinas,470,2016-01,212110,Minería de carbón mineral,27.85013532,-101.12479276
05028212110000547001000000U7,MINERIA Y ENERGIA DEL NORESTE SA,101 a 250 personas,Coahuila de Zaragoza,Sabinas,Sabinas,856,2014-12,212110,Minería de carbón mineral,27.90429141,-101.16673411
05028212110000591001000000U5,COMERCIALIZADORA HEC-MAR,11 a 30 personas,Coahuila de Zaragoza,Sabinas,Sabinas,413,2010-07,212110,Minería de carbón mineral,27.85960769,-101.12597954
05028212110000601100000000U2,"MINERIA Y ENERGIA DEL NORESTE, S.A.",0 a 5 personas,Coahuila de Zaragoza,Progreso,Francisco Díaz,103,2014-12,212110,Minería de carbón mineral,27.43471389,-100.98308889
05028212110000611001000000U1,SERVICIOS MINEROS DEL NORTE SA,11 a 30 personas,Coahuila de Zaragoza,Sabinas,La Esperanza,767,2014-12,212110,Minería de carbón mineral,27.96977587,-101.21757821
05028212110000621001000000U0,INDUSTRIAL  MINERA AMERICA S.A. DE C.V.,11 a 30 personas,Coahuila de Zaragoza,Sabinas,Sabinas,377,2010-07,212110,Minería de carbón mineral,27.8645089,-101.14328847
05028212110000641201000000U8,MINERA ZAPALINAME,101 a 250 personas,Coahuila de Zaragoza,San Juan de Sabinas,Juan Garza,219,2014-12,212110,Minería de carbón mineral,27.96863694,-101.23610028
05028212110000654001000000U1,MIGAREST,11 a 30 personas,Coahuila de Zaragoza,Sabinas,Sabinas,964,2016-10,212110,Minería de carbón mineral,27.82801893,-101.13388379
05028212110000662001000000U4,PATIO DE CARBÓN,11 a 30 personas,Coahuila de Zaragoza,Sabinas,Sabinas,555,2016-10,212110,Minería de carbón mineral,27.83529916,-101.12429086
05028212110000674001000000U9,OPERADORA MINAS EL ISLERO,101 a 250 personas,Coahuila de Zaragoza,Sabinas,Sabinas,964,2017-11,212110,Minería de carbón mineral,27.82612667,-101.13343007
05028212110000881000000000U2,MINERA CARBONIFERA LAS 2 GLORIAS SA DE CV,11 a 30 personas,Coahuila de Zaragoza,Sabinas,Sabinas,1163,2020-11,212110,Minería de carbón mineral,27.87158291,-101.11553967
05028212110000891000000000U1,MINERA GENESIS SA DE CV,11 a 30 personas,Coahuila de Zaragoza,Sabinas,Sabinas,409,2020-11,212110,Minería de carbón mineral,27.8602233,-101.13113701
05028212110000901000000000U0,MINERA MIJE-G SA DE CV,11 a 30 personas,Coahuila de Zaragoza,Sabinas,Sabinas,396,2020-11,212110,Minería de carbón mineral,27.86629667,-101.12820059
05028212110000911000000000U3,OPERADORA INDUSTRIAL MINERA,11 a 30 personas,Coahuila de Zaragoza,Sabinas,Sabinas,413,2020-11,212110,Minería de carbón mineral,27.86264909,-101.12655041
05028212110000921000000000U7,BLACK FOSIL  SA DE CV,31 a 50 personas,Coahuila de Zaragoza,Sabinas,Sabinas,396,2020-11,212110,Minería de carbón mineral,27.86731174,-101.13122563
05028212110000931000000000U6,CIA INDUSTRIAL MINERA AMERICA SA  DE CV,31 a 50 personas,Coahuila de Zaragoza,Sabinas,Sabinas,377,2020-11,212110,Minería de carbón mineral,27.86584835,-101.14428078
05028212110000941000000000U1,MINERA Y LOGISTICA INDUSTRIAL ELIZONDO SA DE CV,0 a 5 personas,Coahuila de Zaragoza,Sabinas,Sabinas,432,2020-11,212110,Minería de carbón mineral,27.85747218,-101.12798696
05028212110000951000000000U2,INDUSTRIAL DE CARBON SIGNUM SAPI DE CV,31 a 50 personas,Coahuila de Zaragoza,Sabinas,Sabinas,451,2020-11,212110,Minería de carbón mineral,27.85323574,-101.12663967
05028212110000961000000000U3,OFICINA MINERA LA GENERALA,11 a 30 personas,Coahuila de Zaragoza,Sabinas,Sabinas,451,2020-11,212110,Minería de carbón mineral,27.85201008,-101.13067922
05028212110000971000000000U2,OFICINAS DE MINERALES Y ACARREOS DEL NORTE SA DE CV,11 a 30 personas,Coahuila de Zaragoza,Sabinas,Sabinas,396,2020-11,212110,Minería de carbón mineral,27.86882326,-101.1286302
05028212110000981000000000U8,JBN,0 a 5 personas,Coahuila de Zaragoza,Sabinas,Sabinas,428,2020-11,212110,Minería de carbón mineral,27.8555924,-101.13755024
05028212110000991000000000U7,MINERALS GROUP,0 a 5 personas,Coahuila de Zaragoza,Sabinas,Sabinas,409,2020-11,212110,Minería de carbón mineral,27.86278306,-101.1363187
05028212110001001000000000U4,UNION MEXICANA DE PRODUCTORES DE CARBON AC,0 a 5 personas,Coahuila de Zaragoza,Sabinas,Sabinas,428,2020-11,212110,Minería de carbón mineral,27.8609626,-101.13735799
05028212110001013000000000U9,COMERCIALIZADORA CARBONIFERA EL SIMARRON,11 a 30 personas,Coahuila de Zaragoza,Sabinas,Sabinas,413,2020-11,212110,Minería de carbón mineral,27.86113709,-101.1220988
05028212110001023000000000U8,BUFALO GRAL GROUP SA DE CV,11 a 30 personas,Coahuila de Zaragoza,Sabinas,Sabinas,409,2020-11,212110,Minería de carbón mineral,27.85810673,-101.13311026
05028212110001033000000000U7,SUMMAT DEL NORTE SA DE CV,11 a 30 personas,Coahuila de Zaragoza,Sabinas,Sabinas,856,2020-11,212110,Minería de carbón mineral,27.90343842,-101.16141914
05028212110001043000000000U6,MINERA MIJE-G,11 a 30 personas,Coahuila de Zaragoza,Sabinas,Sabinas,733,2020-11,212110,Minería de carbón mineral,27.88929566,-101.16247894
05028212110001053000000000U5,AA ELIZONDO Y ASOCIADOS SAA DE CV,11 a 30 personas,Coahuila de Zaragoza,Sabinas,Sabinas,409,2020-11,212110,Minería de carbón mineral,27.86094549,-101.13247003
05028212110001063000000000U4,DIMACEK SA DE CV,11 a 30 personas,Coahuila de Zaragoza,Sabinas,Sabinas,409,2020-11,212110,Minería de carbón mineral,27.86095182,-101.13247551
05028212110001073000000000U3,OFICINAS DE MINERA GUPA DE SABINAS,11 a 30 personas,Coahuila de Zaragoza,Sabinas,Sabinas,470,2020-11,212110,Minería de carbón mineral,27.85028423,-101.12278853
05028212110001093000000000U1,MINERALES Y DERIVADOS DE NUEVA ROSITA,11 a 30 personas,Coahuila de Zaragoza,Sabinas,Sabinas,856,2021-05,212110,Minería de carbón mineral,27.90174497,-101.1640158
05028212110001101000000000U2,COAL DEL NORTE,51 a 100 personas,Coahuila de Zaragoza,Sabinas,Sabinas,451,2021-05,212110,Minería de carbón mineral,27.85465787,-101.12559982
05030212110000081000000000U0,CARBOMET SA DE CV,51 a 100 personas,Coahuila de Zaragoza,Saltillo,Saltillo,2193,2020-11,212110,Minería de carbón mineral,25.44038006,-100.97563886
05032212110000011001055031S6,MINERA CARBONIFERA EL JUNCO,6 a 10 personas,Coahuila de Zaragoza,San Juan de Sabinas,Santa María,187,2010-07,212110,Minería de carbón mineral,27.98208892,-101.42380838
05032212110000053000001826M8,MINSA,251 y más personas,Coahuila de Zaragoza,San Juan de Sabinas,Minsa l [Materiales Industrializados],187,2014-12,212110,Minería de carbón mineral,27.98236833,-101.41180444
05032212110000121000000000U0,MINERÍA DE CARBÓN MINERAL,11 a 30 personas,Coahuila de Zaragoza,San Juan de Sabinas,Nueva Rosita,044A,2020-11,212110,Minería de carbón mineral,27.93065615,-101.20841517
05032212110000131000000000U1,OFICINAS DE MINERAS Y ACARREOS FLORES,11 a 30 personas,Coahuila de Zaragoza,San Juan de Sabinas,Nueva Rosita,308,2020-11,212110,Minería de carbón mineral,27.94877192,-101.23739843
05032212110000143000000000U0,FERVIM INGENIERIA,11 a 30 personas,Coahuila de Zaragoza,San Juan de Sabinas,Nueva Rosita,562,2020-11,212110,Minería de carbón mineral,27.94751095,-101.24310963
05032541721000011010002368S2,PLANTA NUEVA ROSITA,251 y más personas,Coahuila de Zaragoza,San Juan de Sabinas,Nueva Rosita,30,2010-07,212110,Minería de carbón mineral,27.93191104,-101.22814364
05032561330000011001055031M7,OFICINA MINERA CARBONIFERA EL JUNCO SA DE CV,11 a 30 personas,Coahuila de Zaragoza,San Juan de Sabinas,Nueva Rosita,295,2016-01,212110,Minería de carbón mineral,27.94493372,-101.22586343
05032813120000021011002368S7,CASA GRANDE,6 a 10 personas,Coahuila de Zaragoza,San Juan de Sabinas,Nueva Rosita,30,2010-07,212110,Minería de carbón mineral,27.93192291,-101.22814712
05034713299000011000000000U7,CASINO DE EMPLEADOS,0 a 5 personas,Coahuila de Zaragoza,Sierra Mojada,Hércules,1635,2014-12,212110,Minería de carbón mineral,28.04218434,-103.78918848
05035212221000027101000000U0,MINERA PENMNONT S DE RL DE CV,251 y más personas,Sonora,Caborca,El Sahuaro,1710,2011-03,212221,Minería de oro,31.04875371,-112.94192735
05035212221000037101000000U9,DESARROLLOS MINEROS FRESNE,6 a 10 personas,Sonora,Caborca,Las Flores,1763,2019-04,212221,Minería de oro,31.01260471,-112.37598961
05035212221000041000000000U1,ESTACIONAMIENTO FRESNILLO,0 a 5 personas,Coahuila de Zaragoza,Torreón,Torreón,2113,2020-11,212221,Minería de oro,25.51323114,-103.40822648
05035212231000017000000000U0,COMPAÑÍA MINERA LA PARREÑA,251 y más personas,Coahuila de Zaragoza,Torreón,Torreón,475,2010-07,212231,Minería de cobre,25.52329675,-103.4014723
05035212232000025201000000U1,MINERA BISMARK,251 y más personas,Chihuahua,Ascensión,El Bismarck,1764,2011-03,212232,Minería de plomo y zinc,31.23444307,-107.59290727
05035212232000074000000000U9,DESARROLLOS MINEROS BISMARK,251 y más personas,Chihuahua,Ascensión,El Bismarck,1764,2020-04,212232,Minería de plomo y zinc,31.2345795,-107.59254406
05035212232000084000000000U8,CIA INDUSTRIAL Y MINERA LAGUNERA,31 a 50 personas,Coahuila de Zaragoza,Torreón,Torreón,263,2020-11,212232,Minería de plomo y zinc,25.53920708,-103.44140467
05035213119000071011000000U3,MINERA MINEOLA SA DE CV,51 a 100 personas,Coahuila de Zaragoza,Torreón,Torreón,66,2010-07,212232,Minería de plomo y zinc,25.56690135,-103.42546035
08004212232000017000002368S1,SANTA EULALIA,251 y más personas,Chihuahua,Aquiles Serdán,San Antonio el Grande,010A,2010-07,212232,Minería de plomo y zinc,28.60373697,-105.81495804
08005212222000015000000000U3,CAMEX MINING COMPANY S.A. DE C.V.,51 a 100 personas,Chihuahua,Ascensión,Sabinal Viejo,2175,2014-12,212222,Minería de plata,30.93330083,-107.63649889
08005213119000013000000000U5,MINERA BISMARK,11 a 30 personas,Chihuahua,Ascensión,El Bismarck,1764,2020-11,212232,Minería de plomo y zinc,31.23031633,-107.58165291
08011488410000023100000000U3,MINERA DEL NORTE SA DE CV,0 a 5 personas,Chihuahua,Camargo,Santa Rosalía de Camargo,1507,2010-07,212110,Minería de carbón mineral,27.68611877,-105.16661766
08017212231000011000000000U8,MINERIA DE COBRE,0 a 5 personas,Chihuahua,Cusihuiriachi,Cusihuiriachi,1160,2016-01,212231,Minería de cobre,28.23989033,-106.83562303
08018212222000012010000000U3,MINA LA SOLEDAD,6 a 10 personas,Chihuahua,Cusihuiriachi,Cusihuiriachi,1160,2010-07,212231,Minería de cobre,28.23965868,-106.83648911
08019212221000041001000000U2,IMPULSORA MINERA MEXICANA SA DE CV,31 a 50 personas,Chihuahua,Maguarichi,Maguarichi,118,2016-01,212221,Minería de oro,27.8620339,-107.99843269
08019212221000091000000000U7,COMPAÑIA MINERA LA DURA,51 a 100 personas,Chihuahua,Chihuahua,Chihuahua,2185,2011-03,212221,Minería de oro,28.6353258,-106.10088001
08019212221000112200000000U1,CIA MINERA DOLORES SA DE CV,251 y más personas,Chihuahua,Madera,Dolores (Mineral de Dolores),1316,2010-07,212221,Minería de oro,28.99092714,-108.53157747
08019212221000151000000000U9,COMPAÑIA MINERA OYAMEL SA DE CV,0 a 5 personas,Chihuahua,Chihuahua,Chihuahua,1454,2016-01,212221,Minería de oro,28.6230924,-106.06556457
08019212221000161000000000U8,MINERA AURION DE MEXICO SA DE CV,0 a 5 personas,Chihuahua,Chihuahua,Chihuahua,1454,2016-01,212221,Minería de oro,28.6230924,-106.06556457
08019212221000244000055095S2,FIRST SILVER,31 a 50 personas,Chihuahua,Chihuahua,Chihuahua,5692,2020-11,212221,Minería de oro,28.66350631,-106.12867904
08019212221000254000055095S1,CUANZAMEX,31 a 50 personas,Chihuahua,Chihuahua,Chihuahua,5692,2020-11,212221,Minería de oro,28.66350631,-106.12867904
08019212221000264000055095S0,ANIMAS RESOURCES,31 a 50 personas,Chihuahua,Chihuahua,Chihuahua,5692,2020-11,212221,Minería de oro,28.66350631,-106.12867904
08019212221000274000055095S9,RECURSOS ESCONDIDOS,31 a 50 personas,Chihuahua,Chihuahua,Chihuahua,5692,2020-11,212221,Minería de oro,28.66350631,-106.12867904
08019212231000013000000000U0,COPERATIVA VETA DE PLATA,11 a 30 personas,Chihuahua,Chihuahua,Chihuahua,2293,2020-11,212231,Minería de cobre,28.6172416,-106.00823791
08019212232000043000000000U5,MINERA RIO TINTO SA DE CV,0 a 5 personas,Chihuahua,Chihuahua,Chihuahua,3179,2016-01,212232,Minería de plomo y zinc,28.64250055,-106.0913173
08019212299000053000041835M3,LC MINES,11 a 30 personas,Chihuahua,Chihuahua,Chihuahua,5692,2020-11,212221,Minería de oro,28.66350631,-106.12867904
08019213119000021000000000U9,SERVICIOS PINOS ALTOS,251 y más personas,Chihuahua,Chihuahua,Chihuahua,482A,2010-07,212221,Minería de oro,28.6233694,-106.1116058
08019213119000181011000000U1,PINOS ALTOS EXPLOTACION Y EXPLORACION,251 y más personas,Chihuahua,Ocampo,Pinos Altos [Compañía Minera],222,2019-04,212221,Minería de oro,28.27020167,-108.30366139
08019213119000233000000000U0,MINERA AGAVE,11 a 30 personas,Chihuahua,Chihuahua,Chihuahua,5692,2020-11,212221,Minería de oro,28.66350631,-106.12867904
08019541610000745011026502S4,SERVICIOS PASMEX SA DE CV,0 a 5 personas,Chihuahua,Chihuahua,Chihuahua,5688,2016-10,212222,Minería de plata,28.63021067,-106.11985334
08020213119000011011016706M8,COEUR MEXICANA,251 y más personas,Chihuahua,Chínipas,Palmarejo,300,2016-01,212222,Minería de plata,27.39801619,-108.41025888
08029212222000017000000000U9,MINERA SAN JULIAN,251 y más personas,Chihuahua,Guadalupe y Calvo,San Julián,1501,2022-11,212222,Minería de plata,26.037356,-106.520406
08030212221000011000016706S2,LA CURRA,0 a 5 personas,Chihuahua,Guazapares,La Curra,383,2016-01,212221,Minería de oro,27.33559556,-108.34703944
08030213119000014011000000U1,"MINERA MONTERDE, S. DE R.L. DE C.V.",6 a 10 personas,Chihuahua,Guazapares,Monterde (Monterde Viejo),345,2016-01,212222,Minería de plata,27.57101222,-108.07896056
08032212221000021010000000U1,COANZAMEX,101 a 250 personas,Chihuahua,Hidalgo del Parral,CERESO [Poder Judicial del Estado Distrito Parral],956,2016-01,212222,Minería de plata,26.93579774,-105.58833372
08032212221000045011000000U6,GRUPO RECOMPENSA S DE RL DE CV,31 a 50 personas,Chihuahua,Hidalgo del Parral,Las Ánimas de Abajo,937,2016-10,212222,Minería de plata,26.98641583,-105.62974694
08032212221000051000000000U4,MINERÍA DE ORO,6 a 10 personas,Chihuahua,Hidalgo del Parral,Hidalgo del Parral,458,2020-04,212221,Minería de oro,26.92499374,-105.65902828
08032212222000011100000000U6,MINERÍA DE PLATA,6 a 10 personas,Chihuahua,Coronado,Guajolotes,426,2010-07,212222,Minería de plata,26.56627944,-105.39433139
08032212222000021101055042S5,MINERÍA DE PLATA,11 a 30 personas,Chihuahua,Allende,El Álamo,371,2013-07,212222,Minería de plata,27.01097806,-105.44590378
08032212222000033001000000U0,GRUPO GORMINMET S. DE R.L DE C.V,101 a 250 personas,Chihuahua,Hidalgo del Parral,Hidalgo del Parral,1460,2010-07,212222,Minería de plata,26.97971339,-105.64452583
08032212222000061000055041S7,ENDEAVOUR MINERA PLATA,11 a 30 personas,Chihuahua,Hidalgo del Parral,Hidalgo del Parral,1352,2020-11,212222,Minería de plata,26.93694067,-105.71748806
08032212222000071000055042M6,OFICINA CONTABLE,0 a 5 personas,Chihuahua,Hidalgo del Parral,Hidalgo del Parral,458,2020-11,212222,Minería de plata,26.9270518,-105.65909276
08032212222000085000000000U0,TRANSFORMACIONES Y SERVICIOS METALURGICOS,51 a 100 personas,Chihuahua,Hidalgo del Parral,Hidalgo del Parral,621,2022-11,212222,Minería de plata,26.92544589,-105.7051328
08032212222000094000000000U2,MINA EL ARBOLITO,31 a 50 personas,Chihuahua,Hidalgo del Parral,El Arbolito,922,2022-11,212222,Minería de plata,26.95472271,-105.7106451
08032212222000101000000000U5,MINA LA CASUALIDAD,0 a 5 personas,Chihuahua,Hidalgo del Parral,La Esmeralda,941,2022-11,212222,Minería de plata,26.92949948,-105.7090122
08032212231000021000055039S6,MINA DIABRAS UNIDAD MALPASO,0 a 5 personas,Chihuahua,Hidalgo del Parral,Hidalgo del Parral,509,2022-11,212231,Minería de cobre,26.93821063,-105.6660974
08032212232000012000000000U3,MINA VIRGO,11 a 30 personas,Chihuahua,Hidalgo del Parral,Ánimas de Arriba,937,2011-03,212232,Minería de plomo y zinc,26.98913861,-105.64598833
08032212232000023010000000U0,"MINERALES VESPER, S.A. DE C.V.",11 a 30 personas,Chihuahua,Hidalgo del Parral,Vesper,937,2012-06,212222,Minería de plata,26.98592528,-105.64119333
08032212232000033000000000U9,MINERA MARTES 13,11 a 30 personas,Chihuahua,Hidalgo del Parral,La Palma,941,2016-10,212232,Minería de plomo y zinc,26.95491361,-105.70075278
08032212232000061000017291S6,MINERA FRESNILLO .A.DE C.V.,0 a 5 personas,Chihuahua,Hidalgo del Parral,Hidalgo del Parral,443,2020-11,212232,Minería de plomo y zinc,26.92758369,-105.64959615
08032212232000074000000000U0,GRUPO GORMINMET,31 a 50 personas,Chihuahua,Hidalgo del Parral,Hidalgo del Parral,1460,2020-11,212232,Minería de plomo y zinc,26.98115203,-105.66362476
08032213119000021000002368S2,TALLER CENTRAL,51 a 100 personas,Chihuahua,Hidalgo del Parral,Hidalgo del Parral,509,2010-07,212232,Minería de plomo y zinc,26.94139242,-105.66811106
08032213119000051011000000U9,TOMBSTONE EXPLORATION DE MEXICO S.A. DE C.V.,31 a 50 personas,Chihuahua,Hidalgo del Parral,Hidalgo del Parral,373,2010-07,212231,Minería de cobre,26.93333324,-105.67041882
08044212222000014000000000U5,JOAQUIN ROLANDO CHAVEZ GONZALEZ,31 a 50 personas,Chihuahua,Matamoros,San Martín,209,2010-07,212222,Minería de plata,26.72406232,-105.68918372
08044212232000015001000000U1,CONTRATISTAS DE OBRA MINERA SA DE CV,31 a 50 personas,Chihuahua,Matamoros,Mariano Matamoros,302,2010-07,212222,Minería de plata,26.77039687,-105.59199689
08044212232000023000000000U5,TRANSFORMACIONES Y SERVICIOS METALURGICOS,11 a 30 personas,Chihuahua,Matamoros,Peinado,209,2022-11,212232,Minería de plomo y zinc,26.74275365,-105.6363591
08047212221000021000000000U5,TAUNA,0 a 5 personas,Chihuahua,Moris,Moris,427,2010-07,212221,Minería de oro,28.15526653,-108.52742722
08047212221000031000000000U4,TAUNA,0 a 5 personas,Chihuahua,Moris,Moris,427,2010-07,212221,Minería de oro,28.15526653,-108.52742722
08047212221000041000000000U3,VIVIENDA EXTRACTORA DE METAL SIN NOMBRE,0 a 5 personas,Chihuahua,Moris,Moris,465,2010-07,212221,Minería de oro,28.15515604,-108.52905495
08047212221000051000000000U2,TAUNA,0 a 5 personas,Chihuahua,Moris,Moris,234,2010-07,212221,Minería de oro,28.15259604,-108.52787869
08047212221000073000000000U6,MINERA KGUY,11 a 30 personas,Chihuahua,Moris,El Pilar,395,2016-01,212221,Minería de oro,28.10665889,-108.6097231
08051212221000011000000000U8,"CIA MINERA DE CANDAMENA, S.A. DE C.V.",0 a 5 personas,Chihuahua,Ocampo,Candameña (La Capilla),256,2011-03,212221,Minería de oro,28.07060944,-108.29244028
08051212221000037000000000S3,"AGNICO EAGLE MÉXICO, S.A. DE C.V.",0 a 5 personas,Chihuahua,Ocampo,Pinos Altos [Compañía Minera],222,2016-01,212221,Minería de oro,28.27020167,-108.30366139
08051212221000041011000000S5,"AGNICO EAGLE MEXICO, S.A. DE C.V.",251 y más personas,Chihuahua,Ocampo,Cahuisori,237,2016-01,212222,Minería de plata,28.2133216,-108.2386656
08051212222000011001000000S6,UNIDAD CONCHEÑO,251 y más personas,Chihuahua,Ocampo,Concheño,190,2016-01,212222,Minería de plata,28.31263611,-108.22184611
08051212231000013000000000U3,"CIA MINERA LA CARIDAD, S.A. DE C.V.",0 a 5 personas,Chihuahua,Ocampo,Candameña (La Capilla),256,2011-03,212231,Minería de cobre,28.07060944,-108.29244028
08051213119000021011000000U2,OCAMPO MINING,251 y más personas,Chihuahua,Ocampo,Ocampo Mining,222,2019-04,212221,Minería de oro,28.19205305,-108.37482389
08056212231000015101000000U7,"MINERA RIO TINTO, S.A. DE C.V.",11 a 30 personas,Chihuahua,Chihuahua,Chihuahua,3179,2016-01,212231,Minería de cobre,28.64320104,-106.09101931
08059712111000011001000000U9,MINERA SAN FRANCISCO DEL ORO,251 y más personas,Chihuahua,San Francisco del Oro,San Francisco del Oro,146,2016-01,212222,Minería de plata,26.86564644,-105.8510489
08060212231000013000000000U4,MINERÍA DE COBRE,11 a 30 personas,Chihuahua,Santa Bárbara,Santiaguito,001A,2016-01,212231,Minería de cobre,26.87599528,-105.78508194
08060212232000027000002368S2,UNIDAD SANTA BARBARA,251 y más personas,Chihuahua,Santa Bárbara,Tahonas,151,2010-07,212232,Minería de plomo y zinc,26.82339667,-105.79676833
08060212232000037000002368S8,DIRECCIÓN DE MINAS INDUSTRIAL MINERA MÉXICO,251 y más personas,Chihuahua,Chihuahua,Chihuahua,3183,2014-12,212110,Minería de carbón mineral,28.65248023,-106.08865928
08062212222000017000000000U0,UNIDAD NAICA,251 y más personas,Chihuahua,Saucillo,Naica,423,2010-07,212232,Minería de plomo y zinc,27.85262427,-105.49599653
08065212221000016011000000U7,"MINERA RÍO TINTO, S.A. DE C.V.",251 y más personas,Chihuahua,Urique,Cieneguita Lluvia de Oro,444,2016-01,212232,Minería de plomo y zinc,27.13547693,-108.03015002
08065212231000017000055039M4,"BOLIVAR, CUSIHURIACHI Y MALPASO",251 y más personas,Chihuahua,Urique,Tierra Santa,444,2010-07,212231,Minería de cobre,27.09413571,-107.98903659
08065212231000021000055039S6,MINA DIABRAS,0 a 5 personas,Chihuahua,Urique,Cieneguita Lluvia de Oro,444,2022-11,212231,Minería de cobre,27.13022456,-108.0270851
08065213119000021011000000U2,EXMIN,251 y más personas,Chihuahua,Chihuahua,Chihuahua,3376,2019-04,212231,Minería de cobre,28.63006016,-106.08393472
08066212221000011000000000U6,MINERA FRESNILLO,0 a 5 personas,Chihuahua,Uruachi,Orisivo,367,2016-01,212221,Minería de oro,27.80876719,-108.120874
14038212110000011000000000U5,MINERA CARBONIFERA GAVILAN SA DE CV,11 a 30 personas,Coahuila de Zaragoza,Sabinas,Sabinas,451,2020-11,212110,Minería de carbón mineral,27.85467648,-101.13014845
19019212110000013000000000U3,MINERIA Y ENREGIA DEL NORESTE SA,11 a 30 personas,Coahuila de Zaragoza,Sabinas,Cloete,837,2020-11,212110,Minería de carbón mineral,27.91803408,-101.18012119
19019212232000011001040225M9,IMPULSORA MINERA SANTACRUZ,251 y más personas,Nuevo León,San Pedro Garza García,San Pedro Garza García,83,2012-06,212222,Minería de plata,25.65715281,-100.35833775
19019213119000032010000000U3,"COMPANIA NUEVA MINERA LA LUZ, S.A. DE C.V.",11 a 30 personas,Nuevo León,San Pedro Garza García,San Pedro Garza García,98,2010-07,212232,Minería de plomo y zinc,25.6587174,-100.35553392
19021212110000022000000000U0,MAGNUSSON COKE Y MINERALS,6 a 10 personas,Nuevo León,General Escobedo,Ciudad General Escobedo,1944,2020-11,212110,Minería de carbón mineral,25.81935371,-100.33611262
19039212232000011000000000U7,"ZINC NACIONAL, S.A.",0 a 5 personas,Nuevo León,Monterrey,Monterrey,3714,2014-12,212232,Minería de plomo y zinc,25.61737156,-100.27033051
19039324199000011000000000U3,MINERALES Y CARBONES DE MEXICO SA DE CV,0 a 5 personas,Coahuila de Zaragoza,Saltillo,Saltillo,2193,2020-11,212110,Minería de carbón mineral,25.44040574,-100.97566467
19045212110000023000000000U0,DISTRIBUCIONES INDUSTRIALES DEL NORESTE,11 a 30 personas,Nuevo León,Salinas Victoria,Salinas Victoria,223,2020-11,212110,Minería de carbón mineral,25.96030856,-100.29343303
19046212395000021000000000U6,MOLINO DE MINERALES,0 a 5 personas,Nuevo León,San Nicolás de los Garza,San Nicolás de los Garza,1676,2020-11,212395,Minería de fluorita,25.71290111,-100.29617279
25007212232000021000000000U5,"MINERA RIO TINTO, S.A. DE C.V.",0 a 5 personas,Chihuahua,Chihuahua,Chihuahua,2306,2016-01,212232,Minería de plomo y zinc,28.61639797,-106.02275542
26003212222000043000026502S8,SERVICIO PASMEX SA DE CV,0 a 5 personas,Sonora,Alamos,El Zapote,1221,2019-11,212222,Minería de plata,26.77972564,-108.68836018
26003212222000054000023923S5,CASA CLUB ALAMO DORADO,31 a 50 personas,Sonora,Alamos,Álamos,1310,2020-11,212222,Minería de plata,27.03551652,-108.94238505
26003212231000017000000000U3,COBRE DEL MAYO SA DE CV,251 y más personas,Sonora,Alamos,Nuevo Piedras Verdes,971,2014-12,212231,Minería de cobre,27.11259217,-108.99114591
26003212231000027001016795S2,B METALS MEXICO,101 a 250 personas,Sonora,Alamos,Nuevo Piedras Verdes,971,2019-04,212231,Minería de cobre,27.11528905,-108.99084015
26004212221000011001017071M5,MINERA SANTA RITA,101 a 250 personas,Sonora,Altar,La Mina,926,2016-01,212221,Minería de oro,30.78882752,-111.92189326
26008212221000017100000000U3,MINERA PENMONT,251 y más personas,Sonora,Caborca,Heroica Caborca,2352,2014-12,212221,Minería de oro,30.71596101,-112.1639301
26009212221000017001017071S1,MINERA SANTA RITA,6 a 10 personas,Sonora,Hermosillo,Hermosillo,5005,2014-12,212221,Minería de oro,29.02219886,-110.90532865
26017212221000017000000000U4,MINERA PENMONT,251 y más personas,Sonora,Caborca,Mina la Herradura,166A,2014-12,212221,Minería de oro,31.14871222,-112.85302778
26017212221000021000000000U6,EL PLOMITO MINERA,0 a 5 personas,Sonora,Caborca,Heroica Caborca,1424,2020-11,212221,Minería de oro,30.71644397,-112.15145675
26017212231000013000000000U2,EXPLORACIONES MINERAS PEÑOLES S. A. DE C. V.,11 a 30 personas,Sonora,Caborca,Heroica Caborca,2314,2014-12,212231,Minería de cobre,30.70687679,-112.14553818
26019212231000047001000000U6,"MINERA MARIA, S. A. DE C.V.",101 a 250 personas,Sonora,Cananea,Los Alisos,473,2014-12,212231,Minería de cobre,31.02362694,-110.4076675
26019212231000051001000000U8,"OPERADORA DE MINAS E INSTALACIONES MINERAS, S.A. DE C.V.",251 y más personas,Sonora,Cananea,Heroica Ciudad de Cananea,295,2014-12,212231,Minería de cobre,30.98248016,-110.31628715
26019212231000063000000000U3,MINERA DE COAHUILA SA DE CV,11 a 30 personas,Sonora,Cananea,Heroica Ciudad de Cananea,596,2020-11,212231,Minería de cobre,30.99219344,-110.26734822
26021212110000011000000000U4,CARBÓN MINERAL,6 a 10 personas,Sonora,La Colorada,Julio César Madrid [Carbonera],429,2010-07,212110,Minería de carbón mineral,28.80814775,-110.61249456
26021212110000022100055087S1,ANTRACITA DE SONORA,11 a 30 personas,Sonora,San Javier,El Entronque,010A,2011-03,212110,Minería de carbón mineral,28.56186389,-109.75230528
26021212221000014101000000U3,COMPAÑIA MINERA PITALLA S.A. DE C.V.,251 y más personas,Sonora,La Colorada,El Columpio,429,2011-03,212221,Minería de oro,28.80585357,-110.5723033
26022212221000011001000000S7,MINA CUCURPE,251 y más personas,Sonora,Cucurpe,Bellota,290,2019-04,212221,Minería de oro,30.32529583,-110.45658889
26022212221000021000000000S6,MINAS DE OROCO RESOURCES,251 y más personas,Sonora,Cucurpe,El Cerro Prieto,318,2020-04,212221,Minería de oro,30.27222222,-110.70638889
26030212110000021101055087M4,ANTRACITA DE SONORA,11 a 30 personas,Sonora,San Javier,El Entronque,010A,2016-01,212110,Minería de carbón mineral,28.56186389,-109.75230528
26030212110000043000000000U8,MM MINERALES Y SERVICIOS SC DE RL,11 a 30 personas,Sonora,San Javier,El Entronque,010A,2020-04,212110,Minería de carbón mineral,28.58130525,-109.74575479
26030212221000073000000000U0,MINERA CARDEL,11 a 30 personas,Sonora,Hermosillo,Hermosillo,3009,2010-07,212221,Minería de oro,29.10410461,-110.94153
26030212221000131101025210M6,NUSANTARA DE MEXICO,251 y más personas,Sonora,Banámichi,El Salto,015A,2016-01,212221,Minería de oro,30.02074721,-110.16108376
26030212221000151101000000U4,MINA MULATOS,251 y más personas,Sonora,Sahuaripa,El Paredón,957,2016-01,212221,Minería de oro,28.63959514,-108.74211731
26030212221000166001022419M2,ORO GOLD,0 a 5 personas,Sonora,Hermosillo,Hermosillo,2015,2019-04,212221,Minería de oro,29.09493996,-110.94652412
26030212221000177000040292M9,SANTA ELENA ORO Y PLATA,251 y más personas,Sonora,Hermosillo,El Yuguito,4100,2019-04,212221,Minería de oro,29.05326694,-110.56445722
26030212221000221000000000U5,MINAS DE OROCO RESOURCES,101 a 250 personas,Sonora,Hermosillo,Hermosillo,3028,2020-04,212221,Minería de oro,29.09855288,-110.94087563
26030212221000251000025210S4,NUZANTARA DE MEXICO,11 a 30 personas,Sonora,Hermosillo,Hermosillo,298A,2020-11,212221,Minería de oro,29.07690078,-110.97030648
26030212221000261000055088M3,IMR BONANZA SA DE CV,6 a 10 personas,Sonora,Hermosillo,Hermosillo,2744,2020-11,212221,Minería de oro,29.03014036,-110.91126358
26030212221000271000055089M0,MOLIMENTALES DEL NOROESTE,11 a 30 personas,Sonora,Hermosillo,Hermosillo,3348,2020-11,212221,Minería de oro,29.07947021,-110.98230434
26030212221000281000000000U5,PROYECTOS Y DESARROLLOS PRODESA SA DE CV,101 a 250 personas,Sonora,Hermosillo,Hermosillo,1924,2020-11,212221,Minería de oro,29.09943889,-110.97353596
26030212221000296000000000U7,MINEXSON S.A DE C.V,101 a 250 personas,Sonora,Hermosillo,Hermosillo,5683,2020-11,212221,Minería de oro,29.07894635,-111.00708474
26030212222000071000000000U9,HQ METALES S DE RL DE CV,11 a 30 personas,Sonora,Hermosillo,Hermosillo,5467,2020-11,212222,Minería de plata,29.09947112,-110.98807531
26030212231000032000000000U5,PEAL MEXICO SA DE CV,6 a 10 personas,Sonora,Hermosillo,Hermosillo,3329,2020-11,212231,Minería de cobre,29.09707137,-110.91919038
26030212231000043000000000U2,VESCO HOLDING MEXICO SA DE CV,11 a 30 personas,Sonora,Hermosillo,Hermosillo,2015,2020-11,212231,Minería de cobre,29.09743557,-110.94049607
26030212231000053000000000U1,MINCO MINERO DE COAHUILA SA DE CV,11 a 30 personas,Sonora,Hermosillo,Hermosillo,2015,2020-11,212231,Minería de cobre,29.09743557,-110.94049607
26030212232000014000039560M1,OFICINA MINERA PIEDRA AZUL,0 a 5 personas,Sonora,Hermosillo,Hermosillo,3009,2020-04,212232,Minería de plomo y zinc,29.10064027,-110.9408188
26030213119000632101055092M8,MINA LA MESA DEL PROGRESO,11 a 30 personas,Sonora,Hermosillo,Hermosillo,1888,2010-07,212221,Minería de oro,29.10482602,-110.94691748
26030213119000933000024115M0,MINERA COLUMBIA DE MEXICO,0 a 5 personas,Sonora,Hermosillo,Hermosillo,5698,2019-11,212221,Minería de oro,29.07877678,-110.99176639
26030325180000032000011483S8,MOLYMEX SA DE CV,6 a 10 personas,Sonora,Hermosillo,Hermosillo,2956,2020-11,212231,Minería de cobre,29.08478133,-110.98281192
26036212221000011000000000S7,MINERA MERCEDES MINERALES,0 a 5 personas,Sonora,Magdalena,Magdalena de Kino,455,2013 07,212221,Minería de oro,30.63476427,-110.96282149
26036212221000021001024115S6,MINERA COLUMBIA,251 y más personas,Sonora,Magdalena,El Alamito,328,2019-04,212221,Minería de oro,30.66102028,-111.019625
26038212232000024000039560S0,MINERA PIEDRA AZUL,31 a 50 personas,Sonora,Moctezuma,Las Arenillas,337,2020-11,212232,Minería de plomo y zinc,29.741522,-109.75269
26041212231000033000011515S0,MINA CONCENTRADORA,251 y más personas,Sonora,Nacozari de García,El Ranchito,351,2020-04,212231,Minería de cobre,30.33806976,-109.54764087
26041212231000043000011515S9,OFICINA DE SERVICIOS,0 a 5 personas,Sonora,Nacozari de García,El Ranchito,351,2020-04,212231,Minería de cobre,30.34994766,-109.56995026
26041212231000053000011515S8,COMEDOR COLONIA EL RANCHITO,0 a 5 personas,Sonora,Nacozari de García,El Ranchito,351,2020-04,212231,Minería de cobre,30.34958484,-109.56957311
26041212231000063000011515S7,CASINO,0 a 5 personas,Sonora,Nacozari de García,El Ranchito,351,2020-04,212231,Minería de cobre,30.35097781,-109.57028178
26041212231000073000011515S6,GIMNASIO EL RANCHITO,0 a 5 personas,Sonora,Nacozari de García,El Ranchito,351,2020-04,212231,Minería de cobre,30.35099492,-109.57025288
26041212231000083000011515S5,AUDITORIO DE USOS MULTIPLES,0 a 5 personas,Sonora,Nacozari de García,La Caridad (Fracción G),351,2020-04,212231,Minería de cobre,30.36065777,-109.62219232
26041212231000093000011515S4,CLUB SOCIAL,0 a 5 personas,Sonora,Nacozari de García,La Caridad (Fracción G),351,2020-04,212231,Minería de cobre,30.36033615,-109.62287705
26041212231000103000011515S1,EXCONTADURIA DE LA CARIDAD,0 a 5 personas,Sonora,Nacozari de García,La Caridad (Fracción G),351,2020-04,212231,Minería de cobre,30.36087591,-109.61887692
26041212231000113000011515S0,CLUB SOCIAL,0 a 5 personas,Sonora,Nacozari de García,El Abanico,351,2020-04,212231,Minería de cobre,30.36029932,-109.57805958
26041212231000123000011515S9,METALURGICA DE COBRE DE NACOZARI,0 a 5 personas,Sonora,Nacozari de García,Metalúrgica de Cobre de Nacozari de Garcia,313,2020-04,212231,Minería de cobre,30.49175555,-109.64131889
26041212231000133000011515S8,OFICINA DE SERVICIOS,0 a 5 personas,Sonora,Nacozari de García,El Abanico,351,2020-04,212231,Minería de cobre,30.35906827,-109.5797189
26041212231000143000011515S7,OFICINA DE SERVICIOS,0 a 5 personas,Sonora,Nacozari de García,La Caridad (Fracción G),351,2020-04,212231,Minería de cobre,30.36220447,-109.62474927
26041212231000153000011515S6,GIMNASIO COLONIA EL TAJO,0 a 5 personas,Sonora,Nacozari de García,El Tajo [Colonia],313,2020-04,212231,Minería de cobre,30.51228775,-109.63841524
26041212231000163000011515S5,COMEDOR,0 a 5 personas,Sonora,Nacozari de García,El Tajo [Colonia],313,2020-04,212231,Minería de cobre,30.5121993,-109.63888016
26041212231000173000011515S4,TALLER MEXICANA DE COBRE,0 a 5 personas,Sonora,Nacozari de García,El Tajo [Colonia],313,2020-04,212231,Minería de cobre,30.5124514,-109.64356647
26041212231000183000011515S3,OFICINA DE MEXICANA DEL COBRE,0 a 5 personas,Sonora,Nacozari de García,El Tajo [Colonia],313,2020-04,212231,Minería de cobre,30.51173149,-109.64134575
26041212231000193000011515S2,CLUB MINERO,0 a 5 personas,Sonora,Nacozari de García,El Tajo [Colonia],313,2020-04,212231,Minería de cobre,30.51262174,-109.63833808
26041212231000204000011515S7,CARPINTERIA EL RANCHITO,31 a 50 personas,Sonora,Nacozari de García,El Ranchito,351,2020-11,212231,Minería de cobre,30.35036722,-109.57046669
26041212231000214000011515S6,CENTRO EDUCACIONAL LA CARIDAD SECUNDARIA 42.8602,31 a 50 personas,Sonora,Nacozari de García,La Caridad (Fracción G),351,2020-11,212231,Minería de cobre,30.363168,-109.62129852
26041212231000224000011515S5,JARDIN DE NIÑOS CENTRO EDUCACIONAL LA CARIDAD I,31 a 50 personas,Sonora,Nacozari de García,La Caridad (Fracción G),351,2020-11,212231,Minería de cobre,30.36479032,-109.62611595
26041212231000234000011515S4,ESCUELA PRIMARIA CENTRO EDUCACIONAL LA CARIDAD A.C. CLAVE 26PR0278V,31 a 50 personas,Sonora,Nacozari de García,La Caridad (Fracción G),351,2020-11,212231,Minería de cobre,30.36303386,-109.61888407
26041212231000244000011515S3,EDUCACION INFANTIL LOCALIDAD ABANICO,31 a 50 personas,Sonora,Nacozari de García,El Abanico,351,2020-11,212231,Minería de cobre,30.35930076,-109.58096337
26041212231000254000011515S2,COMEDOR EL TAJO,31 a 50 personas,Sonora,Nacozari de García,El Tajo [Colonia],313,2020-11,212231,Minería de cobre,30.51172454,-109.64150143
26042212231000017001016795M1,B METALS MEXICO,0 a 5 personas,Sonora,Navojoa,Navojoa,611,2010-07,212231,Minería de cobre,27.07157977,-109.44406764
26052212221000017000000000S1,MINA MULATOS,251 y más personas,Sonora,Sahuaripa,El Paredón,957,2014-12,212221,Minería de oro,28.64044287,-108.74006626
26052212221000021101055095M3,MINA LA INDIA,251 y más personas,Sonora,Hermosillo,Hermosillo,2956,2014-12,212221,Minería de oro,29.08518314,-110.98495688
26052212221000031001000000U2,MINERA MAR DE PLATA,11 a 30 personas,Sonora,Sahuaripa,Chipriona,938,2016-01,212221,Minería de oro,28.74444476,-108.8880562
26052212221000051000055095S0,AGNICO SONORA,251 y más personas,Sonora,Sahuaripa,El Metate,957,2020-11,212221,Minería de oro,28.63858492,-108.77412356
26054212110000011001000000U5,MINERALES Y CARBONES PORCHAS DE SAN JAVIER SONORA S DE RL DE CV,6 a 10 personas,Sonora,San Javier,Palo Piojo,010A,2011-03,212110,Minería de carbón mineral,28.58673153,-109.78666306
26054212110000031001000000U3,MINA EL TARAHUMARA,11 a 30 personas,Sonora,San Javier,El Entronque,010A,2010-07,212110,Minería de carbón mineral,28.5625,-109.7541667
26054212110000042000000000U0,MINA SAN MIGUEL,11 a 30 personas,Sonora,San Javier,San Javier,78,2010-07,212110,Minería de carbón mineral,28.59600835,-109.7399133
26057212221000021000055092S3,OFICINAS MINA LA MESA DEL PROGRESO,6 a 10 personas,Sonora,San Pedro de la Cueva,La Mesa del Progreso,309,2020-11,212221,Minería de oro,29.20194649,-109.62457225
26058212221000011001055089S1,MOLIMENTALES DEL NOROESTE,101 a 250 personas,Sonora,Santa Ana,El Realito,274,2014-12,212221,Minería de oro,30.35146637,-111.11910187
26058212231000011101000000U0,CIA. MINERA LA PARREÑA,251 y más personas,Sonora,Santa Cruz,Milpillas,214,2014-12,212231,Minería de cobre,31.10991997,-110.44576821
26059212221000014100000000U3,"MINERA SECOTEC, S.A. DE C.V.",31 a 50 personas,Sonora,Trincheras,Trincheras,303,2014-12,212221,Minería de oro,30.40114632,-111.5411664
26061212231000016101025466M3,MINERALES LIBERTAD SA DE CV,0 a 5 personas,Sonora,Hermosillo,Hermosillo,3032,2014-12,212231,Minería de cobre,29.07646891,-110.96262436
26061212231000026001025466S2,MINERALES LIBERTAD,31 a 50 personas,Sonora,Soyopa,Compañía Minera Libertad,231,2019-04,212231,Minería de cobre,28.63192456,-109.63482732
26062212221000011000055088S1,IMR BONANZA SA DE CV,51 a 100 personas,Sonora,Suaqui Grande,Mina la Perla,135,2020-11,212221,Minería de oro,28.4225,-110.04055556
26064212221000016000000000U8,"MINERA SECOTEC, S.A. DE C.V.",31 a 50 personas,Sonora,Trincheras,Trincheras,303,2014-12,212221,Minería de oro,30.40114632,-111.5411664
26064212221000021000000000U8,MINA CERRO COLORADO,0 a 5 personas,Sonora,Trincheras,El Boludo,445,2016-01,212221,Minería de oro,30.32914139,-111.756115
26069212231000012000055094S5,PROYECTO SANTA ANA,0 a 5 personas,Sonora,Yécora,Santa Ana,371,2016-01,212231,Minería de cobre,28.37945185,-109.14699006
32007212231000011100000000U9,ARANZASU HOLDING SA DE CV,101 a 250 personas,Coahuila de Zaragoza,Saltillo,Saltillo,3806,2011-03,212231,Minería de cobre,25.46327542,-100.93828758
